<?xml version="1.0" encoding="UTF-8"?>
<TrainingCenterDatabase
  xmlns="http://www.garmin.com/xmlschemas/TrainingCenterDatabase/v2">
  <Activities>
    <Activity Sport="Running">
      <Id>2024-03-10T19:30:00.000Z</Id>
      <Lap StartTime="2024-03-10T19:30:00.000Z">
        <TotalTimeSeconds>1800.0</TotalTimeSeconds>
        <Calories>320</Calories>
        <Track>
          <Trackpoint>
            <Time>2024-03-10T19:30:00.000Z</Time>
            <HeartRateBpm><Value>132</Value></HeartRateBpm>
            <Cadence>168</Cadence>
          </Trackpoint>
          <Trackpoint>
            <Time>2024-03-10T19:30:01.000Z</Time>
            <HeartRateBpm><Value>134</Value></HeartRateBpm>
            <Cadence>170</Cadence>
          </Trackpoint>
          <Trackpoint>
            <Time>2024-03-10T19:30:02.000Z</Time>
            <HeartRateBpm><Value>137</Value></HeartRateBpm>
            <Cadence>172</Cadence>
          </Trackpoint>
        </Track>
      </Lap>
    </Activity>
  </Activities>
</TrainingCenterDatabase>
