<?xml version="1.0" encoding="UTF-8"?>
<TrainingCenterDatabase
  xmlns="http://www.garmin.com/xmlschemas/TrainingCenterDatabase/v2">
  <Activities>
    <Activity Sport="Biking">
      <Id>2024-05-01T06:00:00.000Z</Id>
      <Notes>Caf&#233; ride &#8212; morning loop</Notes>
      <Lap StartTime="2024-05-01T06:00:00.000Z">
        <TotalTimeSeconds>1260.0</TotalTimeSeconds>
        <DistanceMeters>4200.0</DistanceMeters>
        <MaximumSpeed>9.8</MaximumSpeed>
        <Calories>254</Calories>
        <AverageHeartRateBpm><Value>151</Value></AverageHeartRateBpm>
        <Track>
          <Trackpoint>
            <Time>2024-05-01T06:00:00.000Z</Time>
            <Position><LatitudeDegrees>-37.950000</LatitudeDegrees><LongitudeDegrees>145.100000</LongitudeDegrees></Position>
            <AltitudeMeters>42.0</AltitudeMeters>
            <HeartRateBpm><Value>120</Value></HeartRateBpm>
            <Cadence>82</Cadence>
          </Trackpoint>
          <Trackpoint>
            <Time>2024-05-01T06:00:03.000Z</Time>
            <Position><LatitudeDegrees>-37.949555</LatitudeDegrees><LongitudeDegrees>145.100027</LongitudeDegrees></Position>
            <AltitudeMeters>42.4</AltitudeMeters>
            <HeartRateBpm><Value>127</Value></HeartRateBpm>
            <Cadence>83</Cadence>
          </Trackpoint>
          <Trackpoint>
            <Time>2024-05-01T06:00:06.000Z</Time>
            <Position><LatitudeDegrees>-37.949110</LatitudeDegrees><LongitudeDegrees>145.100054</LongitudeDegrees></Position>
            <AltitudeMeters>42.8</AltitudeMeters>
            <HeartRateBpm><Value>134</Value></HeartRateBpm>
            <Cadence>84</Cadence>
            <Watts>210</Watts>
          </Trackpoint>
          <Trackpoint>
            <Time>2024-05-01T06:00:09.000Z</Time>
            <Position><LatitudeDegrees>-37.948665</LatitudeDegrees><LongitudeDegrees>145.100081</LongitudeDegrees></Position>
            <AltitudeMeters>43.2</AltitudeMeters>
            <HeartRateBpm><Value>141</Value></HeartRateBpm>
            <Cadence>85</Cadence>
          </Trackpoint>
          <Trackpoint>
            <Time>2024-05-01T06:00:12.000Z</Time>
            <Position><LatitudeDegrees>-37.948220</LatitudeDegrees><LongitudeDegrees>145.100108</LongitudeDegrees></Position>
            <AltitudeMeters>43.6</AltitudeMeters>
            <HeartRateBpm><Value>148</Value></HeartRateBpm>
            <Cadence>86</Cadence>
          </Trackpoint>
          <Trackpoint>
            <Time>2024-05-01T06:00:15.000Z</Time>
            <Position><LatitudeDegrees>-37.898220</LatitudeDegrees><LongitudeDegrees>145.100108</LongitudeDegrees></Position>
            <AltitudeMeters>43.6</AltitudeMeters>
            <HeartRateBpm><Value>149</Value></HeartRateBpm>
            <Cadence>86</Cadence>
          </Trackpoint>
          <Trackpoint>
            <Time>2024-05-01T06:00:18.000Z</Time>
            <Position><LatitudeDegrees>-37.947775</LatitudeDegrees><LongitudeDegrees>145.100135</LongitudeDegrees></Position>
            <AltitudeMeters>44.0</AltitudeMeters>
            <HeartRateBpm><Value>155</Value></HeartRateBpm>
            <Cadence>87</Cadence>
          </Trackpoint>
          <Trackpoint>
            <Time>2024-05-01T06:00:21.000Z</Time>
            <AltitudeMeters>44.0</AltitudeMeters>
            <HeartRateBpm><Value>155</Value></HeartRateBpm>
          </Trackpoint>
        </Track>
      </Lap>
      <Lap StartTime="2024-05-01T06:05:00.000Z">
        <TotalTimeSeconds>1080.0</TotalTimeSeconds>
        <DistanceMeters>3800.0</DistanceMeters>
        <Calories>221</Calories>
        <Track>
          <Trackpoint>
            <Time>2024-05-01T06:05:00.000Z</Time>
            <Position><LatitudeDegrees>-37.947330</LatitudeDegrees><LongitudeDegrees>145.100162</LongitudeDegrees></Position>
            <AltitudeMeters>44.4</AltitudeMeters>
            <HeartRateBpm><Value>162</Value></HeartRateBpm>
            <Cadence>88</Cadence>
          </Trackpoint>
          <Trackpoint>
            <Time>2024-05-01T06:05:03.000Z</Time>
            <Position><LatitudeDegrees>-37.946885</LatitudeDegrees><LongitudeDegrees>145.100189</LongitudeDegrees></Position>
            <AltitudeMeters>44.8</AltitudeMeters>
            <HeartRateBpm><Value>169</Value></HeartRateBpm>
            <Cadence>89</Cadence>
          </Trackpoint>
          <Trackpoint>
            <Time>2024-05-01T06:11:00.000Z</Time>
            <Position><LatitudeDegrees>-37.946440</LatitudeDegrees><LongitudeDegrees>145.100216</LongitudeDegrees></Position>
            <AltitudeMeters>45.2</AltitudeMeters>
            <HeartRateBpm><Value>158</Value></HeartRateBpm>
            <Cadence>87</Cadence>
          </Trackpoint>
          <Trackpoint>
            <Time>2024-05-01T06:11:03.000Z</Time>
            <Position><LatitudeDegrees>-37.945995</LatitudeDegrees><LongitudeDegrees>145.100243</LongitudeDegrees></Position>
            <AltitudeMeters>45.6</AltitudeMeters>
            <HeartRateBpm><Value>161</Value></HeartRateBpm>
            <Cadence>88</Cadence>
          </Trackpoint>
        </Track>
      </Lap>
    </Activity>
  </Activities>
  <Author xsi:type="Application_t" xmlns:xsi="http://www.w3.org/2001/XMLSchema-instance">
    <Name>Garmin Connect</Name>
    <Build><Version><VersionMajor>21</VersionMajor><VersionMinor>1</VersionMinor></Version></Build>
  </Author>
</TrainingCenterDatabase>
