<?xml version="1.0" encoding="UTF-8"?><gpx xmlns="http://www.topografix.com/GPX/1/0" version="1.0" creator="GloryFitPro">
<metadata>
<time>2026-09-23T11:28:23.00Z</time>
</metadata>
<trk>
<type>Outdoor run</type>
<extensions>
<totalTime>1859</totalTime>
<totalDistance>3677.611</totalDistance>
<routeType>0</routeType>
</extensions>
<trkseg>
<trkpt lat="14.689492225646973" lon="121.09465789794922">
<ele>137</ele>
<time>2026-09-23T11:28:23.00Z</time>
<extensions>
<gpxtpx:TrackPointExtension>
<gpxtpx:hr>105</gpxtpx:hr>
<gpxtpx:cad>0</gpxtpx:cad>
</gpxtpx:TrackPointExtension>
</extensions>
</trkpt>
<trkpt lat="14.689579963684082" lon="121.0946273803711">
<ele>137</ele>
<time>2026-09-23T11:28:28.00Z</time>
<extensions>
<gpxtpx:TrackPointExtension>
<gpxtpx:hr>111</gpxtpx:hr>
<gpxtpx:cad>0</gpxtpx:cad>
</gpxtpx:TrackPointExtension>
</extensions>
</trkpt>
<trkpt lat="14.68967342376709" lon="121.09468841552734">
<ele>137</ele>
<time>2026-09-23T11:28:34.00Z</time>
<extensions>
<gpxtpx:TrackPointExtension>
<gpxtpx:hr>112</gpxtpx:hr>
<gpxtpx:cad>0</gpxtpx:cad>
</gpxtpx:TrackPointExtension>
</extensions>
</trkpt>
<trkpt lat="14.689754486083984" lon="121.0947494506836">
<ele>137</ele>
<time>2026-09-23T11:28:40.00Z</time>
<extensions>
<gpxtpx:TrackPointExtension>
<gpxtpx:hr>117</gpxtpx:hr>
<gpxtpx:cad>0</gpxtpx:cad>
</gpxtpx:TrackPointExtension>
</extensions>
</trkpt>
<trkpt lat="14.689815521240234" lon="121.09484100341797">
<ele>137</ele>
<time>2026-09-23T11:28:46.00Z</time>
<extensions>
<gpxtpx:TrackPointExtension>
<gpxtpx:hr>120</gpxtpx:hr>
<gpxtpx:cad>0</gpxtpx:cad>
</gpxtpx:TrackPointExtension>
</extensions>
</trkpt>
<trkpt lat="14.68984317779541" lon="121.0949478149414">
<ele>137</ele>
<time>2026-09-23T11:28:52.00Z</time>
<extensions>
<gpxtpx:TrackPointExtension>
<gpxtpx:hr>123</gpxtpx:hr>
<gpxtpx:cad>0</gpxtpx:cad>
</gpxtpx:TrackPointExtension>
</extensions>
</trkpt>
<trkpt lat="14.68991470336914" lon="121.09504699707031">
<ele>137</ele>
<time>2026-09-23T11:28:57.00Z</time>
<extensions>
<gpxtpx:TrackPointExtension>
<gpxtpx:hr>124</gpxtpx:hr>
<gpxtpx:cad>0</gpxtpx:cad>
</gpxtpx:TrackPointExtension>
</extensions>
</trkpt>
<trkpt lat="14.689998626708984" lon="121.09512329101562">
<ele>137</ele>
<time>2026-09-23T11:29:03.00Z</time>
<extensions>
<gpxtpx:TrackPointExtension>
<gpxtpx:hr>129</gpxtpx:hr>
<gpxtpx:cad>0</gpxtpx:cad>
</gpxtpx:TrackPointExtension>
</extensions>
</trkpt>
<trkpt lat="14.690059661865234" lon="121.09519958496094">
<ele>137</ele>
<time>2026-09-23T11:29:09.00Z</time>
<extensions>
<gpxtpx:TrackPointExtension>
<gpxtpx:hr>131</gpxtpx:hr>
<gpxtpx:cad>0</gpxtpx:cad>
</gpxtpx:TrackPointExtension>
</extensions>
</trkpt>
<trkpt lat="14.690149307250977" lon="121.09530639648438">
<ele>137</ele>
<time>2026-09-23T11:29:15.00Z</time>
<extensions>
<gpxtpx:TrackPointExtension>
<gpxtpx:hr>132</gpxtpx:hr>
<gpxtpx:cad>0</gpxtpx:cad>
</gpxtpx:TrackPointExtension>
</extensions>
</trkpt>
<trkpt lat="14.690232276916504" lon="121.09536743164062">
<ele>137</ele>
<time>2026-09-23T11:29:21.00Z</time>
<extensions>
<gpxtpx:TrackPointExtension>
<gpxtpx:hr>133</gpxtpx:hr>
<gpxtpx:cad>0</gpxtpx:cad>
</gpxtpx:TrackPointExtension>
</extensions>
</trkpt>
<trkpt lat="14.690336227416992" lon="121.09545135498047">
<ele>137</ele>
<time>2026-09-23T11:29:27.00Z</time>
<extensions>
<gpxtpx:TrackPointExtension>
<gpxtpx:hr>135</gpxtpx:hr>
<gpxtpx:cad>0</gpxtpx:cad>
</gpxtpx:TrackPointExtension>
</extensions>
</trkpt>
<trkpt lat="14.69043254852295" lon="121.09551239013672">
<ele>137</ele>
<time>2026-09-23T11:29:32.00Z</time>
<extensions>
<gpxtpx:TrackPointExtension>
<gpxtpx:hr>136</gpxtpx:hr>
<gpxtpx:cad>0</gpxtpx:cad>
</gpxtpx:TrackPointExtension>
</extensions>
</trkpt>
<trkpt lat="14.690528869628906" lon="121.09557342529297">
<ele>137</ele>
<time>2026-09-23T11:29:38.00Z</time>
<extensions>
<gpxtpx:TrackPointExtension>
<gpxtpx:hr>136</gpxtpx:hr>
<gpxtpx:cad>0</gpxtpx:cad>
</gpxtpx:TrackPointExtension>
</extensions>
</trkpt>
<trkpt lat="14.690605163574219" lon="121.09564208984375">
<ele>137</ele>
<time>2026-09-23T11:29:44.00Z</time>
<extensions>
<gpxtpx:TrackPointExtension>
<gpxtpx:hr>138</gpxtpx:hr>
<gpxtpx:cad>0</gpxtpx:cad>
</gpxtpx:TrackPointExtension>
</extensions>
</trkpt>
<trkpt lat="14.690682411193848" lon="121.09571075439453">
<ele>137</ele>
<time>2026-09-23T11:29:50.00Z</time>
<extensions>
<gpxtpx:TrackPointExtension>
<gpxtpx:hr>139</gpxtpx:hr>
<gpxtpx:cad>0</gpxtpx:cad>
</gpxtpx:TrackPointExtension>
</extensions>
</trkpt>
<trkpt lat="14.69075870513916" lon="121.09577941894531">
<ele>137</ele>
<time>2026-09-23T11:29:56.00Z</time>
<extensions>
<gpxtpx:TrackPointExtension>
<gpxtpx:hr>140</gpxtpx:hr>
<gpxtpx:cad>0</gpxtpx:cad>
</gpxtpx:TrackPointExtension>
</extensions>
</trkpt>
<trkpt lat="14.690815925598145" lon="121.09588623046875">
<ele>137</ele>
<time>2026-09-23T11:30:02.00Z</time>
<extensions>
<gpxtpx:TrackPointExtension>
<gpxtpx:hr>140</gpxtpx:hr>
<gpxtpx:cad>0</gpxtpx:cad>
</gpxtpx:TrackPointExtension>
</extensions>
</trkpt>
<trkpt lat="14.690877914428711" lon="121.0959701538086">
<ele>137</ele>
<time>2026-09-23T11:30:07.00Z</time>
<extensions>
<gpxtpx:TrackPointExtension>
<gpxtpx:hr>141</gpxtpx:hr>
<gpxtpx:cad>0</gpxtpx:cad>
</gpxtpx:TrackPointExtension>
</extensions>
</trkpt>
<trkpt lat="14.69091796875" lon="121.09606170654297">
<ele>137</ele>
<time>2026-09-23T11:30:13.00Z</time>
<extensions>
<gpxtpx:TrackPointExtension>
<gpxtpx:hr>141</gpxtpx:hr>
<gpxtpx:cad>0</gpxtpx:cad>
</gpxtpx:TrackPointExtension>
</extensions>
</trkpt>
<trkpt lat="14.690838813781738" lon="121.0959701538086">
<ele>137</ele>
<time>2026-09-23T11:30:19.00Z</time>
<extensions>
<gpxtpx:TrackPointExtension>
<gpxtpx:hr>141</gpxtpx:hr>
<gpxtpx:cad>0</gpxtpx:cad>
</gpxtpx:TrackPointExtension>
</extensions>
</trkpt>
<trkpt lat="14.690756797790527" lon="121.09591674804688">
<ele>137</ele>
<time>2026-09-23T11:30:25.00Z</time>
<extensions>
<gpxtpx:TrackPointExtension>
<gpxtpx:hr>142</gpxtpx:hr>
<gpxtpx:cad>0</gpxtpx:cad>
</gpxtpx:TrackPointExtension>
</extensions>
</trkpt>
<trkpt lat="14.690677642822266" lon="121.0958251953125">
<ele>137</ele>
<time>2026-09-23T11:30:31.00Z</time>
<extensions>
<gpxtpx:TrackPointExtension>
<gpxtpx:hr>141</gpxtpx:hr>
<gpxtpx:cad>0</gpxtpx:cad>
</gpxtpx:TrackPointExtension>
</extensions>
</trkpt>
<trkpt lat="14.690598487854004" lon="121.09574127197266">
<ele>137</ele>
<time>2026-09-23T11:30:37.00Z</time>
<extensions>
<gpxtpx:TrackPointExtension>
<gpxtpx:hr>141</gpxtpx:hr>
<gpxtpx:cad>0</gpxtpx:cad>
</gpxtpx:TrackPointExtension>
</extensions>
</trkpt>
<trkpt lat="14.690521240234375" lon="121.09565734863281">
<ele>137</ele>
<time>2026-09-23T11:30:42.00Z</time>
<extensions>
<gpxtpx:TrackPointExtension>
<gpxtpx:hr>142</gpxtpx:hr>
<gpxtpx:cad>0</gpxtpx:cad>
</gpxtpx:TrackPointExtension>
</extensions>
</trkpt>
<trkpt lat="14.690451622009277" lon="121.0955810546875">
<ele>137</ele>
<time>2026-09-23T11:30:48.00Z</time>
<extensions>
<gpxtpx:TrackPointExtension>
<gpxtpx:hr>141</gpxtpx:hr>
<gpxtpx:cad>0</gpxtpx:cad>
</gpxtpx:TrackPointExtension>
</extensions>
</trkpt>
<trkpt lat="14.690375328063965" lon="121.09550476074219">
<ele>137</ele>
<time>2026-09-23T11:30:54.00Z</time>
<extensions>
<gpxtpx:TrackPointExtension>
<gpxtpx:hr>142</gpxtpx:hr>
<gpxtpx:cad>0</gpxtpx:cad>
</gpxtpx:TrackPointExtension>
</extensions>
</trkpt>
<trkpt lat="14.690303802490234" lon="121.09542083740234">
<ele>137</ele>
<time>2026-09-23T11:31:00.00Z</time>
<extensions>
<gpxtpx:TrackPointExtension>
<gpxtpx:hr>142</gpxtpx:hr>
<gpxtpx:cad>0</gpxtpx:cad>
</gpxtpx:TrackPointExtension>
</extensions>
</trkpt>
<trkpt lat="14.690239906311035" lon="121.09532928466797">
<ele>137</ele>
<time>2026-09-23T11:31:06.00Z</time>
<extensions>
<gpxtpx:TrackPointExtension>
<gpxtpx:hr>140</gpxtpx:hr>
<gpxtpx:cad>0</gpxtpx:cad>
</gpxtpx:TrackPointExtension>
</extensions>
</trkpt>
<trkpt lat="14.690170288085938" lon="121.09526062011719">
<ele>137</ele>
<time>2026-09-23T11:31:12.00Z</time>
<extensions>
<gpxtpx:TrackPointExtension>
<gpxtpx:hr>137</gpxtpx:hr>
<gpxtpx:cad>0</gpxtpx:cad>
</gpxtpx:TrackPointExtension>
</extensions>
</trkpt>
<trkpt lat="14.690095901489258" lon="121.0951919555664">
<ele>137</ele>
<time>2026-09-23T11:31:17.00Z</time>
<extensions>
<gpxtpx:TrackPointExtension>
<gpxtpx:hr>134</gpxtpx:hr>
<gpxtpx:cad>0</gpxtpx:cad>
</gpxtpx:TrackPointExtension>
</extensions>
</trkpt>
<trkpt lat="14.690017700195312" lon="121.09512329101562">
<ele>104</ele>
<time>2026-09-23T11:31:23.00Z</time>
<extensions>
<gpxtpx:TrackPointExtension>
<gpxtpx:hr>131</gpxtpx:hr>
<gpxtpx:cad>0</gpxtpx:cad>
</gpxtpx:TrackPointExtension>
</extensions>
</trkpt>
<trkpt lat="14.689958572387695" lon="121.09504699707031">
<ele>107</ele>
<time>2026-09-23T11:31:29.00Z</time>
<extensions>
<gpxtpx:TrackPointExtension>
<gpxtpx:hr>123</gpxtpx:hr>
<gpxtpx:cad>0</gpxtpx:cad>
</gpxtpx:TrackPointExtension>
</extensions>
</trkpt>
<trkpt lat="14.689889907836914" lon="121.0949478149414">
<ele>109</ele>
<time>2026-09-23T11:31:35.00Z</time>
<extensions>
<gpxtpx:TrackPointExtension>
<gpxtpx:hr>116</gpxtpx:hr>
<gpxtpx:cad>0</gpxtpx:cad>
</gpxtpx:TrackPointExtension>
</extensions>
</trkpt>
<trkpt lat="14.68982982635498" lon="121.0948715209961">
<ele>112</ele>
<time>2026-09-23T11:31:41.00Z</time>
<extensions>
<gpxtpx:TrackPointExtension>
<gpxtpx:hr>113</gpxtpx:hr>
<gpxtpx:cad>0</gpxtpx:cad>
</gpxtpx:TrackPointExtension>
</extensions>
</trkpt>
<trkpt lat="14.689772605895996" lon="121.09479522705078">
<ele>112</ele>
<time>2026-09-23T11:31:46.00Z</time>
<extensions>
<gpxtpx:TrackPointExtension>
<gpxtpx:hr>113</gpxtpx:hr>
<gpxtpx:cad>0</gpxtpx:cad>
</gpxtpx:TrackPointExtension>
</extensions>
</trkpt>
<trkpt lat="14.689703941345215" lon="121.0947265625">
<ele>113</ele>
<time>2026-09-23T11:31:52.00Z</time>
<extensions>
<gpxtpx:TrackPointExtension>
<gpxtpx:hr>116</gpxtpx:hr>
<gpxtpx:cad>0</gpxtpx:cad>
</gpxtpx:TrackPointExtension>
</extensions>
</trkpt>
<trkpt lat="14.689608573913574" lon="121.09467315673828">
<ele>137</ele>
<time>2026-09-23T11:31:58.00Z</time>
<extensions>
<gpxtpx:TrackPointExtension>
<gpxtpx:hr>116</gpxtpx:hr>
<gpxtpx:cad>0</gpxtpx:cad>
</gpxtpx:TrackPointExtension>
</extensions>
</trkpt>
<trkpt lat="14.689515113830566" lon="121.0946273803711">
<ele>137</ele>
<time>2026-09-23T11:32:04.00Z</time>
<extensions>
<gpxtpx:TrackPointExtension>
<gpxtpx:hr>114</gpxtpx:hr>
<gpxtpx:cad>0</gpxtpx:cad>
</gpxtpx:TrackPointExtension>
</extensions>
</trkpt>
<trkpt lat="14.689445495605469" lon="121.09454345703125">
<ele>137</ele>
<time>2026-09-23T11:32:10.00Z</time>
<extensions>
<gpxtpx:TrackPointExtension>
<gpxtpx:hr>117</gpxtpx:hr>
<gpxtpx:cad>0</gpxtpx:cad>
</gpxtpx:TrackPointExtension>
</extensions>
</trkpt>
<trkpt lat="14.68938159942627" lon="121.09445190429688">
<ele>137</ele>
<time>2026-09-23T11:32:16.00Z</time>
<extensions>
<gpxtpx:TrackPointExtension>
<gpxtpx:hr>117</gpxtpx:hr>
<gpxtpx:cad>0</gpxtpx:cad>
</gpxtpx:TrackPointExtension>
</extensions>
</trkpt>
<trkpt lat="14.689323425292969" lon="121.09436798095703">
<ele>137</ele>
<time>2026-09-23T11:32:21.00Z</time>
<extensions>
<gpxtpx:TrackPointExtension>
<gpxtpx:hr>120</gpxtpx:hr>
<gpxtpx:cad>0</gpxtpx:cad>
</gpxtpx:TrackPointExtension>
</extensions>
</trkpt>
<trkpt lat="14.689247131347656" lon="121.09429931640625">
<ele>137</ele>
<time>2026-09-23T11:32:27.00Z</time>
<extensions>
<gpxtpx:TrackPointExtension>
<gpxtpx:hr>122</gpxtpx:hr>
<gpxtpx:cad>0</gpxtpx:cad>
</gpxtpx:TrackPointExtension>
</extensions>
</trkpt>
<trkpt lat="14.689180374145508" lon="121.09422302246094">
<ele>137</ele>
<time>2026-09-23T11:32:33.00Z</time>
<extensions>
<gpxtpx:TrackPointExtension>
<gpxtpx:hr>122</gpxtpx:hr>
<gpxtpx:cad>0</gpxtpx:cad>
</gpxtpx:TrackPointExtension>
</extensions>
</trkpt>
<trkpt lat="14.689144134521484" lon="121.0941162109375">
<ele>137</ele>
<time>2026-09-23T11:32:39.00Z</time>
<extensions>
<gpxtpx:TrackPointExtension>
<gpxtpx:hr>125</gpxtpx:hr>
<gpxtpx:cad>0</gpxtpx:cad>
</gpxtpx:TrackPointExtension>
</extensions>
</trkpt>
<trkpt lat="14.689155578613281" lon="121.09400939941406">
<ele>137</ele>
<time>2026-09-23T11:32:45.00Z</time>
<extensions>
<gpxtpx:TrackPointExtension>
<gpxtpx:hr>126</gpxtpx:hr>
<gpxtpx:cad>0</gpxtpx:cad>
</gpxtpx:TrackPointExtension>
</extensions>
</trkpt>
<trkpt lat="14.689092636108398" lon="121.09393310546875">
<ele>137</ele>
<time>2026-09-23T11:32:51.00Z</time>
<extensions>
<gpxtpx:TrackPointExtension>
<gpxtpx:hr>127</gpxtpx:hr>
<gpxtpx:cad>0</gpxtpx:cad>
</gpxtpx:TrackPointExtension>
</extensions>
</trkpt>
<trkpt lat="14.689037322998047" lon="121.09384155273438">
<ele>137</ele>
<time>2026-09-23T11:32:56.00Z</time>
<extensions>
<gpxtpx:TrackPointExtension>
<gpxtpx:hr>124</gpxtpx:hr>
<gpxtpx:cad>0</gpxtpx:cad>
</gpxtpx:TrackPointExtension>
</extensions>
</trkpt>
<trkpt lat="14.688982963562012" lon="121.09375">
<ele>137</ele>
<time>2026-09-23T11:33:02.00Z</time>
<extensions>
<gpxtpx:TrackPointExtension>
<gpxtpx:hr>120</gpxtpx:hr>
<gpxtpx:cad>0</gpxtpx:cad>
</gpxtpx:TrackPointExtension>
</extensions>
</trkpt>
<trkpt lat="14.68896484375" lon="121.0936508178711">
<ele>134</ele>
<time>2026-09-23T11:33:08.00Z</time>
<extensions>
<gpxtpx:TrackPointExtension>
<gpxtpx:hr>115</gpxtpx:hr>
<gpxtpx:cad>0</gpxtpx:cad>
</gpxtpx:TrackPointExtension>
</extensions>
</trkpt>
<trkpt lat="14.688955307006836" lon="121.09375">
<ele>133</ele>
<time>2026-09-23T11:33:14.00Z</time>
<extensions>
<gpxtpx:TrackPointExtension>
<gpxtpx:hr>114</gpxtpx:hr>
<gpxtpx:cad>0</gpxtpx:cad>
</gpxtpx:TrackPointExtension>
</extensions>
</trkpt>
<trkpt lat="14.688875198364258" lon="121.0938949584961">
<ele>133</ele>
<time>2026-09-23T11:33:20.00Z</time>
<extensions>
<gpxtpx:TrackPointExtension>
<gpxtpx:hr>114</gpxtpx:hr>
<gpxtpx:cad>0</gpxtpx:cad>
</gpxtpx:TrackPointExtension>
</extensions>
</trkpt>
<trkpt lat="14.68882942199707" lon="121.0939712524414">
<ele>133</ele>
<time>2026-09-23T11:33:26.00Z</time>
<extensions>
<gpxtpx:TrackPointExtension>
<gpxtpx:hr>115</gpxtpx:hr>
<gpxtpx:cad>0</gpxtpx:cad>
</gpxtpx:TrackPointExtension>
</extensions>
</trkpt>
<trkpt lat="14.68889045715332" lon="121.09405517578125">
<ele>132</ele>
<time>2026-09-23T11:33:31.00Z</time>
<extensions>
<gpxtpx:TrackPointExtension>
<gpxtpx:hr>116</gpxtpx:hr>
<gpxtpx:cad>0</gpxtpx:cad>
</gpxtpx:TrackPointExtension>
</extensions>
</trkpt>
<trkpt lat="14.688973426818848" lon="121.09410858154297">
<ele>132</ele>
<time>2026-09-23T11:33:37.00Z</time>
<extensions>
<gpxtpx:TrackPointExtension>
<gpxtpx:hr>117</gpxtpx:hr>
<gpxtpx:cad>0</gpxtpx:cad>
</gpxtpx:TrackPointExtension>
</extensions>
</trkpt>
<trkpt lat="14.689064979553223" lon="121.0941162109375">
<ele>133</ele>
<time>2026-09-23T11:33:43.00Z</time>
<extensions>
<gpxtpx:TrackPointExtension>
<gpxtpx:hr>117</gpxtpx:hr>
<gpxtpx:cad>0</gpxtpx:cad>
</gpxtpx:TrackPointExtension>
</extensions>
</trkpt>
<trkpt lat="14.689177513122559" lon="121.09414672851562">
<ele>133</ele>
<time>2026-09-23T11:33:49.00Z</time>
<extensions>
<gpxtpx:TrackPointExtension>
<gpxtpx:hr>120</gpxtpx:hr>
<gpxtpx:cad>0</gpxtpx:cad>
</gpxtpx:TrackPointExtension>
</extensions>
</trkpt>
<trkpt lat="14.689273834228516" lon="121.09419250488281">
<ele>133</ele>
<time>2026-09-23T11:33:55.00Z</time>
<extensions>
<gpxtpx:TrackPointExtension>
<gpxtpx:hr>123</gpxtpx:hr>
<gpxtpx:cad>0</gpxtpx:cad>
</gpxtpx:TrackPointExtension>
</extensions>
</trkpt>
<trkpt lat="14.689353942871094" lon="121.09425354003906">
<ele>133</ele>
<time>2026-09-23T11:34:01.00Z</time>
<extensions>
<gpxtpx:TrackPointExtension>
<gpxtpx:hr>123</gpxtpx:hr>
<gpxtpx:cad>0</gpxtpx:cad>
</gpxtpx:TrackPointExtension>
</extensions>
</trkpt>
<trkpt lat="14.689416885375977" lon="121.09434509277344">
<ele>133</ele>
<time>2026-09-23T11:34:06.00Z</time>
<extensions>
<gpxtpx:TrackPointExtension>
<gpxtpx:hr>120</gpxtpx:hr>
<gpxtpx:cad>0</gpxtpx:cad>
</gpxtpx:TrackPointExtension>
</extensions>
</trkpt>
<trkpt lat="14.68950366973877" lon="121.09439086914062">
<ele>133</ele>
<time>2026-09-23T11:34:12.00Z</time>
<extensions>
<gpxtpx:TrackPointExtension>
<gpxtpx:hr>124</gpxtpx:hr>
<gpxtpx:cad>0</gpxtpx:cad>
</gpxtpx:TrackPointExtension>
</extensions>
</trkpt>
<trkpt lat="14.68959903717041" lon="121.09440612792969">
<ele>133</ele>
<time>2026-09-23T11:34:18.00Z</time>
<extensions>
<gpxtpx:TrackPointExtension>
<gpxtpx:hr>128</gpxtpx:hr>
<gpxtpx:cad>0</gpxtpx:cad>
</gpxtpx:TrackPointExtension>
</extensions>
</trkpt>
<trkpt lat="14.689689636230469" lon="121.09442901611328">
<ele>133</ele>
<time>2026-09-23T11:34:24.00Z</time>
<extensions>
<gpxtpx:TrackPointExtension>
<gpxtpx:hr>128</gpxtpx:hr>
<gpxtpx:cad>0</gpxtpx:cad>
</gpxtpx:TrackPointExtension>
</extensions>
</trkpt>
<trkpt lat="14.689702033996582" lon="121.09453582763672">
<ele>137</ele>
<time>2026-09-23T11:34:30.00Z</time>
<extensions>
<gpxtpx:TrackPointExtension>
<gpxtpx:hr>125</gpxtpx:hr>
<gpxtpx:cad>0</gpxtpx:cad>
</gpxtpx:TrackPointExtension>
</extensions>
</trkpt>
<trkpt lat="14.6897611618042" lon="121.09461975097656">
<ele>137</ele>
<time>2026-09-23T11:34:35.00Z</time>
<extensions>
<gpxtpx:TrackPointExtension>
<gpxtpx:hr>120</gpxtpx:hr>
<gpxtpx:cad>0</gpxtpx:cad>
</gpxtpx:TrackPointExtension>
</extensions>
</trkpt>
<trkpt lat="14.689834594726562" lon="121.09468841552734">
<ele>134</ele>
<time>2026-09-23T11:34:41.00Z</time>
<extensions>
<gpxtpx:TrackPointExtension>
<gpxtpx:hr>123</gpxtpx:hr>
<gpxtpx:cad>0</gpxtpx:cad>
</gpxtpx:TrackPointExtension>
</extensions>
</trkpt>
<trkpt lat="14.68991470336914" lon="121.09476470947266">
<ele>134</ele>
<time>2026-09-23T11:34:47.00Z</time>
<extensions>
<gpxtpx:TrackPointExtension>
<gpxtpx:hr>122</gpxtpx:hr>
<gpxtpx:cad>0</gpxtpx:cad>
</gpxtpx:TrackPointExtension>
</extensions>
</trkpt>
<trkpt lat="14.690009117126465" lon="121.09483337402344">
<ele>134</ele>
<time>2026-09-23T11:34:53.00Z</time>
<extensions>
<gpxtpx:TrackPointExtension>
<gpxtpx:hr>122</gpxtpx:hr>
<gpxtpx:cad>0</gpxtpx:cad>
</gpxtpx:TrackPointExtension>
</extensions>
</trkpt>
<trkpt lat="14.690105438232422" lon="121.09491729736328">
<ele>134</ele>
<time>2026-09-23T11:34:59.00Z</time>
<extensions>
<gpxtpx:TrackPointExtension>
<gpxtpx:hr>123</gpxtpx:hr>
<gpxtpx:cad>0</gpxtpx:cad>
</gpxtpx:TrackPointExtension>
</extensions>
</trkpt>
<trkpt lat="14.690195083618164" lon="121.09495544433594">
<ele>134</ele>
<time>2026-09-23T11:35:05.00Z</time>
<extensions>
<gpxtpx:TrackPointExtension>
<gpxtpx:hr>123</gpxtpx:hr>
<gpxtpx:cad>0</gpxtpx:cad>
</gpxtpx:TrackPointExtension>
</extensions>
</trkpt>
<trkpt lat="14.690290451049805" lon="121.09503173828125">
<ele>134</ele>
<time>2026-09-23T11:35:10.00Z</time>
<extensions>
<gpxtpx:TrackPointExtension>
<gpxtpx:hr>129</gpxtpx:hr>
<gpxtpx:cad>0</gpxtpx:cad>
</gpxtpx:TrackPointExtension>
</extensions>
</trkpt>
<trkpt lat="14.690342903137207" lon="121.09513092041016">
<ele>134</ele>
<time>2026-09-23T11:35:16.00Z</time>
<extensions>
<gpxtpx:TrackPointExtension>
<gpxtpx:hr>134</gpxtpx:hr>
<gpxtpx:cad>0</gpxtpx:cad>
</gpxtpx:TrackPointExtension>
</extensions>
</trkpt>
<trkpt lat="14.690390586853027" lon="121.09522247314453">
<ele>134</ele>
<time>2026-09-23T11:35:22.00Z</time>
<extensions>
<gpxtpx:TrackPointExtension>
<gpxtpx:hr>133</gpxtpx:hr>
<gpxtpx:cad>0</gpxtpx:cad>
</gpxtpx:TrackPointExtension>
</extensions>
</trkpt>
<trkpt lat="14.69045639038086" lon="121.09530639648438">
<ele>134</ele>
<time>2026-09-23T11:35:28.00Z</time>
<extensions>
<gpxtpx:TrackPointExtension>
<gpxtpx:hr>129</gpxtpx:hr>
<gpxtpx:cad>0</gpxtpx:cad>
</gpxtpx:TrackPointExtension>
</extensions>
</trkpt>
<trkpt lat="14.690532684326172" lon="121.09538269042969">
<ele>134</ele>
<time>2026-09-23T11:35:34.00Z</time>
<extensions>
<gpxtpx:TrackPointExtension>
<gpxtpx:hr>127</gpxtpx:hr>
<gpxtpx:cad>0</gpxtpx:cad>
</gpxtpx:TrackPointExtension>
</extensions>
</trkpt>
<trkpt lat="14.690597534179688" lon="121.09546661376953">
<ele>134</ele>
<time>2026-09-23T11:35:40.00Z</time>
<extensions>
<gpxtpx:TrackPointExtension>
<gpxtpx:hr>126</gpxtpx:hr>
<gpxtpx:cad>0</gpxtpx:cad>
</gpxtpx:TrackPointExtension>
</extensions>
</trkpt>
<trkpt lat="14.69066047668457" lon="121.09555053710938">
<ele>134</ele>
<time>2026-09-23T11:35:45.00Z</time>
<extensions>
<gpxtpx:TrackPointExtension>
<gpxtpx:hr>124</gpxtpx:hr>
<gpxtpx:cad>0</gpxtpx:cad>
</gpxtpx:TrackPointExtension>
</extensions>
</trkpt>
<trkpt lat="14.690722465515137" lon="121.09563446044922">
<ele>134</ele>
<time>2026-09-23T11:35:51.00Z</time>
<extensions>
<gpxtpx:TrackPointExtension>
<gpxtpx:hr>123</gpxtpx:hr>
<gpxtpx:cad>0</gpxtpx:cad>
</gpxtpx:TrackPointExtension>
</extensions>
</trkpt>
<trkpt lat="14.690792083740234" lon="121.09571838378906">
<ele>134</ele>
<time>2026-09-23T11:35:57.00Z</time>
<extensions>
<gpxtpx:TrackPointExtension>
<gpxtpx:hr>123</gpxtpx:hr>
<gpxtpx:cad>0</gpxtpx:cad>
</gpxtpx:TrackPointExtension>
</extensions>
</trkpt>
<trkpt lat="14.690851211547852" lon="121.09579467773438">
<ele>134</ele>
<time>2026-09-23T11:36:03.00Z</time>
<extensions>
<gpxtpx:TrackPointExtension>
<gpxtpx:hr>123</gpxtpx:hr>
<gpxtpx:cad>0</gpxtpx:cad>
</gpxtpx:TrackPointExtension>
</extensions>
</trkpt>
<trkpt lat="14.690903663635254" lon="121.09587097167969">
<ele>134</ele>
<time>2026-09-23T11:36:09.00Z</time>
<extensions>
<gpxtpx:TrackPointExtension>
<gpxtpx:hr>121</gpxtpx:hr>
<gpxtpx:cad>0</gpxtpx:cad>
</gpxtpx:TrackPointExtension>
</extensions>
</trkpt>
<trkpt lat="14.690834999084473" lon="121.09578704833984">
<ele>134</ele>
<time>2026-09-23T11:36:15.00Z</time>
<extensions>
<gpxtpx:TrackPointExtension>
<gpxtpx:hr>120</gpxtpx:hr>
<gpxtpx:cad>0</gpxtpx:cad>
</gpxtpx:TrackPointExtension>
</extensions>
</trkpt>
<trkpt lat="14.690765380859375" lon="121.09571838378906">
<ele>134</ele>
<time>2026-09-23T11:36:20.00Z</time>
<extensions>
<gpxtpx:TrackPointExtension>
<gpxtpx:hr>121</gpxtpx:hr>
<gpxtpx:cad>0</gpxtpx:cad>
</gpxtpx:TrackPointExtension>
</extensions>
</trkpt>
<trkpt lat="14.690688133239746" lon="121.09564208984375">
<ele>134</ele>
<time>2026-09-23T11:36:26.00Z</time>
<extensions>
<gpxtpx:TrackPointExtension>
<gpxtpx:hr>123</gpxtpx:hr>
<gpxtpx:cad>0</gpxtpx:cad>
</gpxtpx:TrackPointExtension>
</extensions>
</trkpt>
<trkpt lat="14.690613746643066" lon="121.09557342529297">
<ele>134</ele>
<time>2026-09-23T11:36:32.00Z</time>
<extensions>
<gpxtpx:TrackPointExtension>
<gpxtpx:hr>128</gpxtpx:hr>
<gpxtpx:cad>0</gpxtpx:cad>
</gpxtpx:TrackPointExtension>
</extensions>
</trkpt>
<trkpt lat="14.690522193908691" lon="121.09549713134766">
<ele>134</ele>
<time>2026-09-23T11:36:38.00Z</time>
<extensions>
<gpxtpx:TrackPointExtension>
<gpxtpx:hr>144</gpxtpx:hr>
<gpxtpx:cad>0</gpxtpx:cad>
</gpxtpx:TrackPointExtension>
</extensions>
</trkpt>
<trkpt lat="14.690438270568848" lon="121.09540557861328">
<ele>134</ele>
<time>2026-09-23T11:36:44.00Z</time>
<extensions>
<gpxtpx:TrackPointExtension>
<gpxtpx:hr>151</gpxtpx:hr>
<gpxtpx:cad>0</gpxtpx:cad>
</gpxtpx:TrackPointExtension>
</extensions>
</trkpt>
<trkpt lat="14.690352439880371" lon="121.09536743164062">
<ele>134</ele>
<time>2026-09-23T11:36:50.00Z</time>
<extensions>
<gpxtpx:TrackPointExtension>
<gpxtpx:hr>151</gpxtpx:hr>
<gpxtpx:cad>0</gpxtpx:cad>
</gpxtpx:TrackPointExtension>
</extensions>
</trkpt>
<trkpt lat="14.690269470214844" lon="121.09529876708984">
<ele>134</ele>
<time>2026-09-23T11:36:55.00Z</time>
<extensions>
<gpxtpx:TrackPointExtension>
<gpxtpx:hr>148</gpxtpx:hr>
<gpxtpx:cad>0</gpxtpx:cad>
</gpxtpx:TrackPointExtension>
</extensions>
</trkpt>
<trkpt lat="14.690196990966797" lon="121.0952377319336">
<ele>134</ele>
<time>2026-09-23T11:37:01.00Z</time>
<extensions>
<gpxtpx:TrackPointExtension>
<gpxtpx:hr>147</gpxtpx:hr>
<gpxtpx:cad>0</gpxtpx:cad>
</gpxtpx:TrackPointExtension>
</extensions>
</trkpt>
<trkpt lat="14.690133094787598" lon="121.09516143798828">
<ele>134</ele>
<time>2026-09-23T11:37:07.00Z</time>
<extensions>
<gpxtpx:TrackPointExtension>
<gpxtpx:hr>146</gpxtpx:hr>
<gpxtpx:cad>0</gpxtpx:cad>
</gpxtpx:TrackPointExtension>
</extensions>
</trkpt>
<trkpt lat="14.690046310424805" lon="121.09507751464844">
<ele>97</ele>
<time>2026-09-23T11:37:13.00Z</time>
<extensions>
<gpxtpx:TrackPointExtension>
<gpxtpx:hr>146</gpxtpx:hr>
<gpxtpx:cad>0</gpxtpx:cad>
</gpxtpx:TrackPointExtension>
</extensions>
</trkpt>
<trkpt lat="14.689971923828125" lon="121.0949935913086">
<ele>98</ele>
<time>2026-09-23T11:37:19.00Z</time>
<extensions>
<gpxtpx:TrackPointExtension>
<gpxtpx:hr>146</gpxtpx:hr>
<gpxtpx:cad>0</gpxtpx:cad>
</gpxtpx:TrackPointExtension>
</extensions>
</trkpt>
<trkpt lat="14.689908981323242" lon="121.09491729736328">
<ele>99</ele>
<time>2026-09-23T11:37:24.00Z</time>
<extensions>
<gpxtpx:TrackPointExtension>
<gpxtpx:hr>147</gpxtpx:hr>
<gpxtpx:cad>0</gpxtpx:cad>
</gpxtpx:TrackPointExtension>
</extensions>
</trkpt>
<trkpt lat="14.689862251281738" lon="121.09484100341797">
<ele>100</ele>
<time>2026-09-23T11:37:30.00Z</time>
<extensions>
<gpxtpx:TrackPointExtension>
<gpxtpx:hr>146</gpxtpx:hr>
<gpxtpx:cad>0</gpxtpx:cad>
</gpxtpx:TrackPointExtension>
</extensions>
</trkpt>
<trkpt lat="14.689798355102539" lon="121.09475708007812">
<ele>137</ele>
<time>2026-09-23T11:37:36.00Z</time>
<extensions>
<gpxtpx:TrackPointExtension>
<gpxtpx:hr>146</gpxtpx:hr>
<gpxtpx:cad>0</gpxtpx:cad>
</gpxtpx:TrackPointExtension>
</extensions>
</trkpt>
<trkpt lat="14.68970775604248" lon="121.09471130371094">
<ele>137</ele>
<time>2026-09-23T11:37:42.00Z</time>
<extensions>
<gpxtpx:TrackPointExtension>
<gpxtpx:hr>146</gpxtpx:hr>
<gpxtpx:cad>0</gpxtpx:cad>
</gpxtpx:TrackPointExtension>
</extensions>
</trkpt>
<trkpt lat="14.689624786376953" lon="121.09465789794922">
<ele>137</ele>
<time>2026-09-23T11:37:48.00Z</time>
<extensions>
<gpxtpx:TrackPointExtension>
<gpxtpx:hr>146</gpxtpx:hr>
<gpxtpx:cad>0</gpxtpx:cad>
</gpxtpx:TrackPointExtension>
</extensions>
</trkpt>
<trkpt lat="14.689547538757324" lon="121.0946044921875">
<ele>137</ele>
<time>2026-09-23T11:37:54.00Z</time>
<extensions>
<gpxtpx:TrackPointExtension>
<gpxtpx:hr>146</gpxtpx:hr>
<gpxtpx:cad>0</gpxtpx:cad>
</gpxtpx:TrackPointExtension>
</extensions>
</trkpt>
<trkpt lat="14.689483642578125" lon="121.09453582763672">
<ele>137</ele>
<time>2026-09-23T11:37:59.00Z</time>
<extensions>
<gpxtpx:TrackPointExtension>
<gpxtpx:hr>147</gpxtpx:hr>
<gpxtpx:cad>0</gpxtpx:cad>
</gpxtpx:TrackPointExtension>
</extensions>
</trkpt>
<trkpt lat="14.689414978027344" lon="121.09446716308594">
<ele>137</ele>
<time>2026-09-23T11:38:05.00Z</time>
<extensions>
<gpxtpx:TrackPointExtension>
<gpxtpx:hr>148</gpxtpx:hr>
<gpxtpx:cad>0</gpxtpx:cad>
</gpxtpx:TrackPointExtension>
</extensions>
</trkpt>
<trkpt lat="14.689336776733398" lon="121.09440612792969">
<ele>135</ele>
<time>2026-09-23T11:38:11.00Z</time>
<extensions>
<gpxtpx:TrackPointExtension>
<gpxtpx:hr>148</gpxtpx:hr>
<gpxtpx:cad>0</gpxtpx:cad>
</gpxtpx:TrackPointExtension>
</extensions>
</trkpt>
<trkpt lat="14.689282417297363" lon="121.09432983398438">
<ele>134</ele>
<time>2026-09-23T11:38:17.00Z</time>
<extensions>
<gpxtpx:TrackPointExtension>
<gpxtpx:hr>147</gpxtpx:hr>
<gpxtpx:cad>0</gpxtpx:cad>
</gpxtpx:TrackPointExtension>
</extensions>
</trkpt>
<trkpt lat="14.68920612335205" lon="121.0942611694336">
<ele>133</ele>
<time>2026-09-23T11:38:23.00Z</time>
<extensions>
<gpxtpx:TrackPointExtension>
<gpxtpx:hr>150</gpxtpx:hr>
<gpxtpx:cad>0</gpxtpx:cad>
</gpxtpx:TrackPointExtension>
</extensions>
</trkpt>
<trkpt lat="14.689136505126953" lon="121.09419250488281">
<ele>134</ele>
<time>2026-09-23T11:38:29.00Z</time>
<extensions>
<gpxtpx:TrackPointExtension>
<gpxtpx:hr>149</gpxtpx:hr>
<gpxtpx:cad>0</gpxtpx:cad>
</gpxtpx:TrackPointExtension>
</extensions>
</trkpt>
<trkpt lat="14.689071655273438" lon="121.0941162109375">
<ele>134</ele>
<time>2026-09-23T11:38:34.00Z</time>
<extensions>
<gpxtpx:TrackPointExtension>
<gpxtpx:hr>147</gpxtpx:hr>
<gpxtpx:cad>0</gpxtpx:cad>
</gpxtpx:TrackPointExtension>
</extensions>
</trkpt>
<trkpt lat="14.689008712768555" lon="121.09404754638672">
<ele>133</ele>
<time>2026-09-23T11:38:40.00Z</time>
<extensions>
<gpxtpx:TrackPointExtension>
<gpxtpx:hr>149</gpxtpx:hr>
<gpxtpx:cad>0</gpxtpx:cad>
</gpxtpx:TrackPointExtension>
</extensions>
</trkpt>
<trkpt lat="14.689082145690918" lon="121.0941162109375">
<ele>133</ele>
<time>2026-09-23T11:38:46.00Z</time>
<extensions>
<gpxtpx:TrackPointExtension>
<gpxtpx:hr>151</gpxtpx:hr>
<gpxtpx:cad>0</gpxtpx:cad>
</gpxtpx:TrackPointExtension>
</extensions>
</trkpt>
<trkpt lat="14.689151763916016" lon="121.09419250488281">
<ele>134</ele>
<time>2026-09-23T11:38:52.00Z</time>
<extensions>
<gpxtpx:TrackPointExtension>
<gpxtpx:hr>151</gpxtpx:hr>
<gpxtpx:cad>0</gpxtpx:cad>
</gpxtpx:TrackPointExtension>
</extensions>
</trkpt>
<trkpt lat="14.68923568725586" lon="121.09424591064453">
<ele>134</ele>
<time>2026-09-23T11:38:58.00Z</time>
<extensions>
<gpxtpx:TrackPointExtension>
<gpxtpx:hr>156</gpxtpx:hr>
<gpxtpx:cad>0</gpxtpx:cad>
</gpxtpx:TrackPointExtension>
</extensions>
</trkpt>
<trkpt lat="14.689306259155273" lon="121.09431457519531">
<ele>134</ele>
<time>2026-09-23T11:39:04.00Z</time>
<extensions>
<gpxtpx:TrackPointExtension>
<gpxtpx:hr>158</gpxtpx:hr>
<gpxtpx:cad>0</gpxtpx:cad>
</gpxtpx:TrackPointExtension>
</extensions>
</trkpt>
<trkpt lat="14.689363479614258" lon="121.09439086914062">
<ele>134</ele>
<time>2026-09-23T11:39:09.00Z</time>
<extensions>
<gpxtpx:TrackPointExtension>
<gpxtpx:hr>166</gpxtpx:hr>
<gpxtpx:cad>0</gpxtpx:cad>
</gpxtpx:TrackPointExtension>
</extensions>
</trkpt>
<trkpt lat="14.689433097839355" lon="121.0944595336914">
<ele>137</ele>
<time>2026-09-23T11:39:15.00Z</time>
<extensions>
<gpxtpx:TrackPointExtension>
<gpxtpx:hr>167</gpxtpx:hr>
<gpxtpx:cad>0</gpxtpx:cad>
</gpxtpx:TrackPointExtension>
</extensions>
</trkpt>
<trkpt lat="14.689506530761719" lon="121.09452056884766">
<ele>139</ele>
<time>2026-09-23T11:39:21.00Z</time>
<extensions>
<gpxtpx:TrackPointExtension>
<gpxtpx:hr>171</gpxtpx:hr>
<gpxtpx:cad>0</gpxtpx:cad>
</gpxtpx:TrackPointExtension>
</extensions>
</trkpt>
<trkpt lat="14.689584732055664" lon="121.09457397460938">
<ele>137</ele>
<time>2026-09-23T11:39:27.00Z</time>
<extensions>
<gpxtpx:TrackPointExtension>
<gpxtpx:hr>172</gpxtpx:hr>
<gpxtpx:cad>0</gpxtpx:cad>
</gpxtpx:TrackPointExtension>
</extensions>
</trkpt>
<trkpt lat="14.689632415771484" lon="121.09465789794922">
<ele>137</ele>
<time>2026-09-23T11:39:33.00Z</time>
<extensions>
<gpxtpx:TrackPointExtension>
<gpxtpx:hr>174</gpxtpx:hr>
<gpxtpx:cad>0</gpxtpx:cad>
</gpxtpx:TrackPointExtension>
</extensions>
</trkpt>
<trkpt lat="14.689595222473145" lon="121.0947494506836">
<ele>137</ele>
<time>2026-09-23T11:39:39.00Z</time>
<extensions>
<gpxtpx:TrackPointExtension>
<gpxtpx:hr>176</gpxtpx:hr>
<gpxtpx:cad>0</gpxtpx:cad>
</gpxtpx:TrackPointExtension>
</extensions>
</trkpt>
<trkpt lat="14.689611434936523" lon="121.0948486328125">
<ele>137</ele>
<time>2026-09-23T11:39:44.00Z</time>
<extensions>
<gpxtpx:TrackPointExtension>
<gpxtpx:hr>177</gpxtpx:hr>
<gpxtpx:cad>0</gpxtpx:cad>
</gpxtpx:TrackPointExtension>
</extensions>
</trkpt>
<trkpt lat="14.68964672088623" lon="121.09494018554688">
<ele>137</ele>
<time>2026-09-23T11:39:50.00Z</time>
<extensions>
<gpxtpx:TrackPointExtension>
<gpxtpx:hr>177</gpxtpx:hr>
<gpxtpx:cad>0</gpxtpx:cad>
</gpxtpx:TrackPointExtension>
</extensions>
</trkpt>
<trkpt lat="14.689739227294922" lon="121.09500885009766">
<ele>137</ele>
<time>2026-09-23T11:39:56.00Z</time>
<extensions>
<gpxtpx:TrackPointExtension>
<gpxtpx:hr>176</gpxtpx:hr>
<gpxtpx:cad>0</gpxtpx:cad>
</gpxtpx:TrackPointExtension>
</extensions>
</trkpt>
<trkpt lat="14.689833641052246" lon="121.0950698852539">
<ele>137</ele>
<time>2026-09-23T11:40:02.00Z</time>
<extensions>
<gpxtpx:TrackPointExtension>
<gpxtpx:hr>172</gpxtpx:hr>
<gpxtpx:cad>0</gpxtpx:cad>
</gpxtpx:TrackPointExtension>
</extensions>
</trkpt>
<trkpt lat="14.689908981323242" lon="121.09515380859375">
<ele>137</ele>
<time>2026-09-23T11:40:08.00Z</time>
<extensions>
<gpxtpx:TrackPointExtension>
<gpxtpx:hr>173</gpxtpx:hr>
<gpxtpx:cad>0</gpxtpx:cad>
</gpxtpx:TrackPointExtension>
</extensions>
</trkpt>
<trkpt lat="14.6899995803833" lon="121.09518432617188">
<ele>137</ele>
<time>2026-09-23T11:40:13.00Z</time>
<extensions>
<gpxtpx:TrackPointExtension>
<gpxtpx:hr>174</gpxtpx:hr>
<gpxtpx:cad>0</gpxtpx:cad>
</gpxtpx:TrackPointExtension>
</extensions>
</trkpt>
<trkpt lat="14.690086364746094" lon="121.09525299072266">
<ele>137</ele>
<time>2026-09-23T11:40:19.00Z</time>
<extensions>
<gpxtpx:TrackPointExtension>
<gpxtpx:hr>172</gpxtpx:hr>
<gpxtpx:cad>0</gpxtpx:cad>
</gpxtpx:TrackPointExtension>
</extensions>
</trkpt>
<trkpt lat="14.690139770507812" lon="121.0953369140625">
<ele>137</ele>
<time>2026-09-23T11:40:25.00Z</time>
<extensions>
<gpxtpx:TrackPointExtension>
<gpxtpx:hr>172</gpxtpx:hr>
<gpxtpx:cad>0</gpxtpx:cad>
</gpxtpx:TrackPointExtension>
</extensions>
</trkpt>
<trkpt lat="14.690210342407227" lon="121.0954360961914">
<ele>137</ele>
<time>2026-09-23T11:40:31.00Z</time>
<extensions>
<gpxtpx:TrackPointExtension>
<gpxtpx:hr>178</gpxtpx:hr>
<gpxtpx:cad>0</gpxtpx:cad>
</gpxtpx:TrackPointExtension>
</extensions>
</trkpt>
<trkpt lat="14.690284729003906" lon="121.09551239013672">
<ele>137</ele>
<time>2026-09-23T11:40:37.00Z</time>
<extensions>
<gpxtpx:TrackPointExtension>
<gpxtpx:hr>180</gpxtpx:hr>
<gpxtpx:cad>0</gpxtpx:cad>
</gpxtpx:TrackPointExtension>
</extensions>
</trkpt>
<trkpt lat="14.690349578857422" lon="121.09559631347656">
<ele>137</ele>
<time>2026-09-23T11:40:43.00Z</time>
<extensions>
<gpxtpx:TrackPointExtension>
<gpxtpx:hr>178</gpxtpx:hr>
<gpxtpx:cad>0</gpxtpx:cad>
</gpxtpx:TrackPointExtension>
</extensions>
</trkpt>
<trkpt lat="14.69041633605957" lon="121.0956802368164">
<ele>137</ele>
<time>2026-09-23T11:40:48.00Z</time>
<extensions>
<gpxtpx:TrackPointExtension>
<gpxtpx:hr>175</gpxtpx:hr>
<gpxtpx:cad>0</gpxtpx:cad>
</gpxtpx:TrackPointExtension>
</extensions>
</trkpt>
<trkpt lat="14.690492630004883" lon="121.09575653076172">
<ele>137</ele>
<time>2026-09-23T11:40:54.00Z</time>
<extensions>
<gpxtpx:TrackPointExtension>
<gpxtpx:hr>172</gpxtpx:hr>
<gpxtpx:cad>0</gpxtpx:cad>
</gpxtpx:TrackPointExtension>
</extensions>
</trkpt>
<trkpt lat="14.690568923950195" lon="121.0958251953125">
<ele>137</ele>
<time>2026-09-23T11:41:00.00Z</time>
<extensions>
<gpxtpx:TrackPointExtension>
<gpxtpx:hr>170</gpxtpx:hr>
<gpxtpx:cad>0</gpxtpx:cad>
</gpxtpx:TrackPointExtension>
</extensions>
</trkpt>
<trkpt lat="14.69062614440918" lon="121.09590148925781">
<ele>137</ele>
<time>2026-09-23T11:41:06.00Z</time>
<extensions>
<gpxtpx:TrackPointExtension>
<gpxtpx:hr>169</gpxtpx:hr>
<gpxtpx:cad>0</gpxtpx:cad>
</gpxtpx:TrackPointExtension>
</extensions>
</trkpt>
<trkpt lat="14.69069766998291" lon="121.09596252441406">
<ele>137</ele>
<time>2026-09-23T11:41:12.00Z</time>
<extensions>
<gpxtpx:TrackPointExtension>
<gpxtpx:hr>167</gpxtpx:hr>
<gpxtpx:cad>0</gpxtpx:cad>
</gpxtpx:TrackPointExtension>
</extensions>
</trkpt>
<trkpt lat="14.690667152404785" lon="121.09587097167969">
<ele>137</ele>
<time>2026-09-23T11:41:18.00Z</time>
<extensions>
<gpxtpx:TrackPointExtension>
<gpxtpx:hr>163</gpxtpx:hr>
<gpxtpx:cad>0</gpxtpx:cad>
</gpxtpx:TrackPointExtension>
</extensions>
</trkpt>
<trkpt lat="14.690608978271484" lon="121.09575653076172">
<ele>137</ele>
<time>2026-09-23T11:41:23.00Z</time>
<extensions>
<gpxtpx:TrackPointExtension>
<gpxtpx:hr>163</gpxtpx:hr>
<gpxtpx:cad>0</gpxtpx:cad>
</gpxtpx:TrackPointExtension>
</extensions>
</trkpt>
<trkpt lat="14.690539360046387" lon="121.09566497802734">
<ele>137</ele>
<time>2026-09-23T11:41:29.00Z</time>
<extensions>
<gpxtpx:TrackPointExtension>
<gpxtpx:hr>162</gpxtpx:hr>
<gpxtpx:cad>0</gpxtpx:cad>
</gpxtpx:TrackPointExtension>
</extensions>
</trkpt>
<trkpt lat="14.690470695495605" lon="121.09556579589844">
<ele>137</ele>
<time>2026-09-23T11:41:35.00Z</time>
<extensions>
<gpxtpx:TrackPointExtension>
<gpxtpx:hr>162</gpxtpx:hr>
<gpxtpx:cad>0</gpxtpx:cad>
</gpxtpx:TrackPointExtension>
</extensions>
</trkpt>
<trkpt lat="14.690402030944824" lon="121.09547424316406">
<ele>137</ele>
<time>2026-09-23T11:41:41.00Z</time>
<extensions>
<gpxtpx:TrackPointExtension>
<gpxtpx:hr>164</gpxtpx:hr>
<gpxtpx:cad>0</gpxtpx:cad>
</gpxtpx:TrackPointExtension>
</extensions>
</trkpt>
<trkpt lat="14.69033145904541" lon="121.09539031982422">
<ele>137</ele>
<time>2026-09-23T11:41:47.00Z</time>
<extensions>
<gpxtpx:TrackPointExtension>
<gpxtpx:hr>161</gpxtpx:hr>
<gpxtpx:cad>0</gpxtpx:cad>
</gpxtpx:TrackPointExtension>
</extensions>
</trkpt>
<trkpt lat="14.690279006958008" lon="121.09530639648438">
<ele>137</ele>
<time>2026-09-23T11:41:53.00Z</time>
<extensions>
<gpxtpx:TrackPointExtension>
<gpxtpx:hr>160</gpxtpx:hr>
<gpxtpx:cad>0</gpxtpx:cad>
</gpxtpx:TrackPointExtension>
</extensions>
</trkpt>
<trkpt lat="14.690220832824707" lon="121.09522247314453">
<ele>137</ele>
<time>2026-09-23T11:41:58.00Z</time>
<extensions>
<gpxtpx:TrackPointExtension>
<gpxtpx:hr>160</gpxtpx:hr>
<gpxtpx:cad>0</gpxtpx:cad>
</gpxtpx:TrackPointExtension>
</extensions>
</trkpt>
<trkpt lat="14.690150260925293" lon="121.09513092041016">
<ele>137</ele>
<time>2026-09-23T11:42:04.00Z</time>
<extensions>
<gpxtpx:TrackPointExtension>
<gpxtpx:hr>158</gpxtpx:hr>
<gpxtpx:cad>0</gpxtpx:cad>
</gpxtpx:TrackPointExtension>
</extensions>
</trkpt>
<trkpt lat="14.69007396697998" lon="121.09506225585938">
<ele>137</ele>
<time>2026-09-23T11:42:10.00Z</time>
<extensions>
<gpxtpx:TrackPointExtension>
<gpxtpx:hr>158</gpxtpx:hr>
<gpxtpx:cad>0</gpxtpx:cad>
</gpxtpx:TrackPointExtension>
</extensions>
</trkpt>
<trkpt lat="14.690024375915527" lon="121.09496307373047">
<ele>94</ele>
<time>2026-09-23T11:42:16.00Z</time>
<extensions>
<gpxtpx:TrackPointExtension>
<gpxtpx:hr>155</gpxtpx:hr>
<gpxtpx:cad>0</gpxtpx:cad>
</gpxtpx:TrackPointExtension>
</extensions>
</trkpt>
<trkpt lat="14.689964294433594" lon="121.09489440917969">
<ele>97</ele>
<time>2026-09-23T11:42:22.00Z</time>
<extensions>
<gpxtpx:TrackPointExtension>
<gpxtpx:hr>154</gpxtpx:hr>
<gpxtpx:cad>0</gpxtpx:cad>
</gpxtpx:TrackPointExtension>
</extensions>
</trkpt>
<trkpt lat="14.689884185791016" lon="121.09484100341797">
<ele>96</ele>
<time>2026-09-23T11:42:28.00Z</time>
<extensions>
<gpxtpx:TrackPointExtension>
<gpxtpx:hr>151</gpxtpx:hr>
<gpxtpx:cad>0</gpxtpx:cad>
</gpxtpx:TrackPointExtension>
</extensions>
</trkpt>
<trkpt lat="14.689813613891602" lon="121.09477996826172">
<ele>92</ele>
<time>2026-09-23T11:42:33.00Z</time>
<extensions>
<gpxtpx:TrackPointExtension>
<gpxtpx:hr>151</gpxtpx:hr>
<gpxtpx:cad>0</gpxtpx:cad>
</gpxtpx:TrackPointExtension>
</extensions>
</trkpt>
<trkpt lat="14.689762115478516" lon="121.09469604492188">
<ele>89</ele>
<time>2026-09-23T11:42:39.00Z</time>
<extensions>
<gpxtpx:TrackPointExtension>
<gpxtpx:hr>151</gpxtpx:hr>
<gpxtpx:cad>0</gpxtpx:cad>
</gpxtpx:TrackPointExtension>
</extensions>
</trkpt>
<trkpt lat="14.689719200134277" lon="121.0946044921875">
<ele>137</ele>
<time>2026-09-23T11:42:45.00Z</time>
<extensions>
<gpxtpx:TrackPointExtension>
<gpxtpx:hr>152</gpxtpx:hr>
<gpxtpx:cad>0</gpxtpx:cad>
</gpxtpx:TrackPointExtension>
</extensions>
</trkpt>
<trkpt lat="14.689645767211914" lon="121.09454345703125">
<ele>137</ele>
<time>2026-09-23T11:42:51.00Z</time>
<extensions>
<gpxtpx:TrackPointExtension>
<gpxtpx:hr>153</gpxtpx:hr>
<gpxtpx:cad>0</gpxtpx:cad>
</gpxtpx:TrackPointExtension>
</extensions>
</trkpt>
<trkpt lat="14.689559936523438" lon="121.094482421875">
<ele>137</ele>
<time>2026-09-23T11:42:57.00Z</time>
<extensions>
<gpxtpx:TrackPointExtension>
<gpxtpx:hr>153</gpxtpx:hr>
<gpxtpx:cad>0</gpxtpx:cad>
</gpxtpx:TrackPointExtension>
</extensions>
</trkpt>
<trkpt lat="14.689489364624023" lon="121.09442138671875">
<ele>137</ele>
<time>2026-09-23T11:43:02.00Z</time>
<extensions>
<gpxtpx:TrackPointExtension>
<gpxtpx:hr>150</gpxtpx:hr>
<gpxtpx:cad>0</gpxtpx:cad>
</gpxtpx:TrackPointExtension>
</extensions>
</trkpt>
<trkpt lat="14.689430236816406" lon="121.09435272216797">
<ele>139</ele>
<time>2026-09-23T11:43:08.00Z</time>
<extensions>
<gpxtpx:TrackPointExtension>
<gpxtpx:hr>148</gpxtpx:hr>
<gpxtpx:cad>0</gpxtpx:cad>
</gpxtpx:TrackPointExtension>
</extensions>
</trkpt>
<trkpt lat="14.689376831054688" lon="121.09426879882812">
<ele>134</ele>
<time>2026-09-23T11:43:14.00Z</time>
<extensions>
<gpxtpx:TrackPointExtension>
<gpxtpx:hr>148</gpxtpx:hr>
<gpxtpx:cad>0</gpxtpx:cad>
</gpxtpx:TrackPointExtension>
</extensions>
</trkpt>
<trkpt lat="14.689315795898438" lon="121.09420013427734">
<ele>134</ele>
<time>2026-09-23T11:43:20.00Z</time>
<extensions>
<gpxtpx:TrackPointExtension>
<gpxtpx:hr>147</gpxtpx:hr>
<gpxtpx:cad>0</gpxtpx:cad>
</gpxtpx:TrackPointExtension>
</extensions>
</trkpt>
<trkpt lat="14.689258575439453" lon="121.0941162109375">
<ele>134</ele>
<time>2026-09-23T11:43:26.00Z</time>
<extensions>
<gpxtpx:TrackPointExtension>
<gpxtpx:hr>146</gpxtpx:hr>
<gpxtpx:cad>0</gpxtpx:cad>
</gpxtpx:TrackPointExtension>
</extensions>
</trkpt>
<trkpt lat="14.689167022705078" lon="121.0940933227539">
<ele>134</ele>
<time>2026-09-23T11:43:32.00Z</time>
<extensions>
<gpxtpx:TrackPointExtension>
<gpxtpx:hr>147</gpxtpx:hr>
<gpxtpx:cad>0</gpxtpx:cad>
</gpxtpx:TrackPointExtension>
</extensions>
</trkpt>
<trkpt lat="14.689082145690918" lon="121.09403991699219">
<ele>134</ele>
<time>2026-09-23T11:43:37.00Z</time>
<extensions>
<gpxtpx:TrackPointExtension>
<gpxtpx:hr>149</gpxtpx:hr>
<gpxtpx:cad>0</gpxtpx:cad>
</gpxtpx:TrackPointExtension>
</extensions>
</trkpt>
<trkpt lat="14.689018249511719" lon="121.09397888183594">
<ele>133</ele>
<time>2026-09-23T11:43:43.00Z</time>
<extensions>
<gpxtpx:TrackPointExtension>
<gpxtpx:hr>150</gpxtpx:hr>
<gpxtpx:cad>0</gpxtpx:cad>
</gpxtpx:TrackPointExtension>
</extensions>
</trkpt>
<trkpt lat="14.689021110534668" lon="121.09407806396484">
<ele>133</ele>
<time>2026-09-23T11:43:49.00Z</time>
<extensions>
<gpxtpx:TrackPointExtension>
<gpxtpx:hr>149</gpxtpx:hr>
<gpxtpx:cad>0</gpxtpx:cad>
</gpxtpx:TrackPointExtension>
</extensions>
</trkpt>
<trkpt lat="14.689092636108398" lon="121.09413146972656">
<ele>133</ele>
<time>2026-09-23T11:43:55.00Z</time>
<extensions>
<gpxtpx:TrackPointExtension>
<gpxtpx:hr>147</gpxtpx:hr>
<gpxtpx:cad>0</gpxtpx:cad>
</gpxtpx:TrackPointExtension>
</extensions>
</trkpt>
<trkpt lat="14.689130783081055" lon="121.09423065185547">
<ele>134</ele>
<time>2026-09-23T11:44:01.00Z</time>
<extensions>
<gpxtpx:TrackPointExtension>
<gpxtpx:hr>147</gpxtpx:hr>
<gpxtpx:cad>0</gpxtpx:cad>
</gpxtpx:TrackPointExtension>
</extensions>
</trkpt>
<trkpt lat="14.689213752746582" lon="121.09426879882812">
<ele>134</ele>
<time>2026-09-23T11:44:07.00Z</time>
<extensions>
<gpxtpx:TrackPointExtension>
<gpxtpx:hr>150</gpxtpx:hr>
<gpxtpx:cad>0</gpxtpx:cad>
</gpxtpx:TrackPointExtension>
</extensions>
</trkpt>
<trkpt lat="14.689286231994629" lon="121.09434509277344">
<ele>134</ele>
<time>2026-09-23T11:44:12.00Z</time>
<extensions>
<gpxtpx:TrackPointExtension>
<gpxtpx:hr>148</gpxtpx:hr>
<gpxtpx:cad>0</gpxtpx:cad>
</gpxtpx:TrackPointExtension>
</extensions>
</trkpt>
<trkpt lat="14.689343452453613" lon="121.09442138671875">
<ele>137</ele>
<time>2026-09-23T11:44:18.00Z</time>
<extensions>
<gpxtpx:TrackPointExtension>
<gpxtpx:hr>151</gpxtpx:hr>
<gpxtpx:cad>0</gpxtpx:cad>
</gpxtpx:TrackPointExtension>
</extensions>
</trkpt>
<trkpt lat="14.689412117004395" lon="121.094482421875">
<ele>139</ele>
<time>2026-09-23T11:44:24.00Z</time>
<extensions>
<gpxtpx:TrackPointExtension>
<gpxtpx:hr>154</gpxtpx:hr>
<gpxtpx:cad>0</gpxtpx:cad>
</gpxtpx:TrackPointExtension>
</extensions>
</trkpt>
<trkpt lat="14.689494132995605" lon="121.09454345703125">
<ele>137</ele>
<time>2026-09-23T11:44:30.00Z</time>
<extensions>
<gpxtpx:TrackPointExtension>
<gpxtpx:hr>161</gpxtpx:hr>
<gpxtpx:cad>0</gpxtpx:cad>
</gpxtpx:TrackPointExtension>
</extensions>
</trkpt>
<trkpt lat="14.689557075500488" lon="121.09461975097656">
<ele>137</ele>
<time>2026-09-23T11:44:36.00Z</time>
<extensions>
<gpxtpx:TrackPointExtension>
<gpxtpx:hr>165</gpxtpx:hr>
<gpxtpx:cad>0</gpxtpx:cad>
</gpxtpx:TrackPointExtension>
</extensions>
</trkpt>
<trkpt lat="14.689603805541992" lon="121.09471130371094">
<ele>137</ele>
<time>2026-09-23T11:44:42.00Z</time>
<extensions>
<gpxtpx:TrackPointExtension>
<gpxtpx:hr>171</gpxtpx:hr>
<gpxtpx:cad>0</gpxtpx:cad>
</gpxtpx:TrackPointExtension>
</extensions>
</trkpt>
<trkpt lat="14.689666748046875" lon="121.09480285644531">
<ele>137</ele>
<time>2026-09-23T11:44:47.00Z</time>
<extensions>
<gpxtpx:TrackPointExtension>
<gpxtpx:hr>175</gpxtpx:hr>
<gpxtpx:cad>0</gpxtpx:cad>
</gpxtpx:TrackPointExtension>
</extensions>
</trkpt>
<trkpt lat="14.689750671386719" lon="121.09488677978516">
<ele>137</ele>
<time>2026-09-23T11:44:53.00Z</time>
<extensions>
<gpxtpx:TrackPointExtension>
<gpxtpx:hr>177</gpxtpx:hr>
<gpxtpx:cad>0</gpxtpx:cad>
</gpxtpx:TrackPointExtension>
</extensions>
</trkpt>
<trkpt lat="14.689826965332031" lon="121.09497833251953">
<ele>137</ele>
<time>2026-09-23T11:44:59.00Z</time>
<extensions>
<gpxtpx:TrackPointExtension>
<gpxtpx:hr>178</gpxtpx:hr>
<gpxtpx:cad>0</gpxtpx:cad>
</gpxtpx:TrackPointExtension>
</extensions>
</trkpt>
<trkpt lat="14.68991470336914" lon="121.09506225585938">
<ele>137</ele>
<time>2026-09-23T11:45:05.00Z</time>
<extensions>
<gpxtpx:TrackPointExtension>
<gpxtpx:hr>181</gpxtpx:hr>
<gpxtpx:cad>0</gpxtpx:cad>
</gpxtpx:TrackPointExtension>
</extensions>
</trkpt>
<trkpt lat="14.689974784851074" lon="121.09513854980469">
<ele>137</ele>
<time>2026-09-23T11:45:11.00Z</time>
<extensions>
<gpxtpx:TrackPointExtension>
<gpxtpx:hr>178</gpxtpx:hr>
<gpxtpx:cad>0</gpxtpx:cad>
</gpxtpx:TrackPointExtension>
</extensions>
</trkpt>
<trkpt lat="14.690033912658691" lon="121.09520721435547">
<ele>137</ele>
<time>2026-09-23T11:45:17.00Z</time>
<extensions>
<gpxtpx:TrackPointExtension>
<gpxtpx:hr>176</gpxtpx:hr>
<gpxtpx:cad>0</gpxtpx:cad>
</gpxtpx:TrackPointExtension>
</extensions>
</trkpt>
<trkpt lat="14.690115928649902" lon="121.09530639648438">
<ele>137</ele>
<time>2026-09-23T11:45:22.00Z</time>
<extensions>
<gpxtpx:TrackPointExtension>
<gpxtpx:hr>175</gpxtpx:hr>
<gpxtpx:cad>0</gpxtpx:cad>
</gpxtpx:TrackPointExtension>
</extensions>
</trkpt>
<trkpt lat="14.69019603729248" lon="121.09539031982422">
<ele>137</ele>
<time>2026-09-23T11:45:28.00Z</time>
<extensions>
<gpxtpx:TrackPointExtension>
<gpxtpx:hr>174</gpxtpx:hr>
<gpxtpx:cad>0</gpxtpx:cad>
</gpxtpx:TrackPointExtension>
</extensions>
</trkpt>
<trkpt lat="14.69028091430664" lon="121.095458984375">
<ele>137</ele>
<time>2026-09-23T11:45:34.00Z</time>
<extensions>
<gpxtpx:TrackPointExtension>
<gpxtpx:hr>172</gpxtpx:hr>
<gpxtpx:cad>0</gpxtpx:cad>
</gpxtpx:TrackPointExtension>
</extensions>
</trkpt>
<trkpt lat="14.69035816192627" lon="121.09553527832031">
<ele>137</ele>
<time>2026-09-23T11:45:40.00Z</time>
<extensions>
<gpxtpx:TrackPointExtension>
<gpxtpx:hr>170</gpxtpx:hr>
<gpxtpx:cad>0</gpxtpx:cad>
</gpxtpx:TrackPointExtension>
</extensions>
</trkpt>
<trkpt lat="14.690431594848633" lon="121.09561157226562">
<ele>137</ele>
<time>2026-09-23T11:45:46.00Z</time>
<extensions>
<gpxtpx:TrackPointExtension>
<gpxtpx:hr>169</gpxtpx:hr>
<gpxtpx:cad>0</gpxtpx:cad>
</gpxtpx:TrackPointExtension>
</extensions>
</trkpt>
<trkpt lat="14.690506935119629" lon="121.09568786621094">
<ele>137</ele>
<time>2026-09-23T11:45:51.00Z</time>
<extensions>
<gpxtpx:TrackPointExtension>
<gpxtpx:hr>167</gpxtpx:hr>
<gpxtpx:cad>0</gpxtpx:cad>
</gpxtpx:TrackPointExtension>
</extensions>
</trkpt>
<trkpt lat="14.690583229064941" lon="121.09576416015625">
<ele>137</ele>
<time>2026-09-23T11:45:57.00Z</time>
<extensions>
<gpxtpx:TrackPointExtension>
<gpxtpx:hr>163</gpxtpx:hr>
<gpxtpx:cad>0</gpxtpx:cad>
</gpxtpx:TrackPointExtension>
</extensions>
</trkpt>
<trkpt lat="14.690665245056152" lon="121.0958251953125">
<ele>137</ele>
<time>2026-09-23T11:46:03.00Z</time>
<extensions>
<gpxtpx:TrackPointExtension>
<gpxtpx:hr>164</gpxtpx:hr>
<gpxtpx:cad>0</gpxtpx:cad>
</gpxtpx:TrackPointExtension>
</extensions>
</trkpt>
<trkpt lat="14.690759658813477" lon="121.0958251953125">
<ele>137</ele>
<time>2026-09-23T11:46:09.00Z</time>
<extensions>
<gpxtpx:TrackPointExtension>
<gpxtpx:hr>166</gpxtpx:hr>
<gpxtpx:cad>0</gpxtpx:cad>
</gpxtpx:TrackPointExtension>
</extensions>
</trkpt>
<trkpt lat="14.690844535827637" lon="121.09587097167969">
<ele>140</ele>
<time>2026-09-23T11:46:15.00Z</time>
<extensions>
<gpxtpx:TrackPointExtension>
<gpxtpx:hr>168</gpxtpx:hr>
<gpxtpx:cad>0</gpxtpx:cad>
</gpxtpx:TrackPointExtension>
</extensions>
</trkpt>
<trkpt lat="14.690776824951172" lon="121.0958023071289">
<ele>140</ele>
<time>2026-09-23T11:46:21.00Z</time>
<extensions>
<gpxtpx:TrackPointExtension>
<gpxtpx:hr>170</gpxtpx:hr>
<gpxtpx:cad>0</gpxtpx:cad>
</gpxtpx:TrackPointExtension>
</extensions>
</trkpt>
<trkpt lat="14.690777778625488" lon="121.095703125">
<ele>140</ele>
<time>2026-09-23T11:46:26.00Z</time>
<extensions>
<gpxtpx:TrackPointExtension>
<gpxtpx:hr>176</gpxtpx:hr>
<gpxtpx:cad>0</gpxtpx:cad>
</gpxtpx:TrackPointExtension>
</extensions>
</trkpt>
<trkpt lat="14.690703392028809" lon="121.09564971923828">
<ele>140</ele>
<time>2026-09-23T11:46:32.00Z</time>
<extensions>
<gpxtpx:TrackPointExtension>
<gpxtpx:hr>178</gpxtpx:hr>
<gpxtpx:cad>0</gpxtpx:cad>
</gpxtpx:TrackPointExtension>
</extensions>
</trkpt>
<trkpt lat="14.690632820129395" lon="121.09559631347656">
<ele>140</ele>
<time>2026-09-23T11:46:38.00Z</time>
<extensions>
<gpxtpx:TrackPointExtension>
<gpxtpx:hr>182</gpxtpx:hr>
<gpxtpx:cad>0</gpxtpx:cad>
</gpxtpx:TrackPointExtension>
</extensions>
</trkpt>
<trkpt lat="14.690545082092285" lon="121.09553527832031">
<ele>140</ele>
<time>2026-09-23T11:46:44.00Z</time>
<extensions>
<gpxtpx:TrackPointExtension>
<gpxtpx:hr>175</gpxtpx:hr>
<gpxtpx:cad>0</gpxtpx:cad>
</gpxtpx:TrackPointExtension>
</extensions>
</trkpt>
<trkpt lat="14.690464973449707" lon="121.0954818725586">
<ele>140</ele>
<time>2026-09-23T11:46:50.00Z</time>
<extensions>
<gpxtpx:TrackPointExtension>
<gpxtpx:hr>180</gpxtpx:hr>
<gpxtpx:cad>0</gpxtpx:cad>
</gpxtpx:TrackPointExtension>
</extensions>
</trkpt>
<trkpt lat="14.69036865234375" lon="121.09541320800781">
<ele>140</ele>
<time>2026-09-23T11:46:56.00Z</time>
<extensions>
<gpxtpx:TrackPointExtension>
<gpxtpx:hr>179</gpxtpx:hr>
<gpxtpx:cad>0</gpxtpx:cad>
</gpxtpx:TrackPointExtension>
</extensions>
</trkpt>
<trkpt lat="14.690286636352539" lon="121.09532928466797">
<ele>140</ele>
<time>2026-09-23T11:47:01.00Z</time>
<extensions>
<gpxtpx:TrackPointExtension>
<gpxtpx:hr>175</gpxtpx:hr>
<gpxtpx:cad>0</gpxtpx:cad>
</gpxtpx:TrackPointExtension>
</extensions>
</trkpt>
<trkpt lat="14.690206527709961" lon="121.09525299072266">
<ele>140</ele>
<time>2026-09-23T11:47:07.00Z</time>
<extensions>
<gpxtpx:TrackPointExtension>
<gpxtpx:hr>172</gpxtpx:hr>
<gpxtpx:cad>0</gpxtpx:cad>
</gpxtpx:TrackPointExtension>
</extensions>
</trkpt>
<trkpt lat="14.690118789672852" lon="121.09516906738281">
<ele>140</ele>
<time>2026-09-23T11:47:13.00Z</time>
<extensions>
<gpxtpx:TrackPointExtension>
<gpxtpx:hr>171</gpxtpx:hr>
<gpxtpx:cad>0</gpxtpx:cad>
</gpxtpx:TrackPointExtension>
</extensions>
</trkpt>
<trkpt lat="14.690031051635742" lon="121.09508514404297">
<ele>140</ele>
<time>2026-09-23T11:47:19.00Z</time>
<extensions>
<gpxtpx:TrackPointExtension>
<gpxtpx:hr>168</gpxtpx:hr>
<gpxtpx:cad>0</gpxtpx:cad>
</gpxtpx:TrackPointExtension>
</extensions>
</trkpt>
<trkpt lat="14.689947128295898" lon="121.09500122070312">
<ele>140</ele>
<time>2026-09-23T11:47:25.00Z</time>
<extensions>
<gpxtpx:TrackPointExtension>
<gpxtpx:hr>167</gpxtpx:hr>
<gpxtpx:cad>0</gpxtpx:cad>
</gpxtpx:TrackPointExtension>
</extensions>
</trkpt>
<trkpt lat="14.689863204956055" lon="121.09492492675781">
<ele>140</ele>
<time>2026-09-23T11:47:31.00Z</time>
<extensions>
<gpxtpx:TrackPointExtension>
<gpxtpx:hr>163</gpxtpx:hr>
<gpxtpx:cad>0</gpxtpx:cad>
</gpxtpx:TrackPointExtension>
</extensions>
</trkpt>
<trkpt lat="14.689770698547363" lon="121.0948486328125">
<ele>140</ele>
<time>2026-09-23T11:47:36.00Z</time>
<extensions>
<gpxtpx:TrackPointExtension>
<gpxtpx:hr>163</gpxtpx:hr>
<gpxtpx:cad>0</gpxtpx:cad>
</gpxtpx:TrackPointExtension>
</extensions>
</trkpt>
<trkpt lat="14.689680099487305" lon="121.09477996826172">
<ele>140</ele>
<time>2026-09-23T11:47:42.00Z</time>
<extensions>
<gpxtpx:TrackPointExtension>
<gpxtpx:hr>160</gpxtpx:hr>
<gpxtpx:cad>0</gpxtpx:cad>
</gpxtpx:TrackPointExtension>
</extensions>
</trkpt>
<trkpt lat="14.689597129821777" lon="121.09468078613281">
<ele>140</ele>
<time>2026-09-23T11:47:48.00Z</time>
<extensions>
<gpxtpx:TrackPointExtension>
<gpxtpx:hr>160</gpxtpx:hr>
<gpxtpx:cad>0</gpxtpx:cad>
</gpxtpx:TrackPointExtension>
</extensions>
</trkpt>
<trkpt lat="14.689546585083008" lon="121.0945816040039">
<ele>140</ele>
<time>2026-09-23T11:47:54.00Z</time>
<extensions>
<gpxtpx:TrackPointExtension>
<gpxtpx:hr>161</gpxtpx:hr>
<gpxtpx:cad>0</gpxtpx:cad>
</gpxtpx:TrackPointExtension>
</extensions>
</trkpt>
<trkpt lat="14.689506530761719" lon="121.094482421875">
<ele>140</ele>
<time>2026-09-23T11:48:00.00Z</time>
<extensions>
<gpxtpx:TrackPointExtension>
<gpxtpx:hr>156</gpxtpx:hr>
<gpxtpx:cad>0</gpxtpx:cad>
</gpxtpx:TrackPointExtension>
</extensions>
</trkpt>
<trkpt lat="14.68943977355957" lon="121.09440612792969">
<ele>139</ele>
<time>2026-09-23T11:48:06.00Z</time>
<extensions>
<gpxtpx:TrackPointExtension>
<gpxtpx:hr>150</gpxtpx:hr>
<gpxtpx:cad>0</gpxtpx:cad>
</gpxtpx:TrackPointExtension>
</extensions>
</trkpt>
<trkpt lat="14.689377784729004" lon="121.09432983398438">
<ele>134</ele>
<time>2026-09-23T11:48:11.00Z</time>
<extensions>
<gpxtpx:TrackPointExtension>
<gpxtpx:hr>143</gpxtpx:hr>
<gpxtpx:cad>0</gpxtpx:cad>
</gpxtpx:TrackPointExtension>
</extensions>
</trkpt>
<trkpt lat="14.689275741577148" lon="121.09429931640625">
<ele>134</ele>
<time>2026-09-23T11:48:17.00Z</time>
<extensions>
<gpxtpx:TrackPointExtension>
<gpxtpx:hr>139</gpxtpx:hr>
<gpxtpx:cad>0</gpxtpx:cad>
</gpxtpx:TrackPointExtension>
</extensions>
</trkpt>
<trkpt lat="14.689216613769531" lon="121.09422302246094">
<ele>133</ele>
<time>2026-09-23T11:48:23.00Z</time>
<extensions>
<gpxtpx:TrackPointExtension>
<gpxtpx:hr>139</gpxtpx:hr>
<gpxtpx:cad>0</gpxtpx:cad>
</gpxtpx:TrackPointExtension>
</extensions>
</trkpt>
<trkpt lat="14.689154624938965" lon="121.0941390991211">
<ele>133</ele>
<time>2026-09-23T11:48:29.00Z</time>
<extensions>
<gpxtpx:TrackPointExtension>
<gpxtpx:hr>145</gpxtpx:hr>
<gpxtpx:cad>0</gpxtpx:cad>
</gpxtpx:TrackPointExtension>
</extensions>
</trkpt>
<trkpt lat="14.689085960388184" lon="121.09407043457031">
<ele>134</ele>
<time>2026-09-23T11:48:35.00Z</time>
<extensions>
<gpxtpx:TrackPointExtension>
<gpxtpx:hr>150</gpxtpx:hr>
<gpxtpx:cad>0</gpxtpx:cad>
</gpxtpx:TrackPointExtension>
</extensions>
</trkpt>
<trkpt lat="14.689001083374023" lon="121.09403228759766">
<ele>133</ele>
<time>2026-09-23T11:48:40.00Z</time>
<extensions>
<gpxtpx:TrackPointExtension>
<gpxtpx:hr>154</gpxtpx:hr>
<gpxtpx:cad>0</gpxtpx:cad>
</gpxtpx:TrackPointExtension>
</extensions>
</trkpt>
<trkpt lat="14.688932418823242" lon="121.0939712524414">
<ele>133</ele>
<time>2026-09-23T11:48:46.00Z</time>
<extensions>
<gpxtpx:TrackPointExtension>
<gpxtpx:hr>152</gpxtpx:hr>
<gpxtpx:cad>0</gpxtpx:cad>
</gpxtpx:TrackPointExtension>
</extensions>
</trkpt>
<trkpt lat="14.689019203186035" lon="121.093994140625">
<ele>133</ele>
<time>2026-09-23T11:48:52.00Z</time>
<extensions>
<gpxtpx:TrackPointExtension>
<gpxtpx:hr>150</gpxtpx:hr>
<gpxtpx:cad>0</gpxtpx:cad>
</gpxtpx:TrackPointExtension>
</extensions>
</trkpt>
<trkpt lat="14.689083099365234" lon="121.09407806396484">
<ele>133</ele>
<time>2026-09-23T11:48:58.00Z</time>
<extensions>
<gpxtpx:TrackPointExtension>
<gpxtpx:hr>149</gpxtpx:hr>
<gpxtpx:cad>0</gpxtpx:cad>
</gpxtpx:TrackPointExtension>
</extensions>
</trkpt>
<trkpt lat="14.689105987548828" lon="121.09416961669922">
<ele>133</ele>
<time>2026-09-23T11:49:04.00Z</time>
<extensions>
<gpxtpx:TrackPointExtension>
<gpxtpx:hr>150</gpxtpx:hr>
<gpxtpx:cad>0</gpxtpx:cad>
</gpxtpx:TrackPointExtension>
</extensions>
</trkpt>
<trkpt lat="14.689191818237305" lon="121.0942153930664">
<ele>133</ele>
<time>2026-09-23T11:49:10.00Z</time>
<extensions>
<gpxtpx:TrackPointExtension>
<gpxtpx:hr>148</gpxtpx:hr>
<gpxtpx:cad>0</gpxtpx:cad>
</gpxtpx:TrackPointExtension>
</extensions>
</trkpt>
<trkpt lat="14.689264297485352" lon="121.09428405761719">
<ele>134</ele>
<time>2026-09-23T11:49:15.00Z</time>
<extensions>
<gpxtpx:TrackPointExtension>
<gpxtpx:hr>148</gpxtpx:hr>
<gpxtpx:cad>0</gpxtpx:cad>
</gpxtpx:TrackPointExtension>
</extensions>
</trkpt>
<trkpt lat="14.689290046691895" lon="121.09437561035156">
<ele>134</ele>
<time>2026-09-23T11:49:21.00Z</time>
<extensions>
<gpxtpx:TrackPointExtension>
<gpxtpx:hr>148</gpxtpx:hr>
<gpxtpx:cad>0</gpxtpx:cad>
</gpxtpx:TrackPointExtension>
</extensions>
</trkpt>
<trkpt lat="14.689380645751953" lon="121.09442138671875">
<ele>137</ele>
<time>2026-09-23T11:49:27.00Z</time>
<extensions>
<gpxtpx:TrackPointExtension>
<gpxtpx:hr>146</gpxtpx:hr>
<gpxtpx:cad>0</gpxtpx:cad>
</gpxtpx:TrackPointExtension>
</extensions>
</trkpt>
<trkpt lat="14.689457893371582" lon="121.094482421875">
<ele>139</ele>
<time>2026-09-23T11:49:33.00Z</time>
<extensions>
<gpxtpx:TrackPointExtension>
<gpxtpx:hr>146</gpxtpx:hr>
<gpxtpx:cad>0</gpxtpx:cad>
</gpxtpx:TrackPointExtension>
</extensions>
</trkpt>
<trkpt lat="14.689543724060059" lon="121.09453582763672">
<ele>137</ele>
<time>2026-09-23T11:49:39.00Z</time>
<extensions>
<gpxtpx:TrackPointExtension>
<gpxtpx:hr>149</gpxtpx:hr>
<gpxtpx:cad>0</gpxtpx:cad>
</gpxtpx:TrackPointExtension>
</extensions>
</trkpt>
<trkpt lat="14.689608573913574" lon="121.09461212158203">
<ele>137</ele>
<time>2026-09-23T11:49:45.00Z</time>
<extensions>
<gpxtpx:TrackPointExtension>
<gpxtpx:hr>149</gpxtpx:hr>
<gpxtpx:cad>0</gpxtpx:cad>
</gpxtpx:TrackPointExtension>
</extensions>
</trkpt>
<trkpt lat="14.689652442932129" lon="121.0947036743164">
<ele>137</ele>
<time>2026-09-23T11:49:50.00Z</time>
<extensions>
<gpxtpx:TrackPointExtension>
<gpxtpx:hr>148</gpxtpx:hr>
<gpxtpx:cad>0</gpxtpx:cad>
</gpxtpx:TrackPointExtension>
</extensions>
</trkpt>
<trkpt lat="14.689720153808594" lon="121.09476470947266">
<ele>137</ele>
<time>2026-09-23T11:49:56.00Z</time>
<extensions>
<gpxtpx:TrackPointExtension>
<gpxtpx:hr>147</gpxtpx:hr>
<gpxtpx:cad>0</gpxtpx:cad>
</gpxtpx:TrackPointExtension>
</extensions>
</trkpt>
<trkpt lat="14.689809799194336" lon="121.0948257446289">
<ele>137</ele>
<time>2026-09-23T11:50:02.00Z</time>
<extensions>
<gpxtpx:TrackPointExtension>
<gpxtpx:hr>145</gpxtpx:hr>
<gpxtpx:cad>0</gpxtpx:cad>
</gpxtpx:TrackPointExtension>
</extensions>
</trkpt>
<trkpt lat="14.689885139465332" lon="121.09490203857422">
<ele>137</ele>
<time>2026-09-23T11:50:08.00Z</time>
<extensions>
<gpxtpx:TrackPointExtension>
<gpxtpx:hr>150</gpxtpx:hr>
<gpxtpx:cad>0</gpxtpx:cad>
</gpxtpx:TrackPointExtension>
</extensions>
</trkpt>
<trkpt lat="14.689963340759277" lon="121.09496307373047">
<ele>137</ele>
<time>2026-09-23T11:50:14.00Z</time>
<extensions>
<gpxtpx:TrackPointExtension>
<gpxtpx:hr>156</gpxtpx:hr>
<gpxtpx:cad>0</gpxtpx:cad>
</gpxtpx:TrackPointExtension>
</extensions>
</trkpt>
<trkpt lat="14.69003963470459" lon="121.09503936767578">
<ele>137</ele>
<time>2026-09-23T11:50:20.00Z</time>
<extensions>
<gpxtpx:TrackPointExtension>
<gpxtpx:hr>159</gpxtpx:hr>
<gpxtpx:cad>0</gpxtpx:cad>
</gpxtpx:TrackPointExtension>
</extensions>
</trkpt>
<trkpt lat="14.690103530883789" lon="121.0951156616211">
<ele>137</ele>
<time>2026-09-23T11:50:25.00Z</time>
<extensions>
<gpxtpx:TrackPointExtension>
<gpxtpx:hr>165</gpxtpx:hr>
<gpxtpx:cad>0</gpxtpx:cad>
</gpxtpx:TrackPointExtension>
</extensions>
</trkpt>
<trkpt lat="14.690169334411621" lon="121.0951919555664">
<ele>137</ele>
<time>2026-09-23T11:50:31.00Z</time>
<extensions>
<gpxtpx:TrackPointExtension>
<gpxtpx:hr>164</gpxtpx:hr>
<gpxtpx:cad>0</gpxtpx:cad>
</gpxtpx:TrackPointExtension>
</extensions>
</trkpt>
<trkpt lat="14.69023323059082" lon="121.09526824951172">
<ele>137</ele>
<time>2026-09-23T11:50:37.00Z</time>
<extensions>
<gpxtpx:TrackPointExtension>
<gpxtpx:hr>160</gpxtpx:hr>
<gpxtpx:cad>0</gpxtpx:cad>
</gpxtpx:TrackPointExtension>
</extensions>
</trkpt>
<trkpt lat="14.690299034118652" lon="121.09534454345703">
<ele>137</ele>
<time>2026-09-23T11:50:43.00Z</time>
<extensions>
<gpxtpx:TrackPointExtension>
<gpxtpx:hr>158</gpxtpx:hr>
<gpxtpx:cad>0</gpxtpx:cad>
</gpxtpx:TrackPointExtension>
</extensions>
</trkpt>
<trkpt lat="14.6903715133667" lon="121.09540557861328">
<ele>137</ele>
<time>2026-09-23T11:50:49.00Z</time>
<extensions>
<gpxtpx:TrackPointExtension>
<gpxtpx:hr>160</gpxtpx:hr>
<gpxtpx:cad>0</gpxtpx:cad>
</gpxtpx:TrackPointExtension>
</extensions>
</trkpt>
<trkpt lat="14.69045352935791" lon="121.09548950195312">
<ele>137</ele>
<time>2026-09-23T11:50:55.00Z</time>
<extensions>
<gpxtpx:TrackPointExtension>
<gpxtpx:hr>160</gpxtpx:hr>
<gpxtpx:cad>0</gpxtpx:cad>
</gpxtpx:TrackPointExtension>
</extensions>
</trkpt>
<trkpt lat="14.690542221069336" lon="121.09556579589844">
<ele>137</ele>
<time>2026-09-23T11:51:00.00Z</time>
<extensions>
<gpxtpx:TrackPointExtension>
<gpxtpx:hr>159</gpxtpx:hr>
<gpxtpx:cad>0</gpxtpx:cad>
</gpxtpx:TrackPointExtension>
</extensions>
</trkpt>
<trkpt lat="14.690601348876953" lon="121.09563446044922">
<ele>137</ele>
<time>2026-09-23T11:51:06.00Z</time>
<extensions>
<gpxtpx:TrackPointExtension>
<gpxtpx:hr>156</gpxtpx:hr>
<gpxtpx:cad>0</gpxtpx:cad>
</gpxtpx:TrackPointExtension>
</extensions>
</trkpt>
<trkpt lat="14.690669059753418" lon="121.095703125">
<ele>137</ele>
<time>2026-09-23T11:51:12.00Z</time>
<extensions>
<gpxtpx:TrackPointExtension>
<gpxtpx:hr>156</gpxtpx:hr>
<gpxtpx:cad>0</gpxtpx:cad>
</gpxtpx:TrackPointExtension>
</extensions>
</trkpt>
<trkpt lat="14.6907377243042" lon="121.09577178955078">
<ele>137</ele>
<time>2026-09-23T11:51:18.00Z</time>
<extensions>
<gpxtpx:TrackPointExtension>
<gpxtpx:hr>156</gpxtpx:hr>
<gpxtpx:cad>0</gpxtpx:cad>
</gpxtpx:TrackPointExtension>
</extensions>
</trkpt>
<trkpt lat="14.690802574157715" lon="121.0958480834961">
<ele>137</ele>
<time>2026-09-23T11:51:24.00Z</time>
<extensions>
<gpxtpx:TrackPointExtension>
<gpxtpx:hr>163</gpxtpx:hr>
<gpxtpx:cad>0</gpxtpx:cad>
</gpxtpx:TrackPointExtension>
</extensions>
</trkpt>
<trkpt lat="14.690736770629883" lon="121.09575653076172">
<ele>140</ele>
<time>2026-09-23T11:51:29.00Z</time>
<extensions>
<gpxtpx:TrackPointExtension>
<gpxtpx:hr>168</gpxtpx:hr>
<gpxtpx:cad>0</gpxtpx:cad>
</gpxtpx:TrackPointExtension>
</extensions>
</trkpt>
<trkpt lat="14.690642356872559" lon="121.09567260742188">
<ele>140</ele>
<time>2026-09-23T11:51:35.00Z</time>
<extensions>
<gpxtpx:TrackPointExtension>
<gpxtpx:hr>169</gpxtpx:hr>
<gpxtpx:cad>0</gpxtpx:cad>
</gpxtpx:TrackPointExtension>
</extensions>
</trkpt>
<trkpt lat="14.690570831298828" lon="121.09559631347656">
<ele>140</ele>
<time>2026-09-23T11:51:41.00Z</time>
<extensions>
<gpxtpx:TrackPointExtension>
<gpxtpx:hr>170</gpxtpx:hr>
<gpxtpx:cad>0</gpxtpx:cad>
</gpxtpx:TrackPointExtension>
</extensions>
</trkpt>
<trkpt lat="14.69050407409668" lon="121.09551239013672">
<ele>140</ele>
<time>2026-09-23T11:51:47.00Z</time>
<extensions>
<gpxtpx:TrackPointExtension>
<gpxtpx:hr>169</gpxtpx:hr>
<gpxtpx:cad>0</gpxtpx:cad>
</gpxtpx:TrackPointExtension>
</extensions>
</trkpt>
<trkpt lat="14.69043254852295" lon="121.09544372558594">
<ele>140</ele>
<time>2026-09-23T11:51:53.00Z</time>
<extensions>
<gpxtpx:TrackPointExtension>
<gpxtpx:hr>171</gpxtpx:hr>
<gpxtpx:cad>0</gpxtpx:cad>
</gpxtpx:TrackPointExtension>
</extensions>
</trkpt>
<trkpt lat="14.690359115600586" lon="121.09538269042969">
<ele>140</ele>
<time>2026-09-23T11:51:59.00Z</time>
<extensions>
<gpxtpx:TrackPointExtension>
<gpxtpx:hr>170</gpxtpx:hr>
<gpxtpx:cad>0</gpxtpx:cad>
</gpxtpx:TrackPointExtension>
</extensions>
</trkpt>
<trkpt lat="14.690290451049805" lon="121.09530639648438">
<ele>140</ele>
<time>2026-09-23T11:52:04.00Z</time>
<extensions>
<gpxtpx:TrackPointExtension>
<gpxtpx:hr>174</gpxtpx:hr>
<gpxtpx:cad>0</gpxtpx:cad>
</gpxtpx:TrackPointExtension>
</extensions>
</trkpt>
<trkpt lat="14.690217018127441" lon="121.09523010253906">
<ele>140</ele>
<time>2026-09-23T11:52:10.00Z</time>
<extensions>
<gpxtpx:TrackPointExtension>
<gpxtpx:hr>174</gpxtpx:hr>
<gpxtpx:cad>0</gpxtpx:cad>
</gpxtpx:TrackPointExtension>
</extensions>
</trkpt>
<trkpt lat="14.690146446228027" lon="121.09516143798828">
<ele>140</ele>
<time>2026-09-23T11:52:16.00Z</time>
<extensions>
<gpxtpx:TrackPointExtension>
<gpxtpx:hr>174</gpxtpx:hr>
<gpxtpx:cad>0</gpxtpx:cad>
</gpxtpx:TrackPointExtension>
</extensions>
</trkpt>
<trkpt lat="14.690068244934082" lon="121.0951156616211">
<ele>140</ele>
<time>2026-09-23T11:52:22.00Z</time>
<extensions>
<gpxtpx:TrackPointExtension>
<gpxtpx:hr>174</gpxtpx:hr>
<gpxtpx:cad>0</gpxtpx:cad>
</gpxtpx:TrackPointExtension>
</extensions>
</trkpt>
<trkpt lat="14.689998626708984" lon="121.09503936767578">
<ele>140</ele>
<time>2026-09-23T11:52:28.00Z</time>
<extensions>
<gpxtpx:TrackPointExtension>
<gpxtpx:hr>171</gpxtpx:hr>
<gpxtpx:cad>0</gpxtpx:cad>
</gpxtpx:TrackPointExtension>
</extensions>
</trkpt>
<trkpt lat="14.689947128295898" lon="121.09495544433594">
<ele>140</ele>
<time>2026-09-23T11:52:34.00Z</time>
<extensions>
<gpxtpx:TrackPointExtension>
<gpxtpx:hr>171</gpxtpx:hr>
<gpxtpx:cad>0</gpxtpx:cad>
</gpxtpx:TrackPointExtension>
</extensions>
</trkpt>
<trkpt lat="14.689867973327637" lon="121.09488677978516">
<ele>140</ele>
<time>2026-09-23T11:52:39.00Z</time>
<extensions>
<gpxtpx:TrackPointExtension>
<gpxtpx:hr>167</gpxtpx:hr>
<gpxtpx:cad>0</gpxtpx:cad>
</gpxtpx:TrackPointExtension>
</extensions>
</trkpt>
<trkpt lat="14.68979263305664" lon="121.09484100341797">
<ele>140</ele>
<time>2026-09-23T11:52:45.00Z</time>
<extensions>
<gpxtpx:TrackPointExtension>
<gpxtpx:hr>165</gpxtpx:hr>
<gpxtpx:cad>0</gpxtpx:cad>
</gpxtpx:TrackPointExtension>
</extensions>
</trkpt>
<trkpt lat="14.689719200134277" lon="121.09477996826172">
<ele>137</ele>
<time>2026-09-23T11:52:51.00Z</time>
<extensions>
<gpxtpx:TrackPointExtension>
<gpxtpx:hr>163</gpxtpx:hr>
<gpxtpx:cad>0</gpxtpx:cad>
</gpxtpx:TrackPointExtension>
</extensions>
</trkpt>
<trkpt lat="14.689656257629395" lon="121.09471130371094">
<ele>137</ele>
<time>2026-09-23T11:52:57.00Z</time>
<extensions>
<gpxtpx:TrackPointExtension>
<gpxtpx:hr>161</gpxtpx:hr>
<gpxtpx:cad>0</gpxtpx:cad>
</gpxtpx:TrackPointExtension>
</extensions>
</trkpt>
<trkpt lat="14.689589500427246" lon="121.09464263916016">
<ele>137</ele>
<time>2026-09-23T11:53:03.00Z</time>
<extensions>
<gpxtpx:TrackPointExtension>
<gpxtpx:hr>161</gpxtpx:hr>
<gpxtpx:cad>0</gpxtpx:cad>
</gpxtpx:TrackPointExtension>
</extensions>
</trkpt>
<trkpt lat="14.689567565917969" lon="121.09454345703125">
<ele>137</ele>
<time>2026-09-23T11:53:09.00Z</time>
<extensions>
<gpxtpx:TrackPointExtension>
<gpxtpx:hr>161</gpxtpx:hr>
<gpxtpx:cad>0</gpxtpx:cad>
</gpxtpx:TrackPointExtension>
</extensions>
</trkpt>
<trkpt lat="14.689523696899414" lon="121.09445190429688">
<ele>137</ele>
<time>2026-09-23T11:53:14.00Z</time>
<extensions>
<gpxtpx:TrackPointExtension>
<gpxtpx:hr>160</gpxtpx:hr>
<gpxtpx:cad>0</gpxtpx:cad>
</gpxtpx:TrackPointExtension>
</extensions>
</trkpt>
<trkpt lat="14.689444541931152" lon="121.09439849853516">
<ele>137</ele>
<time>2026-09-23T11:53:20.00Z</time>
<extensions>
<gpxtpx:TrackPointExtension>
<gpxtpx:hr>158</gpxtpx:hr>
<gpxtpx:cad>0</gpxtpx:cad>
</gpxtpx:TrackPointExtension>
</extensions>
</trkpt>
<trkpt lat="14.689383506774902" lon="121.09431457519531">
<ele>134</ele>
<time>2026-09-23T11:53:26.00Z</time>
<extensions>
<gpxtpx:TrackPointExtension>
<gpxtpx:hr>155</gpxtpx:hr>
<gpxtpx:cad>0</gpxtpx:cad>
</gpxtpx:TrackPointExtension>
</extensions>
</trkpt>
<trkpt lat="14.689316749572754" lon="121.09425354003906">
<ele>134</ele>
<time>2026-09-23T11:53:32.00Z</time>
<extensions>
<gpxtpx:TrackPointExtension>
<gpxtpx:hr>153</gpxtpx:hr>
<gpxtpx:cad>0</gpxtpx:cad>
</gpxtpx:TrackPointExtension>
</extensions>
</trkpt>
<trkpt lat="14.689237594604492" lon="121.09419250488281">
<ele>134</ele>
<time>2026-09-23T11:53:38.00Z</time>
<extensions>
<gpxtpx:TrackPointExtension>
<gpxtpx:hr>154</gpxtpx:hr>
<gpxtpx:cad>0</gpxtpx:cad>
</gpxtpx:TrackPointExtension>
</extensions>
</trkpt>
<trkpt lat="14.689167022705078" lon="121.09413146972656">
<ele>134</ele>
<time>2026-09-23T11:53:44.00Z</time>
<extensions>
<gpxtpx:TrackPointExtension>
<gpxtpx:hr>153</gpxtpx:hr>
<gpxtpx:cad>0</gpxtpx:cad>
</gpxtpx:TrackPointExtension>
</extensions>
</trkpt>
<trkpt lat="14.689087867736816" lon="121.09406280517578">
<ele>134</ele>
<time>2026-09-23T11:53:49.00Z</time>
<extensions>
<gpxtpx:TrackPointExtension>
<gpxtpx:hr>153</gpxtpx:hr>
<gpxtpx:cad>0</gpxtpx:cad>
</gpxtpx:TrackPointExtension>
</extensions>
</trkpt>
<trkpt lat="14.688996315002441" lon="121.09402465820312">
<ele>133</ele>
<time>2026-09-23T11:53:55.00Z</time>
<extensions>
<gpxtpx:TrackPointExtension>
<gpxtpx:hr>153</gpxtpx:hr>
<gpxtpx:cad>0</gpxtpx:cad>
</gpxtpx:TrackPointExtension>
</extensions>
</trkpt>
<trkpt lat="14.688912391662598" lon="121.0939712524414">
<ele>134</ele>
<time>2026-09-23T11:54:01.00Z</time>
<extensions>
<gpxtpx:TrackPointExtension>
<gpxtpx:hr>152</gpxtpx:hr>
<gpxtpx:cad>0</gpxtpx:cad>
</gpxtpx:TrackPointExtension>
</extensions>
</trkpt>
<trkpt lat="14.688807487487793" lon="121.09394836425781">
<ele>133</ele>
<time>2026-09-23T11:54:07.00Z</time>
<extensions>
<gpxtpx:TrackPointExtension>
<gpxtpx:hr>149</gpxtpx:hr>
<gpxtpx:cad>0</gpxtpx:cad>
</gpxtpx:TrackPointExtension>
</extensions>
</trkpt>
<trkpt lat="14.688701629638672" lon="121.09397888183594">
<ele>133</ele>
<time>2026-09-23T11:54:13.00Z</time>
<extensions>
<gpxtpx:TrackPointExtension>
<gpxtpx:hr>149</gpxtpx:hr>
<gpxtpx:cad>0</gpxtpx:cad>
</gpxtpx:TrackPointExtension>
</extensions>
</trkpt>
<trkpt lat="14.688607215881348" lon="121.09400177001953">
<ele>133</ele>
<time>2026-09-23T11:54:18.00Z</time>
<extensions>
<gpxtpx:TrackPointExtension>
<gpxtpx:hr>148</gpxtpx:hr>
<gpxtpx:cad>0</gpxtpx:cad>
</gpxtpx:TrackPointExtension>
</extensions>
</trkpt>
<trkpt lat="14.688507080078125" lon="121.09403991699219">
<ele>133</ele>
<time>2026-09-23T11:54:24.00Z</time>
<extensions>
<gpxtpx:TrackPointExtension>
<gpxtpx:hr>145</gpxtpx:hr>
<gpxtpx:cad>0</gpxtpx:cad>
</gpxtpx:TrackPointExtension>
</extensions>
</trkpt>
<trkpt lat="14.68844223022461" lon="121.09410858154297">
<ele>133</ele>
<time>2026-09-23T11:54:30.00Z</time>
<extensions>
<gpxtpx:TrackPointExtension>
<gpxtpx:hr>149</gpxtpx:hr>
<gpxtpx:cad>0</gpxtpx:cad>
</gpxtpx:TrackPointExtension>
</extensions>
</trkpt>
<trkpt lat="14.688400268554688" lon="121.09419250488281">
<ele>134</ele>
<time>2026-09-23T11:54:36.00Z</time>
<extensions>
<gpxtpx:TrackPointExtension>
<gpxtpx:hr>150</gpxtpx:hr>
<gpxtpx:cad>0</gpxtpx:cad>
</gpxtpx:TrackPointExtension>
</extensions>
</trkpt>
<trkpt lat="14.688353538513184" lon="121.09428405761719">
<ele>134</ele>
<time>2026-09-23T11:54:42.00Z</time>
<extensions>
<gpxtpx:TrackPointExtension>
<gpxtpx:hr>149</gpxtpx:hr>
<gpxtpx:cad>0</gpxtpx:cad>
</gpxtpx:TrackPointExtension>
</extensions>
</trkpt>
<trkpt lat="14.688504219055176" lon="121.09429168701172">
<ele>134</ele>
<time>2026-09-23T11:54:48.00Z</time>
<extensions>
<gpxtpx:TrackPointExtension>
<gpxtpx:hr>150</gpxtpx:hr>
<gpxtpx:cad>0</gpxtpx:cad>
</gpxtpx:TrackPointExtension>
</extensions>
</trkpt>
<trkpt lat="14.688716888427734" lon="121.09429168701172">
<ele>134</ele>
<time>2026-09-23T11:54:53.00Z</time>
<extensions>
<gpxtpx:TrackPointExtension>
<gpxtpx:hr>147</gpxtpx:hr>
<gpxtpx:cad>0</gpxtpx:cad>
</gpxtpx:TrackPointExtension>
</extensions>
</trkpt>
<trkpt lat="14.688801765441895" lon="121.09435272216797">
<ele>134</ele>
<time>2026-09-23T11:54:59.00Z</time>
<extensions>
<gpxtpx:TrackPointExtension>
<gpxtpx:hr>148</gpxtpx:hr>
<gpxtpx:cad>0</gpxtpx:cad>
</gpxtpx:TrackPointExtension>
</extensions>
</trkpt>
<trkpt lat="14.688891410827637" lon="121.09441375732422">
<ele>137</ele>
<time>2026-09-23T11:55:05.00Z</time>
<extensions>
<gpxtpx:TrackPointExtension>
<gpxtpx:hr>148</gpxtpx:hr>
<gpxtpx:cad>0</gpxtpx:cad>
</gpxtpx:TrackPointExtension>
</extensions>
</trkpt>
<trkpt lat="14.688968658447266" lon="121.09446716308594">
<ele>137</ele>
<time>2026-09-23T11:55:11.00Z</time>
<extensions>
<gpxtpx:TrackPointExtension>
<gpxtpx:hr>147</gpxtpx:hr>
<gpxtpx:cad>0</gpxtpx:cad>
</gpxtpx:TrackPointExtension>
</extensions>
</trkpt>
<trkpt lat="14.689058303833008" lon="121.0945053100586">
<ele>137</ele>
<time>2026-09-23T11:55:17.00Z</time>
<extensions>
<gpxtpx:TrackPointExtension>
<gpxtpx:hr>147</gpxtpx:hr>
<gpxtpx:cad>0</gpxtpx:cad>
</gpxtpx:TrackPointExtension>
</extensions>
</trkpt>
<trkpt lat="14.689129829406738" lon="121.09456634521484">
<ele>137</ele>
<time>2026-09-23T11:55:23.00Z</time>
<extensions>
<gpxtpx:TrackPointExtension>
<gpxtpx:hr>149</gpxtpx:hr>
<gpxtpx:cad>0</gpxtpx:cad>
</gpxtpx:TrackPointExtension>
</extensions>
</trkpt>
<trkpt lat="14.689220428466797" lon="121.09461212158203">
<ele>137</ele>
<time>2026-09-23T11:55:28.00Z</time>
<extensions>
<gpxtpx:TrackPointExtension>
<gpxtpx:hr>152</gpxtpx:hr>
<gpxtpx:cad>0</gpxtpx:cad>
</gpxtpx:TrackPointExtension>
</extensions>
</trkpt>
<trkpt lat="14.689312934875488" lon="121.09465026855469">
<ele>137</ele>
<time>2026-09-23T11:55:34.00Z</time>
<extensions>
<gpxtpx:TrackPointExtension>
<gpxtpx:hr>154</gpxtpx:hr>
<gpxtpx:cad>0</gpxtpx:cad>
</gpxtpx:TrackPointExtension>
</extensions>
</trkpt>
<trkpt lat="14.689412117004395" lon="121.09468841552734">
<ele>137</ele>
<time>2026-09-23T11:55:40.00Z</time>
<extensions>
<gpxtpx:TrackPointExtension>
<gpxtpx:hr>157</gpxtpx:hr>
<gpxtpx:cad>0</gpxtpx:cad>
</gpxtpx:TrackPointExtension>
</extensions>
</trkpt>
<trkpt lat="14.689512252807617" lon="121.0947494506836">
<ele>137</ele>
<time>2026-09-23T11:55:46.00Z</time>
<extensions>
<gpxtpx:TrackPointExtension>
<gpxtpx:hr>155</gpxtpx:hr>
<gpxtpx:cad>0</gpxtpx:cad>
</gpxtpx:TrackPointExtension>
</extensions>
</trkpt>
<trkpt lat="14.689592361450195" lon="121.09480285644531">
<ele>137</ele>
<time>2026-09-23T11:55:52.00Z</time>
<extensions>
<gpxtpx:TrackPointExtension>
<gpxtpx:hr>160</gpxtpx:hr>
<gpxtpx:cad>0</gpxtpx:cad>
</gpxtpx:TrackPointExtension>
</extensions>
</trkpt>
<trkpt lat="14.68968677520752" lon="121.09486389160156">
<ele>137</ele>
<time>2026-09-23T11:55:58.00Z</time>
<extensions>
<gpxtpx:TrackPointExtension>
<gpxtpx:hr>165</gpxtpx:hr>
<gpxtpx:cad>0</gpxtpx:cad>
</gpxtpx:TrackPointExtension>
</extensions>
</trkpt>
<trkpt lat="14.689773559570312" lon="121.09490966796875">
<ele>137</ele>
<time>2026-09-23T11:56:03.00Z</time>
<extensions>
<gpxtpx:TrackPointExtension>
<gpxtpx:hr>169</gpxtpx:hr>
<gpxtpx:cad>0</gpxtpx:cad>
</gpxtpx:TrackPointExtension>
</extensions>
</trkpt>
<trkpt lat="14.689858436584473" lon="121.09496307373047">
<ele>137</ele>
<time>2026-09-23T11:56:09.00Z</time>
<extensions>
<gpxtpx:TrackPointExtension>
<gpxtpx:hr>172</gpxtpx:hr>
<gpxtpx:cad>0</gpxtpx:cad>
</gpxtpx:TrackPointExtension>
</extensions>
</trkpt>
<trkpt lat="14.689970970153809" lon="121.09508514404297">
<ele>137</ele>
<time>2026-09-23T11:56:15.00Z</time>
<extensions>
<gpxtpx:TrackPointExtension>
<gpxtpx:hr>174</gpxtpx:hr>
<gpxtpx:cad>0</gpxtpx:cad>
</gpxtpx:TrackPointExtension>
</extensions>
</trkpt>
<trkpt lat="14.690055847167969" lon="121.09514617919922">
<ele>137</ele>
<time>2026-09-23T11:56:21.00Z</time>
<extensions>
<gpxtpx:TrackPointExtension>
<gpxtpx:hr>177</gpxtpx:hr>
<gpxtpx:cad>0</gpxtpx:cad>
</gpxtpx:TrackPointExtension>
</extensions>
</trkpt>
<trkpt lat="14.690141677856445" lon="121.09521484375">
<ele>137</ele>
<time>2026-09-23T11:56:27.00Z</time>
<extensions>
<gpxtpx:TrackPointExtension>
<gpxtpx:hr>174</gpxtpx:hr>
<gpxtpx:cad>0</gpxtpx:cad>
</gpxtpx:TrackPointExtension>
</extensions>
</trkpt>
<trkpt lat="14.690226554870605" lon="121.09528350830078">
<ele>137</ele>
<time>2026-09-23T11:56:33.00Z</time>
<extensions>
<gpxtpx:TrackPointExtension>
<gpxtpx:hr>176</gpxtpx:hr>
<gpxtpx:cad>0</gpxtpx:cad>
</gpxtpx:TrackPointExtension>
</extensions>
</trkpt>
<trkpt lat="14.690305709838867" lon="121.09534454345703">
<ele>137</ele>
<time>2026-09-23T11:56:38.00Z</time>
<extensions>
<gpxtpx:TrackPointExtension>
<gpxtpx:hr>173</gpxtpx:hr>
<gpxtpx:cad>0</gpxtpx:cad>
</gpxtpx:TrackPointExtension>
</extensions>
</trkpt>
<trkpt lat="14.690380096435547" lon="121.09542846679688">
<ele>137</ele>
<time>2026-09-23T11:56:44.00Z</time>
<extensions>
<gpxtpx:TrackPointExtension>
<gpxtpx:hr>181</gpxtpx:hr>
<gpxtpx:cad>0</gpxtpx:cad>
</gpxtpx:TrackPointExtension>
</extensions>
</trkpt>
<trkpt lat="14.690434455871582" lon="121.09550476074219">
<ele>137</ele>
<time>2026-09-23T11:56:50.00Z</time>
<extensions>
<gpxtpx:TrackPointExtension>
<gpxtpx:hr>179</gpxtpx:hr>
<gpxtpx:cad>0</gpxtpx:cad>
</gpxtpx:TrackPointExtension>
</extensions>
</trkpt>
<trkpt lat="14.690498352050781" lon="121.0956039428711">
<ele>137</ele>
<time>2026-09-23T11:56:56.00Z</time>
<extensions>
<gpxtpx:TrackPointExtension>
<gpxtpx:hr>177</gpxtpx:hr>
<gpxtpx:cad>0</gpxtpx:cad>
</gpxtpx:TrackPointExtension>
</extensions>
</trkpt>
<trkpt lat="14.69057846069336" lon="121.09567260742188">
<ele>137</ele>
<time>2026-09-23T11:57:02.00Z</time>
<extensions>
<gpxtpx:TrackPointExtension>
<gpxtpx:hr>178</gpxtpx:hr>
<gpxtpx:cad>0</gpxtpx:cad>
</gpxtpx:TrackPointExtension>
</extensions>
</trkpt>
<trkpt lat="14.690664291381836" lon="121.09574127197266">
<ele>137</ele>
<time>2026-09-23T11:57:07.00Z</time>
<extensions>
<gpxtpx:TrackPointExtension>
<gpxtpx:hr>175</gpxtpx:hr>
<gpxtpx:cad>0</gpxtpx:cad>
</gpxtpx:TrackPointExtension>
</extensions>
</trkpt>
<trkpt lat="14.690743446350098" lon="121.0958023071289">
<ele>137</ele>
<time>2026-09-23T11:57:13.00Z</time>
<extensions>
<gpxtpx:TrackPointExtension>
<gpxtpx:hr>173</gpxtpx:hr>
<gpxtpx:cad>0</gpxtpx:cad>
</gpxtpx:TrackPointExtension>
</extensions>
</trkpt>
<trkpt lat="14.690786361694336" lon="121.09571838378906">
<ele>140</ele>
<time>2026-09-23T11:57:19.00Z</time>
<extensions>
<gpxtpx:TrackPointExtension>
<gpxtpx:hr>175</gpxtpx:hr>
<gpxtpx:cad>0</gpxtpx:cad>
</gpxtpx:TrackPointExtension>
</extensions>
</trkpt>
<trkpt lat="14.690741539001465" lon="121.09562683105469">
<ele>140</ele>
<time>2026-09-23T11:57:25.00Z</time>
<extensions>
<gpxtpx:TrackPointExtension>
<gpxtpx:hr>173</gpxtpx:hr>
<gpxtpx:cad>0</gpxtpx:cad>
</gpxtpx:TrackPointExtension>
</extensions>
</trkpt>
<trkpt lat="14.69066333770752" lon="121.09556579589844">
<ele>140</ele>
<time>2026-09-23T11:57:31.00Z</time>
<extensions>
<gpxtpx:TrackPointExtension>
<gpxtpx:hr>167</gpxtpx:hr>
<gpxtpx:cad>0</gpxtpx:cad>
</gpxtpx:TrackPointExtension>
</extensions>
</trkpt>
<trkpt lat="14.69057559967041" lon="121.09552764892578">
<ele>140</ele>
<time>2026-09-23T11:57:37.00Z</time>
<extensions>
<gpxtpx:TrackPointExtension>
<gpxtpx:hr>164</gpxtpx:hr>
<gpxtpx:cad>0</gpxtpx:cad>
</gpxtpx:TrackPointExtension>
</extensions>
</trkpt>
<trkpt lat="14.690495491027832" lon="121.09547424316406">
<ele>140</ele>
<time>2026-09-23T11:57:42.00Z</time>
<extensions>
<gpxtpx:TrackPointExtension>
<gpxtpx:hr>163</gpxtpx:hr>
<gpxtpx:cad>0</gpxtpx:cad>
</gpxtpx:TrackPointExtension>
</extensions>
</trkpt>
<trkpt lat="14.690437316894531" lon="121.09539031982422">
<ele>140</ele>
<time>2026-09-23T11:57:48.00Z</time>
<extensions>
<gpxtpx:TrackPointExtension>
<gpxtpx:hr>161</gpxtpx:hr>
<gpxtpx:cad>0</gpxtpx:cad>
</gpxtpx:TrackPointExtension>
</extensions>
</trkpt>
<trkpt lat="14.690362930297852" lon="121.09529876708984">
<ele>140</ele>
<time>2026-09-23T11:57:54.00Z</time>
<extensions>
<gpxtpx:TrackPointExtension>
<gpxtpx:hr>158</gpxtpx:hr>
<gpxtpx:cad>0</gpxtpx:cad>
</gpxtpx:TrackPointExtension>
</extensions>
</trkpt>
<trkpt lat="14.690250396728516" lon="121.0951919555664">
<ele>140</ele>
<time>2026-09-23T11:58:00.00Z</time>
<extensions>
<gpxtpx:TrackPointExtension>
<gpxtpx:hr>156</gpxtpx:hr>
<gpxtpx:cad>0</gpxtpx:cad>
</gpxtpx:TrackPointExtension>
</extensions>
</trkpt>
<trkpt lat="14.690155982971191" lon="121.09513092041016">
<ele>140</ele>
<time>2026-09-23T11:58:06.00Z</time>
<extensions>
<gpxtpx:TrackPointExtension>
<gpxtpx:hr>164</gpxtpx:hr>
<gpxtpx:cad>0</gpxtpx:cad>
</gpxtpx:TrackPointExtension>
</extensions>
</trkpt>
<trkpt lat="14.690080642700195" lon="121.09505462646484">
<ele>140</ele>
<time>2026-09-23T11:58:12.00Z</time>
<extensions>
<gpxtpx:TrackPointExtension>
<gpxtpx:hr>169</gpxtpx:hr>
<gpxtpx:cad>0</gpxtpx:cad>
</gpxtpx:TrackPointExtension>
</extensions>
</trkpt>
<trkpt lat="14.690003395080566" lon="121.094970703125">
<ele>140</ele>
<time>2026-09-23T11:58:17.00Z</time>
<extensions>
<gpxtpx:TrackPointExtension>
<gpxtpx:hr>173</gpxtpx:hr>
<gpxtpx:cad>0</gpxtpx:cad>
</gpxtpx:TrackPointExtension>
</extensions>
</trkpt>
<trkpt lat="14.689935684204102" lon="121.09490966796875">
<ele>140</ele>
<time>2026-09-23T11:58:23.00Z</time>
<extensions>
<gpxtpx:TrackPointExtension>
<gpxtpx:hr>177</gpxtpx:hr>
<gpxtpx:cad>0</gpxtpx:cad>
</gpxtpx:TrackPointExtension>
</extensions>
</trkpt>
<trkpt lat="14.689863204956055" lon="121.0948486328125">
<ele>140</ele>
<time>2026-09-23T11:58:29.00Z</time>
<extensions>
<gpxtpx:TrackPointExtension>
<gpxtpx:hr>172</gpxtpx:hr>
<gpxtpx:cad>0</gpxtpx:cad>
</gpxtpx:TrackPointExtension>
</extensions>
</trkpt>
<trkpt lat="14.689764022827148" lon="121.09476470947266">
<ele>140</ele>
<time>2026-09-23T11:58:35.00Z</time>
<extensions>
<gpxtpx:TrackPointExtension>
<gpxtpx:hr>180</gpxtpx:hr>
<gpxtpx:cad>0</gpxtpx:cad>
</gpxtpx:TrackPointExtension>
</extensions>
</trkpt>
<trkpt lat="14.689669609069824" lon="121.09468841552734">
<ele>140</ele>
<time>2026-09-23T11:58:41.00Z</time>
<extensions>
<gpxtpx:TrackPointExtension>
<gpxtpx:hr>179</gpxtpx:hr>
<gpxtpx:cad>0</gpxtpx:cad>
</gpxtpx:TrackPointExtension>
</extensions>
</trkpt>
<trkpt lat="14.689580917358398" lon="121.0946273803711">
<ele>140</ele>
<time>2026-09-23T11:58:47.00Z</time>
<extensions>
<gpxtpx:TrackPointExtension>
<gpxtpx:hr>180</gpxtpx:hr>
<gpxtpx:cad>0</gpxtpx:cad>
</gpxtpx:TrackPointExtension>
</extensions>
</trkpt>
<trkpt lat="14.689485549926758" lon="121.09454345703125">
<ele>140</ele>
<time>2026-09-23T11:58:52.00Z</time>
<extensions>
<gpxtpx:TrackPointExtension>
<gpxtpx:hr>180</gpxtpx:hr>
<gpxtpx:cad>0</gpxtpx:cad>
</gpxtpx:TrackPointExtension>
</extensions>
</trkpt>
<trkpt lat="14.68939208984375" lon="121.0944595336914">
<ele>140</ele>
<time>2026-09-23T11:58:58.00Z</time>
<extensions>
<gpxtpx:TrackPointExtension>
<gpxtpx:hr>176</gpxtpx:hr>
<gpxtpx:cad>0</gpxtpx:cad>
</gpxtpx:TrackPointExtension>
</extensions>
</trkpt>
<trkpt lat="14.689315795898438" lon="121.09436798095703">
<ele>140</ele>
<time>2026-09-23T11:59:04.00Z</time>
<extensions>
<gpxtpx:TrackPointExtension>
<gpxtpx:hr>176</gpxtpx:hr>
<gpxtpx:cad>0</gpxtpx:cad>
</gpxtpx:TrackPointExtension>
</extensions>
</trkpt>
<trkpt lat="14.689238548278809" lon="121.09426879882812">
<ele>140</ele>
<time>2026-09-23T11:59:10.00Z</time>
<extensions>
<gpxtpx:TrackPointExtension>
<gpxtpx:hr>180</gpxtpx:hr>
<gpxtpx:cad>0</gpxtpx:cad>
</gpxtpx:TrackPointExtension>
</extensions>
</trkpt>
<trkpt lat="14.68918514251709" lon="121.09418487548828">
<ele>98</ele>
<time>2026-09-23T11:59:16.00Z</time>
<extensions>
<gpxtpx:TrackPointExtension>
<gpxtpx:hr>177</gpxtpx:hr>
<gpxtpx:cad>0</gpxtpx:cad>
</gpxtpx:TrackPointExtension>
</extensions>
</trkpt>
<trkpt lat="14.689117431640625" lon="121.09412384033203">
<ele>134</ele>
<time>2026-09-23T11:59:22.00Z</time>
<extensions>
<gpxtpx:TrackPointExtension>
<gpxtpx:hr>176</gpxtpx:hr>
<gpxtpx:cad>0</gpxtpx:cad>
</gpxtpx:TrackPointExtension>
</extensions>
</trkpt>
</trkseg>
</trk>
</gpx>
