<?xml version="1.0" encoding="UTF-8"?>
<gpx version="1.1" creator="GPX Repair Studio Demo Generator" xmlns="http://www.topografix.com/GPX/1/1">
  <metadata>
    <name>QC Circle Easy Run (demo - clean)</name>
    <time>2026-09-26T22:00:00.000Z</time>
  </metadata>
  <trk>
    <name>QC Circle Easy Run (demo - clean)</name>
    <trkseg>
    <trkpt lat="14.648785" lon="121.037722"><ele>22.2</ele><time>2026-09-26T22:00:00.000Z</time></trkpt>
    <trkpt lat="14.648772" lon="121.037743"><ele>22.1</ele><time>2026-09-26T22:00:01.000Z</time></trkpt>
    <trkpt lat="14.648758" lon="121.037765"><ele>22.1</ele><time>2026-09-26T22:00:02.000Z</time></trkpt>
    <trkpt lat="14.648745" lon="121.037789"><ele>22.0</ele><time>2026-09-26T22:00:03.000Z</time></trkpt>
    <trkpt lat="14.648732" lon="121.037813"><ele>22.0</ele><time>2026-09-26T22:00:04.000Z</time></trkpt>
    <trkpt lat="14.648720" lon="121.037837"><ele>21.9</ele><time>2026-09-26T22:00:05.000Z</time></trkpt>
    <trkpt lat="14.648708" lon="121.037861"><ele>21.8</ele><time>2026-09-26T22:00:06.000Z</time></trkpt>
    <trkpt lat="14.648698" lon="121.037883"><ele>21.8</ele><time>2026-09-26T22:00:07.000Z</time></trkpt>
    <trkpt lat="14.648687" lon="121.037908"><ele>21.8</ele><time>2026-09-26T22:00:08.000Z</time></trkpt>
    <trkpt lat="14.648677" lon="121.037932"><ele>21.8</ele><time>2026-09-26T22:00:09.000Z</time></trkpt>
    <trkpt lat="14.648668" lon="121.037956"><ele>21.8</ele><time>2026-09-26T22:00:10.000Z</time></trkpt>
    <trkpt lat="14.648659" lon="121.037978"><ele>21.8</ele><time>2026-09-26T22:00:11.000Z</time></trkpt>
    <trkpt lat="14.648650" lon="121.038002"><ele>21.8</ele><time>2026-09-26T22:00:12.000Z</time></trkpt>
    <trkpt lat="14.648640" lon="121.038027"><ele>21.8</ele><time>2026-09-26T22:00:13.000Z</time></trkpt>
    <trkpt lat="14.648629" lon="121.038053"><ele>21.7</ele><time>2026-09-26T22:00:14.000Z</time></trkpt>
    <trkpt lat="14.648619" lon="121.038074"><ele>21.7</ele><time>2026-09-26T22:00:15.000Z</time></trkpt>
    <trkpt lat="14.648607" lon="121.038098"><ele>21.8</ele><time>2026-09-26T22:00:16.000Z</time></trkpt>
    <trkpt lat="14.648596" lon="121.038123"><ele>21.7</ele><time>2026-09-26T22:00:17.000Z</time></trkpt>
    <trkpt lat="14.648586" lon="121.038148"><ele>21.7</ele><time>2026-09-26T22:00:18.000Z</time></trkpt>
    <trkpt lat="14.648575" lon="121.038171"><ele>21.7</ele><time>2026-09-26T22:00:19.000Z</time></trkpt>
    <trkpt lat="14.648564" lon="121.038193"><ele>21.7</ele><time>2026-09-26T22:00:20.000Z</time></trkpt>
    <trkpt lat="14.648553" lon="121.038217"><ele>21.7</ele><time>2026-09-26T22:00:21.000Z</time></trkpt>
    <trkpt lat="14.648542" lon="121.038241"><ele>21.7</ele><time>2026-09-26T22:00:22.000Z</time></trkpt>
    <trkpt lat="14.648531" lon="121.038264"><ele>21.8</ele><time>2026-09-26T22:00:23.000Z</time></trkpt>
    <trkpt lat="14.648520" lon="121.038289"><ele>21.8</ele><time>2026-09-26T22:00:24.000Z</time></trkpt>
    <trkpt lat="14.648509" lon="121.038312"><ele>21.8</ele><time>2026-09-26T22:00:25.000Z</time></trkpt>
    <trkpt lat="14.648498" lon="121.038336"><ele>21.8</ele><time>2026-09-26T22:00:26.000Z</time></trkpt>
    <trkpt lat="14.648486" lon="121.038361"><ele>21.8</ele><time>2026-09-26T22:00:27.000Z</time></trkpt>
    <trkpt lat="14.648475" lon="121.038384"><ele>21.8</ele><time>2026-09-26T22:00:28.000Z</time></trkpt>
    <trkpt lat="14.648464" lon="121.038406"><ele>21.8</ele><time>2026-09-26T22:00:29.000Z</time></trkpt>
    <trkpt lat="14.648453" lon="121.038430"><ele>21.8</ele><time>2026-09-26T22:00:30.000Z</time></trkpt>
    <trkpt lat="14.648442" lon="121.038455"><ele>21.8</ele><time>2026-09-26T22:00:31.000Z</time></trkpt>
    <trkpt lat="14.648431" lon="121.038480"><ele>21.9</ele><time>2026-09-26T22:00:32.000Z</time></trkpt>
    <trkpt lat="14.648420" lon="121.038505"><ele>21.9</ele><time>2026-09-26T22:00:33.000Z</time></trkpt>
    <trkpt lat="14.648409" lon="121.038530"><ele>21.9</ele><time>2026-09-26T22:00:34.000Z</time></trkpt>
    <trkpt lat="14.648399" lon="121.038552"><ele>22.0</ele><time>2026-09-26T22:00:35.000Z</time></trkpt>
    <trkpt lat="14.648388" lon="121.038577"><ele>22.0</ele><time>2026-09-26T22:00:36.000Z</time></trkpt>
    <trkpt lat="14.648377" lon="121.038602"><ele>22.1</ele><time>2026-09-26T22:00:37.000Z</time></trkpt>
    <trkpt lat="14.648368" lon="121.038625"><ele>22.1</ele><time>2026-09-26T22:00:38.000Z</time></trkpt>
    <trkpt lat="14.648359" lon="121.038649"><ele>22.1</ele><time>2026-09-26T22:00:39.000Z</time></trkpt>
    <trkpt lat="14.648351" lon="121.038672"><ele>22.2</ele><time>2026-09-26T22:00:40.000Z</time></trkpt>
    <trkpt lat="14.648341" lon="121.038698"><ele>22.2</ele><time>2026-09-26T22:00:41.000Z</time></trkpt>
    <trkpt lat="14.648332" lon="121.038721"><ele>22.2</ele><time>2026-09-26T22:00:42.000Z</time></trkpt>
    <trkpt lat="14.648324" lon="121.038746"><ele>22.3</ele><time>2026-09-26T22:00:43.000Z</time></trkpt>
    <trkpt lat="14.648315" lon="121.038772"><ele>22.3</ele><time>2026-09-26T22:00:44.000Z</time></trkpt>
    <trkpt lat="14.648307" lon="121.038798"><ele>22.3</ele><time>2026-09-26T22:00:45.000Z</time></trkpt>
    <trkpt lat="14.648299" lon="121.038821"><ele>22.3</ele><time>2026-09-26T22:00:46.000Z</time></trkpt>
    <trkpt lat="14.648292" lon="121.038845"><ele>22.3</ele><time>2026-09-26T22:00:47.000Z</time></trkpt>
    <trkpt lat="14.648283" lon="121.038870"><ele>22.3</ele><time>2026-09-26T22:00:48.000Z</time></trkpt>
    <trkpt lat="14.648275" lon="121.038893"><ele>22.3</ele><time>2026-09-26T22:00:49.000Z</time></trkpt>
    <trkpt lat="14.648266" lon="121.038919"><ele>22.3</ele><time>2026-09-26T22:00:50.000Z</time></trkpt>
    <trkpt lat="14.648259" lon="121.038942"><ele>22.3</ele><time>2026-09-26T22:00:51.000Z</time></trkpt>
    <trkpt lat="14.648250" lon="121.038966"><ele>22.4</ele><time>2026-09-26T22:00:52.000Z</time></trkpt>
    <trkpt lat="14.648241" lon="121.038988"><ele>22.4</ele><time>2026-09-26T22:00:53.000Z</time></trkpt>
    <trkpt lat="14.648231" lon="121.039010"><ele>22.4</ele><time>2026-09-26T22:00:54.000Z</time></trkpt>
    <trkpt lat="14.648221" lon="121.039034"><ele>22.4</ele><time>2026-09-26T22:00:55.000Z</time></trkpt>
    <trkpt lat="14.648211" lon="121.039056"><ele>22.5</ele><time>2026-09-26T22:00:56.000Z</time></trkpt>
    <trkpt lat="14.648201" lon="121.039080"><ele>22.6</ele><time>2026-09-26T22:00:57.000Z</time></trkpt>
    <trkpt lat="14.648190" lon="121.039103"><ele>22.7</ele><time>2026-09-26T22:00:58.000Z</time></trkpt>
    <trkpt lat="14.648179" lon="121.039126"><ele>22.8</ele><time>2026-09-26T22:00:59.000Z</time></trkpt>
    <trkpt lat="14.648167" lon="121.039151"><ele>22.9</ele><time>2026-09-26T22:01:00.000Z</time></trkpt>
    <trkpt lat="14.648156" lon="121.039173"><ele>22.9</ele><time>2026-09-26T22:01:01.000Z</time></trkpt>
    <trkpt lat="14.648145" lon="121.039195"><ele>22.9</ele><time>2026-09-26T22:01:02.000Z</time></trkpt>
    <trkpt lat="14.648134" lon="121.039218"><ele>22.9</ele><time>2026-09-26T22:01:03.000Z</time></trkpt>
    <trkpt lat="14.648124" lon="121.039242"><ele>23.0</ele><time>2026-09-26T22:01:04.000Z</time></trkpt>
    <trkpt lat="14.648114" lon="121.039267"><ele>23.0</ele><time>2026-09-26T22:01:05.000Z</time></trkpt>
    <trkpt lat="14.648105" lon="121.039291"><ele>23.0</ele><time>2026-09-26T22:01:06.000Z</time></trkpt>
    <trkpt lat="14.648096" lon="121.039317"><ele>22.9</ele><time>2026-09-26T22:01:07.000Z</time></trkpt>
    <trkpt lat="14.648088" lon="121.039340"><ele>22.9</ele><time>2026-09-26T22:01:08.000Z</time></trkpt>
    <trkpt lat="14.648081" lon="121.039363"><ele>22.9</ele><time>2026-09-26T22:01:09.000Z</time></trkpt>
    <trkpt lat="14.648074" lon="121.039386"><ele>22.9</ele><time>2026-09-26T22:01:10.000Z</time></trkpt>
    <trkpt lat="14.648067" lon="121.039412"><ele>23.0</ele><time>2026-09-26T22:01:11.000Z</time></trkpt>
    <trkpt lat="14.648059" lon="121.039436"><ele>23.0</ele><time>2026-09-26T22:01:12.000Z</time></trkpt>
    <trkpt lat="14.648053" lon="121.039462"><ele>23.1</ele><time>2026-09-26T22:01:13.000Z</time></trkpt>
    <trkpt lat="14.648046" lon="121.039487"><ele>23.1</ele><time>2026-09-26T22:01:14.000Z</time></trkpt>
    <trkpt lat="14.648038" lon="121.039512"><ele>23.1</ele><time>2026-09-26T22:01:15.000Z</time></trkpt>
    <trkpt lat="14.648030" lon="121.039538"><ele>23.2</ele><time>2026-09-26T22:01:16.000Z</time></trkpt>
    <trkpt lat="14.648021" lon="121.039564"><ele>23.3</ele><time>2026-09-26T22:01:17.000Z</time></trkpt>
    <trkpt lat="14.648012" lon="121.039588"><ele>23.3</ele><time>2026-09-26T22:01:18.000Z</time></trkpt>
    <trkpt lat="14.648004" lon="121.039614"><ele>23.2</ele><time>2026-09-26T22:01:19.000Z</time></trkpt>
    <trkpt lat="14.647995" lon="121.039637"><ele>23.2</ele><time>2026-09-26T22:01:20.000Z</time></trkpt>
    <trkpt lat="14.647986" lon="121.039660"><ele>23.2</ele><time>2026-09-26T22:01:21.000Z</time></trkpt>
    <trkpt lat="14.647976" lon="121.039685"><ele>23.2</ele><time>2026-09-26T22:01:22.000Z</time></trkpt>
    <trkpt lat="14.647966" lon="121.039710"><ele>23.1</ele><time>2026-09-26T22:01:23.000Z</time></trkpt>
    <trkpt lat="14.647956" lon="121.039733"><ele>23.1</ele><time>2026-09-26T22:01:24.000Z</time></trkpt>
    <trkpt lat="14.647946" lon="121.039757"><ele>23.1</ele><time>2026-09-26T22:01:25.000Z</time></trkpt>
    <trkpt lat="14.647936" lon="121.039781"><ele>23.1</ele><time>2026-09-26T22:01:26.000Z</time></trkpt>
    <trkpt lat="14.647926" lon="121.039807"><ele>23.1</ele><time>2026-09-26T22:01:27.000Z</time></trkpt>
    <trkpt lat="14.647918" lon="121.039830"><ele>23.1</ele><time>2026-09-26T22:01:28.000Z</time></trkpt>
    <trkpt lat="14.647909" lon="121.039854"><ele>23.1</ele><time>2026-09-26T22:01:29.000Z</time></trkpt>
    <trkpt lat="14.647900" lon="121.039878"><ele>23.1</ele><time>2026-09-26T22:01:30.000Z</time></trkpt>
    <trkpt lat="14.647891" lon="121.039900"><ele>23.2</ele><time>2026-09-26T22:01:31.000Z</time></trkpt>
    <trkpt lat="14.647881" lon="121.039924"><ele>23.2</ele><time>2026-09-26T22:01:32.000Z</time></trkpt>
    <trkpt lat="14.647872" lon="121.039947"><ele>23.2</ele><time>2026-09-26T22:01:33.000Z</time></trkpt>
    <trkpt lat="14.647863" lon="121.039971"><ele>23.3</ele><time>2026-09-26T22:01:34.000Z</time></trkpt>
    <trkpt lat="14.647853" lon="121.039994"><ele>23.3</ele><time>2026-09-26T22:01:35.000Z</time></trkpt>
    <trkpt lat="14.647844" lon="121.040018"><ele>23.3</ele><time>2026-09-26T22:01:36.000Z</time></trkpt>
    <trkpt lat="14.647834" lon="121.040040"><ele>23.4</ele><time>2026-09-26T22:01:37.000Z</time></trkpt>
    <trkpt lat="14.647824" lon="121.040063"><ele>23.4</ele><time>2026-09-26T22:01:38.000Z</time></trkpt>
    <trkpt lat="14.647814" lon="121.040086"><ele>23.4</ele><time>2026-09-26T22:01:39.000Z</time></trkpt>
    <trkpt lat="14.647804" lon="121.040109"><ele>23.4</ele><time>2026-09-26T22:01:40.000Z</time></trkpt>
    <trkpt lat="14.647792" lon="121.040135"><ele>23.4</ele><time>2026-09-26T22:01:41.000Z</time></trkpt>
    <trkpt lat="14.647782" lon="121.040158"><ele>23.3</ele><time>2026-09-26T22:01:42.000Z</time></trkpt>
    <trkpt lat="14.647772" lon="121.040181"><ele>23.3</ele><time>2026-09-26T22:01:43.000Z</time></trkpt>
    <trkpt lat="14.647763" lon="121.040205"><ele>23.3</ele><time>2026-09-26T22:01:44.000Z</time></trkpt>
    <trkpt lat="14.647752" lon="121.040228"><ele>23.2</ele><time>2026-09-26T22:01:45.000Z</time></trkpt>
    <trkpt lat="14.647743" lon="121.040250"><ele>23.2</ele><time>2026-09-26T22:01:46.000Z</time></trkpt>
    <trkpt lat="14.647731" lon="121.040273"><ele>23.1</ele><time>2026-09-26T22:01:47.000Z</time></trkpt>
    <trkpt lat="14.647721" lon="121.040296"><ele>23.1</ele><time>2026-09-26T22:01:48.000Z</time></trkpt>
    <trkpt lat="14.647709" lon="121.040321"><ele>23.1</ele><time>2026-09-26T22:01:49.000Z</time></trkpt>
    <trkpt lat="14.647698" lon="121.040342"><ele>23.1</ele><time>2026-09-26T22:01:50.000Z</time></trkpt>
    <trkpt lat="14.647686" lon="121.040366"><ele>23.1</ele><time>2026-09-26T22:01:51.000Z</time></trkpt>
    <trkpt lat="14.647675" lon="121.040388"><ele>23.1</ele><time>2026-09-26T22:01:52.000Z</time></trkpt>
    <trkpt lat="14.647662" lon="121.040411"><ele>23.1</ele><time>2026-09-26T22:01:53.000Z</time></trkpt>
    <trkpt lat="14.647649" lon="121.040433"><ele>23.2</ele><time>2026-09-26T22:01:54.000Z</time></trkpt>
    <trkpt lat="14.647635" lon="121.040456"><ele>23.2</ele><time>2026-09-26T22:01:55.000Z</time></trkpt>
    <trkpt lat="14.647622" lon="121.040480"><ele>23.2</ele><time>2026-09-26T22:01:56.000Z</time></trkpt>
    <trkpt lat="14.647608" lon="121.040504"><ele>23.2</ele><time>2026-09-26T22:01:57.000Z</time></trkpt>
    <trkpt lat="14.647595" lon="121.040525"><ele>23.3</ele><time>2026-09-26T22:01:58.000Z</time></trkpt>
    <trkpt lat="14.647582" lon="121.040547"><ele>23.3</ele><time>2026-09-26T22:01:59.000Z</time></trkpt>
    <trkpt lat="14.647568" lon="121.040570"><ele>23.3</ele><time>2026-09-26T22:02:00.000Z</time></trkpt>
    <trkpt lat="14.647555" lon="121.040592"><ele>23.3</ele><time>2026-09-26T22:02:01.000Z</time></trkpt>
    <trkpt lat="14.647541" lon="121.040616"><ele>23.3</ele><time>2026-09-26T22:02:02.000Z</time></trkpt>
    <trkpt lat="14.647527" lon="121.040640"><ele>23.3</ele><time>2026-09-26T22:02:03.000Z</time></trkpt>
    <trkpt lat="14.647515" lon="121.040661"><ele>23.4</ele><time>2026-09-26T22:02:04.000Z</time></trkpt>
    <trkpt lat="14.647501" lon="121.040685"><ele>23.4</ele><time>2026-09-26T22:02:05.000Z</time></trkpt>
    <trkpt lat="14.647488" lon="121.040706"><ele>23.4</ele><time>2026-09-26T22:02:06.000Z</time></trkpt>
    <trkpt lat="14.647474" lon="121.040727"><ele>23.5</ele><time>2026-09-26T22:02:07.000Z</time></trkpt>
    <trkpt lat="14.647459" lon="121.040749"><ele>23.5</ele><time>2026-09-26T22:02:08.000Z</time></trkpt>
    <trkpt lat="14.647444" lon="121.040770"><ele>23.6</ele><time>2026-09-26T22:02:09.000Z</time></trkpt>
    <trkpt lat="14.647430" lon="121.040791"><ele>23.6</ele><time>2026-09-26T22:02:10.000Z</time></trkpt>
    <trkpt lat="14.647416" lon="121.040814"><ele>23.7</ele><time>2026-09-26T22:02:11.000Z</time></trkpt>
    <trkpt lat="14.647401" lon="121.040838"><ele>23.7</ele><time>2026-09-26T22:02:12.000Z</time></trkpt>
    <trkpt lat="14.647388" lon="121.040863"><ele>23.8</ele><time>2026-09-26T22:02:13.000Z</time></trkpt>
    <trkpt lat="14.647374" lon="121.040885"><ele>23.9</ele><time>2026-09-26T22:02:14.000Z</time></trkpt>
    <trkpt lat="14.647361" lon="121.040908"><ele>23.9</ele><time>2026-09-26T22:02:15.000Z</time></trkpt>
    <trkpt lat="14.647350" lon="121.040931"><ele>23.9</ele><time>2026-09-26T22:02:16.000Z</time></trkpt>
    <trkpt lat="14.647338" lon="121.040952"><ele>23.9</ele><time>2026-09-26T22:02:17.000Z</time></trkpt>
    <trkpt lat="14.647326" lon="121.040975"><ele>23.9</ele><time>2026-09-26T22:02:18.000Z</time></trkpt>
    <trkpt lat="14.647315" lon="121.040997"><ele>23.9</ele><time>2026-09-26T22:02:19.000Z</time></trkpt>
    <trkpt lat="14.647303" lon="121.041021"><ele>23.9</ele><time>2026-09-26T22:02:20.000Z</time></trkpt>
    <trkpt lat="14.647290" lon="121.041043"><ele>24.0</ele><time>2026-09-26T22:02:21.000Z</time></trkpt>
    <trkpt lat="14.647276" lon="121.041067"><ele>24.1</ele><time>2026-09-26T22:02:22.000Z</time></trkpt>
    <trkpt lat="14.647262" lon="121.041090"><ele>24.1</ele><time>2026-09-26T22:02:23.000Z</time></trkpt>
    <trkpt lat="14.647251" lon="121.041111"><ele>24.2</ele><time>2026-09-26T22:02:24.000Z</time></trkpt>
    <trkpt lat="14.647237" lon="121.041134"><ele>24.3</ele><time>2026-09-26T22:02:25.000Z</time></trkpt>
    <trkpt lat="14.647225" lon="121.041154"><ele>24.3</ele><time>2026-09-26T22:02:26.000Z</time></trkpt>
    <trkpt lat="14.647214" lon="121.041176"><ele>24.4</ele><time>2026-09-26T22:02:27.000Z</time></trkpt>
    <trkpt lat="14.647202" lon="121.041198"><ele>24.5</ele><time>2026-09-26T22:02:28.000Z</time></trkpt>
    <trkpt lat="14.647191" lon="121.041221"><ele>24.5</ele><time>2026-09-26T22:02:29.000Z</time></trkpt>
    <trkpt lat="14.647181" lon="121.041245"><ele>24.5</ele><time>2026-09-26T22:02:30.000Z</time></trkpt>
    <trkpt lat="14.647170" lon="121.041269"><ele>24.4</ele><time>2026-09-26T22:02:31.000Z</time></trkpt>
    <trkpt lat="14.647159" lon="121.041294"><ele>24.4</ele><time>2026-09-26T22:02:32.000Z</time></trkpt>
    <trkpt lat="14.647149" lon="121.041319"><ele>24.3</ele><time>2026-09-26T22:02:33.000Z</time></trkpt>
    <trkpt lat="14.647138" lon="121.041345"><ele>24.3</ele><time>2026-09-26T22:02:34.000Z</time></trkpt>
    <trkpt lat="14.647127" lon="121.041370"><ele>24.3</ele><time>2026-09-26T22:02:35.000Z</time></trkpt>
    <trkpt lat="14.647116" lon="121.041394"><ele>24.4</ele><time>2026-09-26T22:02:36.000Z</time></trkpt>
    <trkpt lat="14.647104" lon="121.041419"><ele>24.5</ele><time>2026-09-26T22:02:37.000Z</time></trkpt>
    <trkpt lat="14.647094" lon="121.041440"><ele>24.6</ele><time>2026-09-26T22:02:38.000Z</time></trkpt>
    <trkpt lat="14.647084" lon="121.041465"><ele>24.7</ele><time>2026-09-26T22:02:39.000Z</time></trkpt>
    <trkpt lat="14.647074" lon="121.041489"><ele>24.7</ele><time>2026-09-26T22:02:40.000Z</time></trkpt>
    <trkpt lat="14.647064" lon="121.041515"><ele>24.7</ele><time>2026-09-26T22:02:41.000Z</time></trkpt>
    <trkpt lat="14.647053" lon="121.041539"><ele>24.7</ele><time>2026-09-26T22:02:42.000Z</time></trkpt>
    <trkpt lat="14.647043" lon="121.041562"><ele>24.6</ele><time>2026-09-26T22:02:43.000Z</time></trkpt>
    <trkpt lat="14.647032" lon="121.041587"><ele>24.5</ele><time>2026-09-26T22:02:44.000Z</time></trkpt>
    <trkpt lat="14.647021" lon="121.041612"><ele>24.4</ele><time>2026-09-26T22:02:45.000Z</time></trkpt>
    <trkpt lat="14.647011" lon="121.041634"><ele>24.3</ele><time>2026-09-26T22:02:46.000Z</time></trkpt>
    <trkpt lat="14.647000" lon="121.041657"><ele>24.2</ele><time>2026-09-26T22:02:47.000Z</time></trkpt>
    <trkpt lat="14.646988" lon="121.041679"><ele>24.2</ele><time>2026-09-26T22:02:48.000Z</time></trkpt>
    <trkpt lat="14.646977" lon="121.041701"><ele>24.2</ele><time>2026-09-26T22:02:49.000Z</time></trkpt>
    <trkpt lat="14.646965" lon="121.041722"><ele>24.2</ele><time>2026-09-26T22:02:50.000Z</time></trkpt>
    <trkpt lat="14.646953" lon="121.041743"><ele>24.2</ele><time>2026-09-26T22:02:51.000Z</time></trkpt>
    <trkpt lat="14.646942" lon="121.041764"><ele>24.1</ele><time>2026-09-26T22:02:52.000Z</time></trkpt>
    <trkpt lat="14.646931" lon="121.041786"><ele>24.0</ele><time>2026-09-26T22:02:53.000Z</time></trkpt>
    <trkpt lat="14.646919" lon="121.041808"><ele>24.0</ele><time>2026-09-26T22:02:54.000Z</time></trkpt>
    <trkpt lat="14.646907" lon="121.041829"><ele>24.0</ele><time>2026-09-26T22:02:55.000Z</time></trkpt>
    <trkpt lat="14.646894" lon="121.041852"><ele>24.0</ele><time>2026-09-26T22:02:56.000Z</time></trkpt>
    <trkpt lat="14.646880" lon="121.041875"><ele>23.9</ele><time>2026-09-26T22:02:57.000Z</time></trkpt>
    <trkpt lat="14.646866" lon="121.041898"><ele>23.8</ele><time>2026-09-26T22:02:58.000Z</time></trkpt>
    <trkpt lat="14.646852" lon="121.041920"><ele>23.7</ele><time>2026-09-26T22:02:59.000Z</time></trkpt>
    <trkpt lat="14.646837" lon="121.041942"><ele>23.6</ele><time>2026-09-26T22:03:00.000Z</time></trkpt>
    <trkpt lat="14.646824" lon="121.041962"><ele>23.5</ele><time>2026-09-26T22:03:01.000Z</time></trkpt>
    <trkpt lat="14.646810" lon="121.041981"><ele>23.4</ele><time>2026-09-26T22:03:02.000Z</time></trkpt>
    <trkpt lat="14.646794" lon="121.042001"><ele>23.4</ele><time>2026-09-26T22:03:03.000Z</time></trkpt>
    <trkpt lat="14.646779" lon="121.042021"><ele>23.3</ele><time>2026-09-26T22:03:04.000Z</time></trkpt>
    <trkpt lat="14.646763" lon="121.042042"><ele>23.2</ele><time>2026-09-26T22:03:05.000Z</time></trkpt>
    <trkpt lat="14.646748" lon="121.042062"><ele>23.1</ele><time>2026-09-26T22:03:06.000Z</time></trkpt>
    <trkpt lat="14.646733" lon="121.042082"><ele>23.1</ele><time>2026-09-26T22:03:07.000Z</time></trkpt>
    <trkpt lat="14.646718" lon="121.042101"><ele>23.1</ele><time>2026-09-26T22:03:08.000Z</time></trkpt>
    <trkpt lat="14.646703" lon="121.042121"><ele>23.1</ele><time>2026-09-26T22:03:09.000Z</time></trkpt>
    <trkpt lat="14.646686" lon="121.042142"><ele>23.1</ele><time>2026-09-26T22:03:10.000Z</time></trkpt>
    <trkpt lat="14.646669" lon="121.042163"><ele>23.1</ele><time>2026-09-26T22:03:11.000Z</time></trkpt>
    <trkpt lat="14.646650" lon="121.042183"><ele>23.1</ele><time>2026-09-26T22:03:12.000Z</time></trkpt>
    <trkpt lat="14.646634" lon="121.042202"><ele>23.0</ele><time>2026-09-26T22:03:13.000Z</time></trkpt>
    <trkpt lat="14.646617" lon="121.042221"><ele>23.1</ele><time>2026-09-26T22:03:14.000Z</time></trkpt>
    <trkpt lat="14.646601" lon="121.042240"><ele>23.1</ele><time>2026-09-26T22:03:15.000Z</time></trkpt>
    <trkpt lat="14.646586" lon="121.042259"><ele>23.1</ele><time>2026-09-26T22:03:16.000Z</time></trkpt>
    <trkpt lat="14.646569" lon="121.042279"><ele>23.1</ele><time>2026-09-26T22:03:17.000Z</time></trkpt>
    <trkpt lat="14.646554" lon="121.042297"><ele>23.1</ele><time>2026-09-26T22:03:18.000Z</time></trkpt>
    <trkpt lat="14.646538" lon="121.042315"><ele>23.1</ele><time>2026-09-26T22:03:19.000Z</time></trkpt>
    <trkpt lat="14.646520" lon="121.042333"><ele>23.0</ele><time>2026-09-26T22:03:20.000Z</time></trkpt>
    <trkpt lat="14.646503" lon="121.042352"><ele>23.0</ele><time>2026-09-26T22:03:21.000Z</time></trkpt>
    <trkpt lat="14.646486" lon="121.042372"><ele>22.9</ele><time>2026-09-26T22:03:22.000Z</time></trkpt>
    <trkpt lat="14.646469" lon="121.042393"><ele>22.8</ele><time>2026-09-26T22:03:23.000Z</time></trkpt>
    <trkpt lat="14.646453" lon="121.042411"><ele>22.7</ele><time>2026-09-26T22:03:24.000Z</time></trkpt>
    <trkpt lat="14.646435" lon="121.042431"><ele>22.7</ele><time>2026-09-26T22:03:25.000Z</time></trkpt>
    <trkpt lat="14.646418" lon="121.042450"><ele>22.6</ele><time>2026-09-26T22:03:26.000Z</time></trkpt>
    <trkpt lat="14.646401" lon="121.042469"><ele>22.6</ele><time>2026-09-26T22:03:27.000Z</time></trkpt>
    <trkpt lat="14.646383" lon="121.042491"><ele>22.5</ele><time>2026-09-26T22:03:28.000Z</time></trkpt>
    <trkpt lat="14.646368" lon="121.042509"><ele>22.5</ele><time>2026-09-26T22:03:29.000Z</time></trkpt>
    <trkpt lat="14.646351" lon="121.042528"><ele>22.5</ele><time>2026-09-26T22:03:30.000Z</time></trkpt>
    <trkpt lat="14.646336" lon="121.042546"><ele>22.5</ele><time>2026-09-26T22:03:31.000Z</time></trkpt>
    <trkpt lat="14.646321" lon="121.042565"><ele>22.5</ele><time>2026-09-26T22:03:32.000Z</time></trkpt>
    <trkpt lat="14.646304" lon="121.042585"><ele>22.5</ele><time>2026-09-26T22:03:33.000Z</time></trkpt>
    <trkpt lat="14.646286" lon="121.042605"><ele>22.6</ele><time>2026-09-26T22:03:34.000Z</time></trkpt>
    <trkpt lat="14.646270" lon="121.042623"><ele>22.5</ele><time>2026-09-26T22:03:35.000Z</time></trkpt>
    <trkpt lat="14.646251" lon="121.042643"><ele>22.6</ele><time>2026-09-26T22:03:36.000Z</time></trkpt>
    <trkpt lat="14.646233" lon="121.042662"><ele>22.6</ele><time>2026-09-26T22:03:37.000Z</time></trkpt>
    <trkpt lat="14.646214" lon="121.042680"><ele>22.6</ele><time>2026-09-26T22:03:38.000Z</time></trkpt>
    <trkpt lat="14.646195" lon="121.042700"><ele>22.6</ele><time>2026-09-26T22:03:39.000Z</time></trkpt>
    <trkpt lat="14.646179" lon="121.042718"><ele>22.6</ele><time>2026-09-26T22:03:40.000Z</time></trkpt>
    <trkpt lat="14.646161" lon="121.042736"><ele>22.7</ele><time>2026-09-26T22:03:41.000Z</time></trkpt>
    <trkpt lat="14.646145" lon="121.042754"><ele>22.7</ele><time>2026-09-26T22:03:42.000Z</time></trkpt>
    <trkpt lat="14.646128" lon="121.042772"><ele>22.8</ele><time>2026-09-26T22:03:43.000Z</time></trkpt>
    <trkpt lat="14.646111" lon="121.042790"><ele>22.9</ele><time>2026-09-26T22:03:44.000Z</time></trkpt>
    <trkpt lat="14.646092" lon="121.042809"><ele>23.0</ele><time>2026-09-26T22:03:45.000Z</time></trkpt>
    <trkpt lat="14.646074" lon="121.042827"><ele>23.1</ele><time>2026-09-26T22:03:46.000Z</time></trkpt>
    <trkpt lat="14.646057" lon="121.042846"><ele>23.1</ele><time>2026-09-26T22:03:47.000Z</time></trkpt>
    <trkpt lat="14.646039" lon="121.042867"><ele>23.3</ele><time>2026-09-26T22:03:48.000Z</time></trkpt>
    <trkpt lat="14.646022" lon="121.042886"><ele>23.4</ele><time>2026-09-26T22:03:49.000Z</time></trkpt>
    <trkpt lat="14.646005" lon="121.042904"><ele>23.5</ele><time>2026-09-26T22:03:50.000Z</time></trkpt>
    <trkpt lat="14.645986" lon="121.042922"><ele>23.6</ele><time>2026-09-26T22:03:51.000Z</time></trkpt>
    <trkpt lat="14.645967" lon="121.042939"><ele>23.7</ele><time>2026-09-26T22:03:52.000Z</time></trkpt>
    <trkpt lat="14.645946" lon="121.042956"><ele>23.8</ele><time>2026-09-26T22:03:53.000Z</time></trkpt>
    <trkpt lat="14.645926" lon="121.042972"><ele>23.9</ele><time>2026-09-26T22:03:54.000Z</time></trkpt>
    <trkpt lat="14.645908" lon="121.042988"><ele>23.9</ele><time>2026-09-26T22:03:55.000Z</time></trkpt>
    <trkpt lat="14.645887" lon="121.043005"><ele>23.9</ele><time>2026-09-26T22:03:56.000Z</time></trkpt>
    <trkpt lat="14.645868" lon="121.043020"><ele>24.0</ele><time>2026-09-26T22:03:57.000Z</time></trkpt>
    <trkpt lat="14.645848" lon="121.043035"><ele>24.0</ele><time>2026-09-26T22:03:58.000Z</time></trkpt>
    <trkpt lat="14.645828" lon="121.043051"><ele>24.0</ele><time>2026-09-26T22:03:59.000Z</time></trkpt>
    <trkpt lat="14.645807" lon="121.043066"><ele>24.0</ele><time>2026-09-26T22:04:00.000Z</time></trkpt>
    <trkpt lat="14.645787" lon="121.043081"><ele>24.0</ele><time>2026-09-26T22:04:01.000Z</time></trkpt>
    <trkpt lat="14.645766" lon="121.043097"><ele>24.0</ele><time>2026-09-26T22:04:02.000Z</time></trkpt>
    <trkpt lat="14.645747" lon="121.043112"><ele>24.0</ele><time>2026-09-26T22:04:03.000Z</time></trkpt>
    <trkpt lat="14.645728" lon="121.043128"><ele>24.0</ele><time>2026-09-26T22:04:04.000Z</time></trkpt>
    <trkpt lat="14.645709" lon="121.043145"><ele>23.9</ele><time>2026-09-26T22:04:05.000Z</time></trkpt>
    <trkpt lat="14.645690" lon="121.043161"><ele>23.9</ele><time>2026-09-26T22:04:06.000Z</time></trkpt>
    <trkpt lat="14.645670" lon="121.043178"><ele>23.8</ele><time>2026-09-26T22:04:07.000Z</time></trkpt>
    <trkpt lat="14.645651" lon="121.043195"><ele>23.8</ele><time>2026-09-26T22:04:08.000Z</time></trkpt>
    <trkpt lat="14.645630" lon="121.043213"><ele>23.7</ele><time>2026-09-26T22:04:09.000Z</time></trkpt>
    <trkpt lat="14.645610" lon="121.043232"><ele>23.6</ele><time>2026-09-26T22:04:10.000Z</time></trkpt>
    <trkpt lat="14.645592" lon="121.043249"><ele>23.6</ele><time>2026-09-26T22:04:11.000Z</time></trkpt>
    <trkpt lat="14.645572" lon="121.043268"><ele>23.5</ele><time>2026-09-26T22:04:12.000Z</time></trkpt>
    <trkpt lat="14.645553" lon="121.043287"><ele>23.4</ele><time>2026-09-26T22:04:13.000Z</time></trkpt>
    <trkpt lat="14.645534" lon="121.043306"><ele>23.3</ele><time>2026-09-26T22:04:14.000Z</time></trkpt>
    <trkpt lat="14.645516" lon="121.043326"><ele>23.2</ele><time>2026-09-26T22:04:15.000Z</time></trkpt>
    <trkpt lat="14.645498" lon="121.043344"><ele>23.1</ele><time>2026-09-26T22:04:16.000Z</time></trkpt>
    <trkpt lat="14.645480" lon="121.043362"><ele>23.0</ele><time>2026-09-26T22:04:17.000Z</time></trkpt>
    <trkpt lat="14.645461" lon="121.043379"><ele>22.9</ele><time>2026-09-26T22:04:18.000Z</time></trkpt>
    <trkpt lat="14.645442" lon="121.043397"><ele>22.8</ele><time>2026-09-26T22:04:19.000Z</time></trkpt>
    <trkpt lat="14.645422" lon="121.043416"><ele>22.6</ele><time>2026-09-26T22:04:20.000Z</time></trkpt>
    <trkpt lat="14.645403" lon="121.043435"><ele>22.6</ele><time>2026-09-26T22:04:21.000Z</time></trkpt>
    <trkpt lat="14.645385" lon="121.043453"><ele>22.5</ele><time>2026-09-26T22:04:22.000Z</time></trkpt>
    <trkpt lat="14.645367" lon="121.043471"><ele>22.4</ele><time>2026-09-26T22:04:23.000Z</time></trkpt>
    <trkpt lat="14.645351" lon="121.043489"><ele>22.3</ele><time>2026-09-26T22:04:24.000Z</time></trkpt>
    <trkpt lat="14.645334" lon="121.043507"><ele>22.3</ele><time>2026-09-26T22:04:25.000Z</time></trkpt>
    <trkpt lat="14.645317" lon="121.043524"><ele>22.3</ele><time>2026-09-26T22:04:26.000Z</time></trkpt>
    <trkpt lat="14.645298" lon="121.043544"><ele>22.3</ele><time>2026-09-26T22:04:27.000Z</time></trkpt>
    <trkpt lat="14.645279" lon="121.043563"><ele>22.3</ele><time>2026-09-26T22:04:28.000Z</time></trkpt>
    <trkpt lat="14.645260" lon="121.043582"><ele>22.3</ele><time>2026-09-26T22:04:29.000Z</time></trkpt>
    <trkpt lat="14.645242" lon="121.043602"><ele>22.3</ele><time>2026-09-26T22:04:30.000Z</time></trkpt>
    <trkpt lat="14.645224" lon="121.043622"><ele>22.3</ele><time>2026-09-26T22:04:31.000Z</time></trkpt>
    <trkpt lat="14.645209" lon="121.043640"><ele>22.3</ele><time>2026-09-26T22:04:32.000Z</time></trkpt>
    <trkpt lat="14.645193" lon="121.043659"><ele>22.3</ele><time>2026-09-26T22:04:33.000Z</time></trkpt>
    <trkpt lat="14.645177" lon="121.043678"><ele>22.3</ele><time>2026-09-26T22:04:34.000Z</time></trkpt>
    <trkpt lat="14.645160" lon="121.043696"><ele>22.3</ele><time>2026-09-26T22:04:35.000Z</time></trkpt>
    <trkpt lat="14.645143" lon="121.043717"><ele>22.3</ele><time>2026-09-26T22:04:36.000Z</time></trkpt>
    <trkpt lat="14.645125" lon="121.043736"><ele>22.4</ele><time>2026-09-26T22:04:37.000Z</time></trkpt>
    <trkpt lat="14.645106" lon="121.043755"><ele>22.5</ele><time>2026-09-26T22:04:38.000Z</time></trkpt>
    <trkpt lat="14.645088" lon="121.043775"><ele>22.6</ele><time>2026-09-26T22:04:39.000Z</time></trkpt>
    <trkpt lat="14.645071" lon="121.043795"><ele>22.6</ele><time>2026-09-26T22:04:40.000Z</time></trkpt>
    <trkpt lat="14.645053" lon="121.043816"><ele>22.7</ele><time>2026-09-26T22:04:41.000Z</time></trkpt>
    <trkpt lat="14.645037" lon="121.043834"><ele>22.7</ele><time>2026-09-26T22:04:42.000Z</time></trkpt>
    <trkpt lat="14.645021" lon="121.043853"><ele>22.8</ele><time>2026-09-26T22:04:43.000Z</time></trkpt>
    <trkpt lat="14.645004" lon="121.043872"><ele>22.8</ele><time>2026-09-26T22:04:44.000Z</time></trkpt>
    <trkpt lat="14.644988" lon="121.043892"><ele>22.9</ele><time>2026-09-26T22:04:45.000Z</time></trkpt>
    <trkpt lat="14.644972" lon="121.043912"><ele>22.9</ele><time>2026-09-26T22:04:46.000Z</time></trkpt>
    <trkpt lat="14.644957" lon="121.043932"><ele>22.9</ele><time>2026-09-26T22:04:47.000Z</time></trkpt>
    <trkpt lat="14.644941" lon="121.043954"><ele>23.0</ele><time>2026-09-26T22:04:48.000Z</time></trkpt>
    <trkpt lat="14.644927" lon="121.043973"><ele>23.1</ele><time>2026-09-26T22:04:49.000Z</time></trkpt>
    <trkpt lat="14.644913" lon="121.043993"><ele>23.1</ele><time>2026-09-26T22:04:50.000Z</time></trkpt>
    <trkpt lat="14.644898" lon="121.044015"><ele>23.2</ele><time>2026-09-26T22:04:51.000Z</time></trkpt>
    <trkpt lat="14.644882" lon="121.044037"><ele>23.2</ele><time>2026-09-26T22:04:52.000Z</time></trkpt>
    <trkpt lat="14.644866" lon="121.044060"><ele>23.2</ele><time>2026-09-26T22:04:53.000Z</time></trkpt>
    <trkpt lat="14.644853" lon="121.044081"><ele>23.2</ele><time>2026-09-26T22:04:54.000Z</time></trkpt>
    <trkpt lat="14.644839" lon="121.044103"><ele>23.1</ele><time>2026-09-26T22:04:55.000Z</time></trkpt>
    <trkpt lat="14.644824" lon="121.044126"><ele>23.1</ele><time>2026-09-26T22:04:56.000Z</time></trkpt>
    <trkpt lat="14.644810" lon="121.044149"><ele>23.0</ele><time>2026-09-26T22:04:57.000Z</time></trkpt>
    <trkpt lat="14.644797" lon="121.044172"><ele>22.9</ele><time>2026-09-26T22:04:58.000Z</time></trkpt>
    <trkpt lat="14.644783" lon="121.044194"><ele>22.9</ele><time>2026-09-26T22:04:59.000Z</time></trkpt>
    <trkpt lat="14.644770" lon="121.044216"><ele>22.8</ele><time>2026-09-26T22:05:00.000Z</time></trkpt>
    <trkpt lat="14.644757" lon="121.044238"><ele>22.8</ele><time>2026-09-26T22:05:01.000Z</time></trkpt>
    <trkpt lat="14.644744" lon="121.044261"><ele>22.8</ele><time>2026-09-26T22:05:02.000Z</time></trkpt>
    <trkpt lat="14.644731" lon="121.044284"><ele>22.8</ele><time>2026-09-26T22:05:03.000Z</time></trkpt>
    <trkpt lat="14.644718" lon="121.044306"><ele>22.8</ele><time>2026-09-26T22:05:04.000Z</time></trkpt>
    <trkpt lat="14.644705" lon="121.044329"><ele>22.9</ele><time>2026-09-26T22:05:05.000Z</time></trkpt>
    <trkpt lat="14.644691" lon="121.044350"><ele>22.9</ele><time>2026-09-26T22:05:06.000Z</time></trkpt>
    <trkpt lat="14.644676" lon="121.044372"><ele>23.0</ele><time>2026-09-26T22:05:07.000Z</time></trkpt>
    <trkpt lat="14.644661" lon="121.044395"><ele>23.1</ele><time>2026-09-26T22:05:08.000Z</time></trkpt>
    <trkpt lat="14.644648" lon="121.044417"><ele>23.1</ele><time>2026-09-26T22:05:09.000Z</time></trkpt>
    <trkpt lat="14.644635" lon="121.044437"><ele>23.2</ele><time>2026-09-26T22:05:10.000Z</time></trkpt>
    <trkpt lat="14.644621" lon="121.044460"><ele>23.2</ele><time>2026-09-26T22:05:11.000Z</time></trkpt>
    <trkpt lat="14.644605" lon="121.044483"><ele>23.2</ele><time>2026-09-26T22:05:12.000Z</time></trkpt>
    <trkpt lat="14.644592" lon="121.044504"><ele>23.2</ele><time>2026-09-26T22:05:13.000Z</time></trkpt>
    <trkpt lat="14.644577" lon="121.044527"><ele>23.2</ele><time>2026-09-26T22:05:14.000Z</time></trkpt>
    <trkpt lat="14.644563" lon="121.044548"><ele>23.1</ele><time>2026-09-26T22:05:15.000Z</time></trkpt>
    <trkpt lat="14.644548" lon="121.044571"><ele>23.1</ele><time>2026-09-26T22:05:16.000Z</time></trkpt>
    <trkpt lat="14.644534" lon="121.044594"><ele>23.1</ele><time>2026-09-26T22:05:17.000Z</time></trkpt>
    <trkpt lat="14.644518" lon="121.044617"><ele>23.2</ele><time>2026-09-26T22:05:18.000Z</time></trkpt>
    <trkpt lat="14.644504" lon="121.044638"><ele>23.2</ele><time>2026-09-26T22:05:19.000Z</time></trkpt>
    <trkpt lat="14.644492" lon="121.044659"><ele>23.2</ele><time>2026-09-26T22:05:20.000Z</time></trkpt>
    <trkpt lat="14.644478" lon="121.044680"><ele>23.2</ele><time>2026-09-26T22:05:21.000Z</time></trkpt>
    <trkpt lat="14.644464" lon="121.044703"><ele>23.2</ele><time>2026-09-26T22:05:22.000Z</time></trkpt>
    <trkpt lat="14.644449" lon="121.044725"><ele>23.3</ele><time>2026-09-26T22:05:23.000Z</time></trkpt>
    <trkpt lat="14.644434" lon="121.044747"><ele>23.3</ele><time>2026-09-26T22:05:24.000Z</time></trkpt>
    <trkpt lat="14.644419" lon="121.044768"><ele>23.4</ele><time>2026-09-26T22:05:25.000Z</time></trkpt>
    <trkpt lat="14.644404" lon="121.044789"><ele>23.4</ele><time>2026-09-26T22:05:26.000Z</time></trkpt>
    <trkpt lat="14.644389" lon="121.044809"><ele>23.5</ele><time>2026-09-26T22:05:27.000Z</time></trkpt>
    <trkpt lat="14.644375" lon="121.044830"><ele>23.6</ele><time>2026-09-26T22:05:28.000Z</time></trkpt>
    <trkpt lat="14.644362" lon="121.044850"><ele>23.6</ele><time>2026-09-26T22:05:29.000Z</time></trkpt>
    <trkpt lat="14.644347" lon="121.044873"><ele>23.7</ele><time>2026-09-26T22:05:30.000Z</time></trkpt>
    <trkpt lat="14.644335" lon="121.044894"><ele>23.8</ele><time>2026-09-26T22:05:31.000Z</time></trkpt>
    <trkpt lat="14.644322" lon="121.044916"><ele>23.8</ele><time>2026-09-26T22:05:32.000Z</time></trkpt>
    <trkpt lat="14.644309" lon="121.044940"><ele>23.8</ele><time>2026-09-26T22:05:33.000Z</time></trkpt>
    <trkpt lat="14.644297" lon="121.044961"><ele>23.8</ele><time>2026-09-26T22:05:34.000Z</time></trkpt>
    <trkpt lat="14.644284" lon="121.044985"><ele>23.7</ele><time>2026-09-26T22:05:35.000Z</time></trkpt>
    <trkpt lat="14.644270" lon="121.045010"><ele>23.7</ele><time>2026-09-26T22:05:36.000Z</time></trkpt>
    <trkpt lat="14.644256" lon="121.045033"><ele>23.6</ele><time>2026-09-26T22:05:37.000Z</time></trkpt>
    <trkpt lat="14.644243" lon="121.045055"><ele>23.6</ele><time>2026-09-26T22:05:38.000Z</time></trkpt>
    <trkpt lat="14.644228" lon="121.045078"><ele>23.5</ele><time>2026-09-26T22:05:39.000Z</time></trkpt>
    <trkpt lat="14.644214" lon="121.045100"><ele>23.6</ele><time>2026-09-26T22:05:40.000Z</time></trkpt>
    <trkpt lat="14.644198" lon="121.045122"><ele>23.6</ele><time>2026-09-26T22:05:41.000Z</time></trkpt>
    <trkpt lat="14.644184" lon="121.045144"><ele>23.6</ele><time>2026-09-26T22:05:42.000Z</time></trkpt>
    <trkpt lat="14.644171" lon="121.045164"><ele>23.5</ele><time>2026-09-26T22:05:43.000Z</time></trkpt>
    <trkpt lat="14.644157" lon="121.045185"><ele>23.5</ele><time>2026-09-26T22:05:44.000Z</time></trkpt>
    <trkpt lat="14.644143" lon="121.045207"><ele>23.4</ele><time>2026-09-26T22:05:45.000Z</time></trkpt>
    <trkpt lat="14.644128" lon="121.045227"><ele>23.4</ele><time>2026-09-26T22:05:46.000Z</time></trkpt>
    <trkpt lat="14.644112" lon="121.045249"><ele>23.4</ele><time>2026-09-26T22:05:47.000Z</time></trkpt>
    <trkpt lat="14.644098" lon="121.045268"><ele>23.4</ele><time>2026-09-26T22:05:48.000Z</time></trkpt>
    <trkpt lat="14.644083" lon="121.045286"><ele>23.4</ele><time>2026-09-26T22:05:49.000Z</time></trkpt>
    <trkpt lat="14.644068" lon="121.045305"><ele>23.5</ele><time>2026-09-26T22:05:50.000Z</time></trkpt>
    <trkpt lat="14.644051" lon="121.045323"><ele>23.6</ele><time>2026-09-26T22:05:51.000Z</time></trkpt>
    <trkpt lat="14.644034" lon="121.045344"><ele>23.7</ele><time>2026-09-26T22:05:52.000Z</time></trkpt>
    <trkpt lat="14.644018" lon="121.045365"><ele>23.7</ele><time>2026-09-26T22:05:53.000Z</time></trkpt>
    <trkpt lat="14.644002" lon="121.045384"><ele>23.8</ele><time>2026-09-26T22:05:54.000Z</time></trkpt>
    <trkpt lat="14.643985" lon="121.045404"><ele>23.9</ele><time>2026-09-26T22:05:55.000Z</time></trkpt>
    <trkpt lat="14.643968" lon="121.045424"><ele>24.0</ele><time>2026-09-26T22:05:56.000Z</time></trkpt>
    <trkpt lat="14.643951" lon="121.045445"><ele>24.0</ele><time>2026-09-26T22:05:57.000Z</time></trkpt>
    <trkpt lat="14.643934" lon="121.045466"><ele>24.1</ele><time>2026-09-26T22:05:58.000Z</time></trkpt>
    <trkpt lat="14.643918" lon="121.045487"><ele>24.3</ele><time>2026-09-26T22:05:59.000Z</time></trkpt>
    <trkpt lat="14.643903" lon="121.045508"><ele>24.4</ele><time>2026-09-26T22:06:00.000Z</time></trkpt>
    <trkpt lat="14.643888" lon="121.045528"><ele>24.5</ele><time>2026-09-26T22:06:01.000Z</time></trkpt>
    <trkpt lat="14.643872" lon="121.045550"><ele>24.7</ele><time>2026-09-26T22:06:02.000Z</time></trkpt>
    <trkpt lat="14.643857" lon="121.045569"><ele>24.9</ele><time>2026-09-26T22:06:03.000Z</time></trkpt>
    <trkpt lat="14.643840" lon="121.045589"><ele>25.0</ele><time>2026-09-26T22:06:04.000Z</time></trkpt>
    <trkpt lat="14.643825" lon="121.045608"><ele>25.0</ele><time>2026-09-26T22:06:05.000Z</time></trkpt>
    <trkpt lat="14.643810" lon="121.045628"><ele>25.1</ele><time>2026-09-26T22:06:06.000Z</time></trkpt>
    <trkpt lat="14.643796" lon="121.045647"><ele>25.1</ele><time>2026-09-26T22:06:07.000Z</time></trkpt>
    <trkpt lat="14.643781" lon="121.045668"><ele>25.2</ele><time>2026-09-26T22:06:08.000Z</time></trkpt>
    <trkpt lat="14.643766" lon="121.045687"><ele>25.3</ele><time>2026-09-26T22:06:09.000Z</time></trkpt>
    <trkpt lat="14.643751" lon="121.045707"><ele>25.4</ele><time>2026-09-26T22:06:10.000Z</time></trkpt>
    <trkpt lat="14.643735" lon="121.045729"><ele>25.5</ele><time>2026-09-26T22:06:11.000Z</time></trkpt>
    <trkpt lat="14.643719" lon="121.045749"><ele>25.6</ele><time>2026-09-26T22:06:12.000Z</time></trkpt>
    <trkpt lat="14.643703" lon="121.045770"><ele>25.7</ele><time>2026-09-26T22:06:13.000Z</time></trkpt>
    <trkpt lat="14.643689" lon="121.045791"><ele>25.7</ele><time>2026-09-26T22:06:14.000Z</time></trkpt>
    <trkpt lat="14.643675" lon="121.045810"><ele>25.7</ele><time>2026-09-26T22:06:15.000Z</time></trkpt>
    <trkpt lat="14.643660" lon="121.045831"><ele>25.7</ele><time>2026-09-26T22:06:16.000Z</time></trkpt>
    <trkpt lat="14.643646" lon="121.045851"><ele>25.8</ele><time>2026-09-26T22:06:17.000Z</time></trkpt>
    <trkpt lat="14.643632" lon="121.045872"><ele>25.8</ele><time>2026-09-26T22:06:18.000Z</time></trkpt>
    <trkpt lat="14.643618" lon="121.045892"><ele>25.8</ele><time>2026-09-26T22:06:19.000Z</time></trkpt>
    <trkpt lat="14.643603" lon="121.045913"><ele>25.8</ele><time>2026-09-26T22:06:20.000Z</time></trkpt>
    <trkpt lat="14.643590" lon="121.045933"><ele>25.8</ele><time>2026-09-26T22:06:21.000Z</time></trkpt>
    <trkpt lat="14.643576" lon="121.045953"><ele>25.8</ele><time>2026-09-26T22:06:22.000Z</time></trkpt>
    <trkpt lat="14.643561" lon="121.045974"><ele>25.8</ele><time>2026-09-26T22:06:23.000Z</time></trkpt>
    <trkpt lat="14.643547" lon="121.045994"><ele>25.8</ele><time>2026-09-26T22:06:24.000Z</time></trkpt>
    <trkpt lat="14.643533" lon="121.046014"><ele>25.8</ele><time>2026-09-26T22:06:25.000Z</time></trkpt>
    <trkpt lat="14.643520" lon="121.046035"><ele>25.9</ele><time>2026-09-26T22:06:26.000Z</time></trkpt>
    <trkpt lat="14.643506" lon="121.046057"><ele>25.9</ele><time>2026-09-26T22:06:27.000Z</time></trkpt>
    <trkpt lat="14.643492" lon="121.046077"><ele>26.0</ele><time>2026-09-26T22:06:28.000Z</time></trkpt>
    <trkpt lat="14.643475" lon="121.046098"><ele>26.0</ele><time>2026-09-26T22:06:29.000Z</time></trkpt>
    <trkpt lat="14.643459" lon="121.046120"><ele>26.1</ele><time>2026-09-26T22:06:30.000Z</time></trkpt>
    <trkpt lat="14.643443" lon="121.046142"><ele>26.2</ele><time>2026-09-26T22:06:31.000Z</time></trkpt>
    <trkpt lat="14.643428" lon="121.046165"><ele>26.2</ele><time>2026-09-26T22:06:32.000Z</time></trkpt>
    <trkpt lat="14.643413" lon="121.046187"><ele>26.3</ele><time>2026-09-26T22:06:33.000Z</time></trkpt>
    <trkpt lat="14.643398" lon="121.046207"><ele>26.3</ele><time>2026-09-26T22:06:34.000Z</time></trkpt>
    <trkpt lat="14.643384" lon="121.046227"><ele>26.3</ele><time>2026-09-26T22:06:35.000Z</time></trkpt>
    <trkpt lat="14.643369" lon="121.046247"><ele>26.3</ele><time>2026-09-26T22:06:36.000Z</time></trkpt>
    <trkpt lat="14.643354" lon="121.046268"><ele>26.3</ele><time>2026-09-26T22:06:37.000Z</time></trkpt>
    <trkpt lat="14.643340" lon="121.046288"><ele>26.2</ele><time>2026-09-26T22:06:38.000Z</time></trkpt>
    <trkpt lat="14.643324" lon="121.046309"><ele>26.2</ele><time>2026-09-26T22:06:39.000Z</time></trkpt>
    <trkpt lat="14.643309" lon="121.046329"><ele>26.2</ele><time>2026-09-26T22:06:40.000Z</time></trkpt>
    <trkpt lat="14.643293" lon="121.046348"><ele>26.2</ele><time>2026-09-26T22:06:41.000Z</time></trkpt>
    <trkpt lat="14.643275" lon="121.046369"><ele>26.2</ele><time>2026-09-26T22:06:42.000Z</time></trkpt>
    <trkpt lat="14.643259" lon="121.046389"><ele>26.1</ele><time>2026-09-26T22:06:43.000Z</time></trkpt>
    <trkpt lat="14.643243" lon="121.046408"><ele>26.1</ele><time>2026-09-26T22:06:44.000Z</time></trkpt>
    <trkpt lat="14.643227" lon="121.046428"><ele>26.1</ele><time>2026-09-26T22:06:45.000Z</time></trkpt>
    <trkpt lat="14.643213" lon="121.046448"><ele>26.2</ele><time>2026-09-26T22:06:46.000Z</time></trkpt>
    <trkpt lat="14.643198" lon="121.046468"><ele>26.2</ele><time>2026-09-26T22:06:47.000Z</time></trkpt>
    <trkpt lat="14.643183" lon="121.046489"><ele>26.3</ele><time>2026-09-26T22:06:48.000Z</time></trkpt>
    <trkpt lat="14.643169" lon="121.046511"><ele>26.4</ele><time>2026-09-26T22:06:49.000Z</time></trkpt>
    <trkpt lat="14.643154" lon="121.046533"><ele>26.5</ele><time>2026-09-26T22:06:50.000Z</time></trkpt>
    <trkpt lat="14.643140" lon="121.046553"><ele>26.6</ele><time>2026-09-26T22:06:51.000Z</time></trkpt>
    <trkpt lat="14.643126" lon="121.046572"><ele>26.7</ele><time>2026-09-26T22:06:52.000Z</time></trkpt>
    <trkpt lat="14.643112" lon="121.046593"><ele>26.8</ele><time>2026-09-26T22:06:53.000Z</time></trkpt>
    <trkpt lat="14.643097" lon="121.046613"><ele>26.9</ele><time>2026-09-26T22:06:54.000Z</time></trkpt>
    <trkpt lat="14.643083" lon="121.046633"><ele>27.0</ele><time>2026-09-26T22:06:55.000Z</time></trkpt>
    <trkpt lat="14.643070" lon="121.046654"><ele>27.1</ele><time>2026-09-26T22:06:56.000Z</time></trkpt>
    <trkpt lat="14.643056" lon="121.046673"><ele>27.2</ele><time>2026-09-26T22:06:57.000Z</time></trkpt>
    <trkpt lat="14.643041" lon="121.046696"><ele>27.2</ele><time>2026-09-26T22:06:58.000Z</time></trkpt>
    <trkpt lat="14.643027" lon="121.046716"><ele>27.3</ele><time>2026-09-26T22:06:59.000Z</time></trkpt>
    <trkpt lat="14.643014" lon="121.046737"><ele>27.4</ele><time>2026-09-26T22:07:00.000Z</time></trkpt>
    <trkpt lat="14.643002" lon="121.046758"><ele>27.4</ele><time>2026-09-26T22:07:01.000Z</time></trkpt>
    <trkpt lat="14.642988" lon="121.046779"><ele>27.4</ele><time>2026-09-26T22:07:02.000Z</time></trkpt>
    <trkpt lat="14.642974" lon="121.046800"><ele>27.4</ele><time>2026-09-26T22:07:03.000Z</time></trkpt>
    <trkpt lat="14.642960" lon="121.046821"><ele>27.4</ele><time>2026-09-26T22:07:04.000Z</time></trkpt>
    <trkpt lat="14.642945" lon="121.046844"><ele>27.4</ele><time>2026-09-26T22:07:05.000Z</time></trkpt>
    <trkpt lat="14.642932" lon="121.046864"><ele>27.4</ele><time>2026-09-26T22:07:06.000Z</time></trkpt>
    <trkpt lat="14.642919" lon="121.046884"><ele>27.4</ele><time>2026-09-26T22:07:07.000Z</time></trkpt>
    <trkpt lat="14.642905" lon="121.046905"><ele>27.5</ele><time>2026-09-26T22:07:08.000Z</time></trkpt>
    <trkpt lat="14.642891" lon="121.046926"><ele>27.5</ele><time>2026-09-26T22:07:09.000Z</time></trkpt>
    <trkpt lat="14.642877" lon="121.046950"><ele>27.5</ele><time>2026-09-26T22:07:10.000Z</time></trkpt>
    <trkpt lat="14.642863" lon="121.046972"><ele>27.4</ele><time>2026-09-26T22:07:11.000Z</time></trkpt>
    <trkpt lat="14.642849" lon="121.046993"><ele>27.4</ele><time>2026-09-26T22:07:12.000Z</time></trkpt>
    <trkpt lat="14.642836" lon="121.047014"><ele>27.3</ele><time>2026-09-26T22:07:13.000Z</time></trkpt>
    <trkpt lat="14.642822" lon="121.047036"><ele>27.3</ele><time>2026-09-26T22:07:14.000Z</time></trkpt>
    <trkpt lat="14.642808" lon="121.047056"><ele>27.2</ele><time>2026-09-26T22:07:15.000Z</time></trkpt>
    <trkpt lat="14.642794" lon="121.047078"><ele>27.1</ele><time>2026-09-26T22:07:16.000Z</time></trkpt>
    <trkpt lat="14.642780" lon="121.047101"><ele>27.1</ele><time>2026-09-26T22:07:17.000Z</time></trkpt>
    <trkpt lat="14.642766" lon="121.047122"><ele>27.0</ele><time>2026-09-26T22:07:18.000Z</time></trkpt>
    <trkpt lat="14.642751" lon="121.047145"><ele>27.0</ele><time>2026-09-26T22:07:19.000Z</time></trkpt>
    <trkpt lat="14.642738" lon="121.047166"><ele>26.9</ele><time>2026-09-26T22:07:20.000Z</time></trkpt>
    <trkpt lat="14.642724" lon="121.047187"><ele>26.8</ele><time>2026-09-26T22:07:21.000Z</time></trkpt>
    <trkpt lat="14.642710" lon="121.047210"><ele>26.8</ele><time>2026-09-26T22:07:22.000Z</time></trkpt>
    <trkpt lat="14.642697" lon="121.047230"><ele>26.7</ele><time>2026-09-26T22:07:23.000Z</time></trkpt>
    <trkpt lat="14.642683" lon="121.047251"><ele>26.7</ele><time>2026-09-26T22:07:24.000Z</time></trkpt>
    <trkpt lat="14.642669" lon="121.047274"><ele>26.7</ele><time>2026-09-26T22:07:25.000Z</time></trkpt>
    <trkpt lat="14.642656" lon="121.047296"><ele>26.7</ele><time>2026-09-26T22:07:26.000Z</time></trkpt>
    <trkpt lat="14.642642" lon="121.047320"><ele>26.7</ele><time>2026-09-26T22:07:27.000Z</time></trkpt>
    <trkpt lat="14.642629" lon="121.047341"><ele>26.8</ele><time>2026-09-26T22:07:28.000Z</time></trkpt>
    <trkpt lat="14.642617" lon="121.047362"><ele>26.9</ele><time>2026-09-26T22:07:29.000Z</time></trkpt>
    <trkpt lat="14.642603" lon="121.047385"><ele>26.9</ele><time>2026-09-26T22:07:30.000Z</time></trkpt>
    <trkpt lat="14.642589" lon="121.047405"><ele>27.0</ele><time>2026-09-26T22:07:31.000Z</time></trkpt>
    <trkpt lat="14.642575" lon="121.047426"><ele>27.1</ele><time>2026-09-26T22:07:32.000Z</time></trkpt>
    <trkpt lat="14.642562" lon="121.047446"><ele>27.1</ele><time>2026-09-26T22:07:33.000Z</time></trkpt>
    <trkpt lat="14.642547" lon="121.047467"><ele>27.1</ele><time>2026-09-26T22:07:34.000Z</time></trkpt>
    <trkpt lat="14.642531" lon="121.047489"><ele>27.1</ele><time>2026-09-26T22:07:35.000Z</time></trkpt>
    <trkpt lat="14.642514" lon="121.047511"><ele>27.1</ele><time>2026-09-26T22:07:36.000Z</time></trkpt>
    <trkpt lat="14.642499" lon="121.047529"><ele>27.1</ele><time>2026-09-26T22:07:37.000Z</time></trkpt>
    <trkpt lat="14.642481" lon="121.047548"><ele>27.0</ele><time>2026-09-26T22:07:38.000Z</time></trkpt>
    <trkpt lat="14.642465" lon="121.047565"><ele>27.0</ele><time>2026-09-26T22:07:39.000Z</time></trkpt>
    <trkpt lat="14.642448" lon="121.047585"><ele>27.0</ele><time>2026-09-26T22:07:40.000Z</time></trkpt>
    <trkpt lat="14.642430" lon="121.047606"><ele>27.0</ele><time>2026-09-26T22:07:41.000Z</time></trkpt>
    <trkpt lat="14.642413" lon="121.047626"><ele>26.9</ele><time>2026-09-26T22:07:42.000Z</time></trkpt>
    <trkpt lat="14.642396" lon="121.047648"><ele>26.8</ele><time>2026-09-26T22:07:43.000Z</time></trkpt>
    <trkpt lat="14.642381" lon="121.047668"><ele>26.8</ele><time>2026-09-26T22:07:44.000Z</time></trkpt>
    <trkpt lat="14.642366" lon="121.047687"><ele>26.7</ele><time>2026-09-26T22:07:45.000Z</time></trkpt>
    <trkpt lat="14.642349" lon="121.047709"><ele>26.7</ele><time>2026-09-26T22:07:46.000Z</time></trkpt>
    <trkpt lat="14.642332" lon="121.047728"><ele>26.6</ele><time>2026-09-26T22:07:47.000Z</time></trkpt>
    <trkpt lat="14.642314" lon="121.047748"><ele>26.6</ele><time>2026-09-26T22:07:48.000Z</time></trkpt>
    <trkpt lat="14.642297" lon="121.047766"><ele>26.5</ele><time>2026-09-26T22:07:49.000Z</time></trkpt>
    <trkpt lat="14.642281" lon="121.047786"><ele>26.5</ele><time>2026-09-26T22:07:50.000Z</time></trkpt>
    <trkpt lat="14.642264" lon="121.047807"><ele>26.5</ele><time>2026-09-26T22:07:51.000Z</time></trkpt>
    <trkpt lat="14.642249" lon="121.047827"><ele>26.4</ele><time>2026-09-26T22:07:52.000Z</time></trkpt>
    <trkpt lat="14.642232" lon="121.047847"><ele>26.4</ele><time>2026-09-26T22:07:53.000Z</time></trkpt>
    <trkpt lat="14.642216" lon="121.047866"><ele>26.4</ele><time>2026-09-26T22:07:54.000Z</time></trkpt>
    <trkpt lat="14.642200" lon="121.047884"><ele>26.4</ele><time>2026-09-26T22:07:55.000Z</time></trkpt>
    <trkpt lat="14.642182" lon="121.047902"><ele>26.4</ele><time>2026-09-26T22:07:56.000Z</time></trkpt>
    <trkpt lat="14.642165" lon="121.047920"><ele>26.5</ele><time>2026-09-26T22:07:57.000Z</time></trkpt>
    <trkpt lat="14.642149" lon="121.047937"><ele>26.5</ele><time>2026-09-26T22:07:58.000Z</time></trkpt>
    <trkpt lat="14.642130" lon="121.047956"><ele>26.5</ele><time>2026-09-26T22:07:59.000Z</time></trkpt>
    <trkpt lat="14.642112" lon="121.047975"><ele>26.6</ele><time>2026-09-26T22:08:00.000Z</time></trkpt>
    <trkpt lat="14.642093" lon="121.047993"><ele>26.6</ele><time>2026-09-26T22:08:01.000Z</time></trkpt>
    <trkpt lat="14.642075" lon="121.048012"><ele>26.6</ele><time>2026-09-26T22:08:02.000Z</time></trkpt>
    <trkpt lat="14.642055" lon="121.048031"><ele>26.7</ele><time>2026-09-26T22:08:03.000Z</time></trkpt>
    <trkpt lat="14.642036" lon="121.048048"><ele>26.7</ele><time>2026-09-26T22:08:04.000Z</time></trkpt>
    <trkpt lat="14.642017" lon="121.048064"><ele>26.7</ele><time>2026-09-26T22:08:05.000Z</time></trkpt>
    <trkpt lat="14.641997" lon="121.048081"><ele>26.7</ele><time>2026-09-26T22:08:06.000Z</time></trkpt>
    <trkpt lat="14.641978" lon="121.048097"><ele>26.7</ele><time>2026-09-26T22:08:07.000Z</time></trkpt>
    <trkpt lat="14.641959" lon="121.048113"><ele>26.6</ele><time>2026-09-26T22:08:08.000Z</time></trkpt>
    <trkpt lat="14.641940" lon="121.048131"><ele>26.6</ele><time>2026-09-26T22:08:09.000Z</time></trkpt>
    <trkpt lat="14.641922" lon="121.048147"><ele>26.5</ele><time>2026-09-26T22:08:10.000Z</time></trkpt>
    <trkpt lat="14.641901" lon="121.048165"><ele>26.5</ele><time>2026-09-26T22:08:11.000Z</time></trkpt>
    <trkpt lat="14.641881" lon="121.048183"><ele>26.4</ele><time>2026-09-26T22:08:12.000Z</time></trkpt>
    <trkpt lat="14.641863" lon="121.048198"><ele>26.3</ele><time>2026-09-26T22:08:13.000Z</time></trkpt>
    <trkpt lat="14.641843" lon="121.048214"><ele>26.2</ele><time>2026-09-26T22:08:14.000Z</time></trkpt>
    <trkpt lat="14.641825" lon="121.048230"><ele>26.1</ele><time>2026-09-26T22:08:15.000Z</time></trkpt>
    <trkpt lat="14.641807" lon="121.048246"><ele>26.0</ele><time>2026-09-26T22:08:16.000Z</time></trkpt>
    <trkpt lat="14.641789" lon="121.048262"><ele>25.9</ele><time>2026-09-26T22:08:17.000Z</time></trkpt>
    <trkpt lat="14.641770" lon="121.048279"><ele>25.8</ele><time>2026-09-26T22:08:18.000Z</time></trkpt>
    <trkpt lat="14.641749" lon="121.048295"><ele>25.6</ele><time>2026-09-26T22:08:19.000Z</time></trkpt>
    <trkpt lat="14.641728" lon="121.048312"><ele>25.5</ele><time>2026-09-26T22:08:20.000Z</time></trkpt>
    <trkpt lat="14.641710" lon="121.048328"><ele>25.4</ele><time>2026-09-26T22:08:21.000Z</time></trkpt>
    <trkpt lat="14.641692" lon="121.048344"><ele>25.3</ele><time>2026-09-26T22:08:22.000Z</time></trkpt>
    <trkpt lat="14.641674" lon="121.048360"><ele>25.2</ele><time>2026-09-26T22:08:23.000Z</time></trkpt>
    <trkpt lat="14.641654" lon="121.048377"><ele>25.1</ele><time>2026-09-26T22:08:24.000Z</time></trkpt>
    <trkpt lat="14.641633" lon="121.048395"><ele>25.0</ele><time>2026-09-26T22:08:25.000Z</time></trkpt>
    <trkpt lat="14.641613" lon="121.048411"><ele>25.0</ele><time>2026-09-26T22:08:26.000Z</time></trkpt>
    <trkpt lat="14.641592" lon="121.048428"><ele>24.9</ele><time>2026-09-26T22:08:27.000Z</time></trkpt>
    <trkpt lat="14.641574" lon="121.048443"><ele>24.8</ele><time>2026-09-26T22:08:28.000Z</time></trkpt>
    <trkpt lat="14.641552" lon="121.048459"><ele>24.7</ele><time>2026-09-26T22:08:29.000Z</time></trkpt>
    <trkpt lat="14.641533" lon="121.048473"><ele>24.6</ele><time>2026-09-26T22:08:30.000Z</time></trkpt>
    <trkpt lat="14.641511" lon="121.048489"><ele>24.6</ele><time>2026-09-26T22:08:31.000Z</time></trkpt>
    <trkpt lat="14.641490" lon="121.048504"><ele>24.6</ele><time>2026-09-26T22:08:32.000Z</time></trkpt>
    <trkpt lat="14.641470" lon="121.048519"><ele>24.5</ele><time>2026-09-26T22:08:33.000Z</time></trkpt>
    <trkpt lat="14.641449" lon="121.048532"><ele>24.5</ele><time>2026-09-26T22:08:34.000Z</time></trkpt>
    <trkpt lat="14.641428" lon="121.048547"><ele>24.4</ele><time>2026-09-26T22:08:35.000Z</time></trkpt>
    <trkpt lat="14.641408" lon="121.048560"><ele>24.4</ele><time>2026-09-26T22:08:36.000Z</time></trkpt>
    <trkpt lat="14.641385" lon="121.048574"><ele>24.3</ele><time>2026-09-26T22:08:37.000Z</time></trkpt>
    <trkpt lat="14.641363" lon="121.048588"><ele>24.3</ele><time>2026-09-26T22:08:38.000Z</time></trkpt>
    <trkpt lat="14.641342" lon="121.048601"><ele>24.3</ele><time>2026-09-26T22:08:39.000Z</time></trkpt>
    <trkpt lat="14.641321" lon="121.048614"><ele>24.3</ele><time>2026-09-26T22:08:40.000Z</time></trkpt>
    <trkpt lat="14.641300" lon="121.048626"><ele>24.3</ele><time>2026-09-26T22:08:41.000Z</time></trkpt>
    <trkpt lat="14.641276" lon="121.048640"><ele>24.2</ele><time>2026-09-26T22:08:42.000Z</time></trkpt>
    <trkpt lat="14.641255" lon="121.048653"><ele>24.2</ele><time>2026-09-26T22:08:43.000Z</time></trkpt>
    <trkpt lat="14.641234" lon="121.048665"><ele>24.1</ele><time>2026-09-26T22:08:44.000Z</time></trkpt>
    <trkpt lat="14.641212" lon="121.048679"><ele>24.1</ele><time>2026-09-26T22:08:45.000Z</time></trkpt>
    <trkpt lat="14.641190" lon="121.048692"><ele>24.1</ele><time>2026-09-26T22:08:46.000Z</time></trkpt>
    <trkpt lat="14.641169" lon="121.048707"><ele>24.0</ele><time>2026-09-26T22:08:47.000Z</time></trkpt>
    <trkpt lat="14.641146" lon="121.048721"><ele>24.0</ele><time>2026-09-26T22:08:48.000Z</time></trkpt>
    <trkpt lat="14.641123" lon="121.048735"><ele>23.9</ele><time>2026-09-26T22:08:49.000Z</time></trkpt>
    <trkpt lat="14.641102" lon="121.048747"><ele>23.7</ele><time>2026-09-26T22:08:50.000Z</time></trkpt>
    <trkpt lat="14.641080" lon="121.048761"><ele>23.6</ele><time>2026-09-26T22:08:51.000Z</time></trkpt>
    <trkpt lat="14.641059" lon="121.048774"><ele>23.6</ele><time>2026-09-26T22:08:52.000Z</time></trkpt>
    <trkpt lat="14.641039" lon="121.048787"><ele>23.6</ele><time>2026-09-26T22:08:53.000Z</time></trkpt>
    <trkpt lat="14.641016" lon="121.048802"><ele>23.5</ele><time>2026-09-26T22:08:54.000Z</time></trkpt>
    <trkpt lat="14.640995" lon="121.048816"><ele>23.5</ele><time>2026-09-26T22:08:55.000Z</time></trkpt>
    <trkpt lat="14.640975" lon="121.048831"><ele>23.5</ele><time>2026-09-26T22:08:56.000Z</time></trkpt>
    <trkpt lat="14.640955" lon="121.048844"><ele>23.4</ele><time>2026-09-26T22:08:57.000Z</time></trkpt>
    <trkpt lat="14.640935" lon="121.048857"><ele>23.4</ele><time>2026-09-26T22:08:58.000Z</time></trkpt>
    <trkpt lat="14.640916" lon="121.048871"><ele>23.4</ele><time>2026-09-26T22:08:59.000Z</time></trkpt>
    <trkpt lat="14.640897" lon="121.048886"><ele>23.5</ele><time>2026-09-26T22:09:00.000Z</time></trkpt>
    <trkpt lat="14.640876" lon="121.048900"><ele>23.5</ele><time>2026-09-26T22:09:01.000Z</time></trkpt>
    <trkpt lat="14.640853" lon="121.048915"><ele>23.5</ele><time>2026-09-26T22:09:02.000Z</time></trkpt>
    <trkpt lat="14.640833" lon="121.048928"><ele>23.5</ele><time>2026-09-26T22:09:03.000Z</time></trkpt>
    <trkpt lat="14.640811" lon="121.048942"><ele>23.5</ele><time>2026-09-26T22:09:04.000Z</time></trkpt>
    <trkpt lat="14.640790" lon="121.048954"><ele>23.6</ele><time>2026-09-26T22:09:05.000Z</time></trkpt>
    <trkpt lat="14.640770" lon="121.048967"><ele>23.6</ele><time>2026-09-26T22:09:06.000Z</time></trkpt>
    <trkpt lat="14.640750" lon="121.048979"><ele>23.6</ele><time>2026-09-26T22:09:07.000Z</time></trkpt>
    <trkpt lat="14.640727" lon="121.048992"><ele>23.6</ele><time>2026-09-26T22:09:08.000Z</time></trkpt>
    <trkpt lat="14.640706" lon="121.049004"><ele>23.5</ele><time>2026-09-26T22:09:09.000Z</time></trkpt>
    <trkpt lat="14.640684" lon="121.049017"><ele>23.5</ele><time>2026-09-26T22:09:10.000Z</time></trkpt>
    <trkpt lat="14.640664" lon="121.049030"><ele>23.4</ele><time>2026-09-26T22:09:11.000Z</time></trkpt>
    <trkpt lat="14.640643" lon="121.049043"><ele>23.5</ele><time>2026-09-26T22:09:12.000Z</time></trkpt>
    <trkpt lat="14.640620" lon="121.049058"><ele>23.5</ele><time>2026-09-26T22:09:13.000Z</time></trkpt>
    <trkpt lat="14.640600" lon="121.049071"><ele>23.5</ele><time>2026-09-26T22:09:14.000Z</time></trkpt>
    <trkpt lat="14.640580" lon="121.049085"><ele>23.5</ele><time>2026-09-26T22:09:15.000Z</time></trkpt>
    <trkpt lat="14.640556" lon="121.049100"><ele>23.5</ele><time>2026-09-26T22:09:16.000Z</time></trkpt>
    <trkpt lat="14.640534" lon="121.049114"><ele>23.5</ele><time>2026-09-26T22:09:17.000Z</time></trkpt>
    <trkpt lat="14.640514" lon="121.049127"><ele>23.4</ele><time>2026-09-26T22:09:18.000Z</time></trkpt>
    <trkpt lat="14.640493" lon="121.049140"><ele>23.4</ele><time>2026-09-26T22:09:19.000Z</time></trkpt>
    <trkpt lat="14.640473" lon="121.049153"><ele>23.3</ele><time>2026-09-26T22:09:20.000Z</time></trkpt>
    <trkpt lat="14.640450" lon="121.049166"><ele>23.3</ele><time>2026-09-26T22:09:21.000Z</time></trkpt>
    <trkpt lat="14.640427" lon="121.049181"><ele>23.3</ele><time>2026-09-26T22:09:22.000Z</time></trkpt>
    <trkpt lat="14.640404" lon="121.049194"><ele>23.3</ele><time>2026-09-26T22:09:23.000Z</time></trkpt>
    <trkpt lat="14.640381" lon="121.049209"><ele>23.4</ele><time>2026-09-26T22:09:24.000Z</time></trkpt>
    <trkpt lat="14.640360" lon="121.049222"><ele>23.5</ele><time>2026-09-26T22:09:25.000Z</time></trkpt>
    <trkpt lat="14.640337" lon="121.049234"><ele>23.6</ele><time>2026-09-26T22:09:26.000Z</time></trkpt>
    <trkpt lat="14.640315" lon="121.049248"><ele>23.7</ele><time>2026-09-26T22:09:27.000Z</time></trkpt>
    <trkpt lat="14.640294" lon="121.049261"><ele>23.8</ele><time>2026-09-26T22:09:28.000Z</time></trkpt>
    <trkpt lat="14.640273" lon="121.049275"><ele>24.0</ele><time>2026-09-26T22:09:29.000Z</time></trkpt>
    <trkpt lat="14.640251" lon="121.049288"><ele>24.1</ele><time>2026-09-26T22:09:30.000Z</time></trkpt>
    <trkpt lat="14.640227" lon="121.049301"><ele>24.3</ele><time>2026-09-26T22:09:31.000Z</time></trkpt>
    <trkpt lat="14.640203" lon="121.049313"><ele>24.4</ele><time>2026-09-26T22:09:32.000Z</time></trkpt>
    <trkpt lat="14.640179" lon="121.049324"><ele>24.5</ele><time>2026-09-26T22:09:33.000Z</time></trkpt>
    <trkpt lat="14.640158" lon="121.049334"><ele>24.6</ele><time>2026-09-26T22:09:34.000Z</time></trkpt>
    <trkpt lat="14.640136" lon="121.049347"><ele>24.7</ele><time>2026-09-26T22:09:35.000Z</time></trkpt>
    <trkpt lat="14.640114" lon="121.049359"><ele>24.7</ele><time>2026-09-26T22:09:36.000Z</time></trkpt>
    <trkpt lat="14.640091" lon="121.049372"><ele>24.8</ele><time>2026-09-26T22:09:37.000Z</time></trkpt>
    <trkpt lat="14.640068" lon="121.049385"><ele>24.8</ele><time>2026-09-26T22:09:38.000Z</time></trkpt>
    <trkpt lat="14.640046" lon="121.049398"><ele>24.9</ele><time>2026-09-26T22:09:39.000Z</time></trkpt>
    <trkpt lat="14.640022" lon="121.049411"><ele>25.0</ele><time>2026-09-26T22:09:40.000Z</time></trkpt>
    <trkpt lat="14.640002" lon="121.049422"><ele>25.0</ele><time>2026-09-26T22:09:41.000Z</time></trkpt>
    <trkpt lat="14.639978" lon="121.049434"><ele>25.1</ele><time>2026-09-26T22:09:42.000Z</time></trkpt>
    <trkpt lat="14.639954" lon="121.049446"><ele>25.1</ele><time>2026-09-26T22:09:43.000Z</time></trkpt>
    <trkpt lat="14.639933" lon="121.049457"><ele>25.1</ele><time>2026-09-26T22:09:44.000Z</time></trkpt>
    <trkpt lat="14.639909" lon="121.049469"><ele>25.1</ele><time>2026-09-26T22:09:45.000Z</time></trkpt>
    <trkpt lat="14.639886" lon="121.049481"><ele>25.1</ele><time>2026-09-26T22:09:46.000Z</time></trkpt>
    <trkpt lat="14.639863" lon="121.049492"><ele>25.1</ele><time>2026-09-26T22:09:47.000Z</time></trkpt>
    <trkpt lat="14.639841" lon="121.049504"><ele>25.0</ele><time>2026-09-26T22:09:48.000Z</time></trkpt>
    <trkpt lat="14.639819" lon="121.049515"><ele>24.9</ele><time>2026-09-26T22:09:49.000Z</time></trkpt>
    <trkpt lat="14.639797" lon="121.049526"><ele>24.8</ele><time>2026-09-26T22:09:50.000Z</time></trkpt>
    <trkpt lat="14.639775" lon="121.049539"><ele>24.6</ele><time>2026-09-26T22:09:51.000Z</time></trkpt>
    <trkpt lat="14.639753" lon="121.049552"><ele>24.5</ele><time>2026-09-26T22:09:52.000Z</time></trkpt>
    <trkpt lat="14.639731" lon="121.049563"><ele>24.4</ele><time>2026-09-26T22:09:53.000Z</time></trkpt>
    <trkpt lat="14.639707" lon="121.049575"><ele>24.3</ele><time>2026-09-26T22:09:54.000Z</time></trkpt>
    <trkpt lat="14.639683" lon="121.049588"><ele>24.2</ele><time>2026-09-26T22:09:55.000Z</time></trkpt>
    <trkpt lat="14.639663" lon="121.049600"><ele>24.2</ele><time>2026-09-26T22:09:56.000Z</time></trkpt>
    <trkpt lat="14.639640" lon="121.049613"><ele>24.1</ele><time>2026-09-26T22:09:57.000Z</time></trkpt>
    <trkpt lat="14.639619" lon="121.049626"><ele>24.1</ele><time>2026-09-26T22:09:58.000Z</time></trkpt>
    <trkpt lat="14.639597" lon="121.049639"><ele>24.0</ele><time>2026-09-26T22:09:59.000Z</time></trkpt>
    <trkpt lat="14.639576" lon="121.049651"><ele>24.0</ele><time>2026-09-26T22:10:00.000Z</time></trkpt>
    <trkpt lat="14.639553" lon="121.049664"><ele>24.0</ele><time>2026-09-26T22:10:01.000Z</time></trkpt>
    <trkpt lat="14.639532" lon="121.049675"><ele>24.0</ele><time>2026-09-26T22:10:02.000Z</time></trkpt>
    <trkpt lat="14.639511" lon="121.049687"><ele>24.0</ele><time>2026-09-26T22:10:03.000Z</time></trkpt>
    <trkpt lat="14.639490" lon="121.049698"><ele>24.0</ele><time>2026-09-26T22:10:04.000Z</time></trkpt>
    <trkpt lat="14.639467" lon="121.049709"><ele>24.0</ele><time>2026-09-26T22:10:05.000Z</time></trkpt>
    <trkpt lat="14.639445" lon="121.049720"><ele>23.9</ele><time>2026-09-26T22:10:06.000Z</time></trkpt>
    <trkpt lat="14.639423" lon="121.049730"><ele>23.9</ele><time>2026-09-26T22:10:07.000Z</time></trkpt>
    <trkpt lat="14.639400" lon="121.049742"><ele>23.8</ele><time>2026-09-26T22:10:08.000Z</time></trkpt>
    <trkpt lat="14.639379" lon="121.049753"><ele>23.8</ele><time>2026-09-26T22:10:09.000Z</time></trkpt>
    <trkpt lat="14.639358" lon="121.049765"><ele>23.7</ele><time>2026-09-26T22:10:10.000Z</time></trkpt>
    <trkpt lat="14.639334" lon="121.049778"><ele>23.7</ele><time>2026-09-26T22:10:11.000Z</time></trkpt>
    <trkpt lat="14.639310" lon="121.049791"><ele>23.6</ele><time>2026-09-26T22:10:12.000Z</time></trkpt>
    <trkpt lat="14.639288" lon="121.049803"><ele>23.6</ele><time>2026-09-26T22:10:13.000Z</time></trkpt>
    <trkpt lat="14.639267" lon="121.049815"><ele>23.6</ele><time>2026-09-26T22:10:14.000Z</time></trkpt>
    <trkpt lat="14.639244" lon="121.049827"><ele>23.6</ele><time>2026-09-26T22:10:15.000Z</time></trkpt>
    <trkpt lat="14.639221" lon="121.049839"><ele>23.6</ele><time>2026-09-26T22:10:16.000Z</time></trkpt>
    <trkpt lat="14.639200" lon="121.049852"><ele>23.6</ele><time>2026-09-26T22:10:17.000Z</time></trkpt>
    <trkpt lat="14.639178" lon="121.049863"><ele>23.5</ele><time>2026-09-26T22:10:18.000Z</time></trkpt>
    <trkpt lat="14.639158" lon="121.049874"><ele>23.4</ele><time>2026-09-26T22:10:19.000Z</time></trkpt>
    <trkpt lat="14.639135" lon="121.049887"><ele>23.4</ele><time>2026-09-26T22:10:20.000Z</time></trkpt>
    <trkpt lat="14.639114" lon="121.049900"><ele>23.3</ele><time>2026-09-26T22:10:21.000Z</time></trkpt>
    <trkpt lat="14.639091" lon="121.049913"><ele>23.1</ele><time>2026-09-26T22:10:22.000Z</time></trkpt>
    <trkpt lat="14.639069" lon="121.049926"><ele>23.1</ele><time>2026-09-26T22:10:23.000Z</time></trkpt>
    <trkpt lat="14.639046" lon="121.049940"><ele>23.0</ele><time>2026-09-26T22:10:24.000Z</time></trkpt>
    <trkpt lat="14.639024" lon="121.049953"><ele>22.9</ele><time>2026-09-26T22:10:25.000Z</time></trkpt>
    <trkpt lat="14.639004" lon="121.049966"><ele>22.8</ele><time>2026-09-26T22:10:26.000Z</time></trkpt>
    <trkpt lat="14.638983" lon="121.049978"><ele>22.7</ele><time>2026-09-26T22:10:27.000Z</time></trkpt>
    <trkpt lat="14.638961" lon="121.049992"><ele>22.6</ele><time>2026-09-26T22:10:28.000Z</time></trkpt>
    <trkpt lat="14.638939" lon="121.050006"><ele>22.5</ele><time>2026-09-26T22:10:29.000Z</time></trkpt>
    <trkpt lat="14.638918" lon="121.050018"><ele>22.3</ele><time>2026-09-26T22:10:30.000Z</time></trkpt>
    <trkpt lat="14.638897" lon="121.050031"><ele>22.2</ele><time>2026-09-26T22:10:31.000Z</time></trkpt>
    <trkpt lat="14.638874" lon="121.050044"><ele>22.1</ele><time>2026-09-26T22:10:32.000Z</time></trkpt>
    <trkpt lat="14.638853" lon="121.050056"><ele>22.0</ele><time>2026-09-26T22:10:33.000Z</time></trkpt>
    <trkpt lat="14.638830" lon="121.050071"><ele>21.9</ele><time>2026-09-26T22:10:34.000Z</time></trkpt>
    <trkpt lat="14.638807" lon="121.050085"><ele>21.8</ele><time>2026-09-26T22:10:35.000Z</time></trkpt>
    <trkpt lat="14.638786" lon="121.050097"><ele>21.7</ele><time>2026-09-26T22:10:36.000Z</time></trkpt>
    <trkpt lat="14.638763" lon="121.050112"><ele>21.6</ele><time>2026-09-26T22:10:37.000Z</time></trkpt>
    <trkpt lat="14.638744" lon="121.050125"><ele>21.5</ele><time>2026-09-26T22:10:38.000Z</time></trkpt>
    <trkpt lat="14.638724" lon="121.050138"><ele>21.4</ele><time>2026-09-26T22:10:39.000Z</time></trkpt>
    <trkpt lat="14.638702" lon="121.050153"><ele>21.4</ele><time>2026-09-26T22:10:40.000Z</time></trkpt>
    <trkpt lat="14.638682" lon="121.050166"><ele>21.3</ele><time>2026-09-26T22:10:41.000Z</time></trkpt>
    <trkpt lat="14.638662" lon="121.050179"><ele>21.3</ele><time>2026-09-26T22:10:42.000Z</time></trkpt>
    <trkpt lat="14.638640" lon="121.050193"><ele>21.2</ele><time>2026-09-26T22:10:43.000Z</time></trkpt>
    <trkpt lat="14.638617" lon="121.050208"><ele>21.2</ele><time>2026-09-26T22:10:44.000Z</time></trkpt>
    <trkpt lat="14.638597" lon="121.050221"><ele>21.2</ele><time>2026-09-26T22:10:45.000Z</time></trkpt>
    <trkpt lat="14.638574" lon="121.050235"><ele>21.2</ele><time>2026-09-26T22:10:46.000Z</time></trkpt>
    <trkpt lat="14.638553" lon="121.050247"><ele>21.2</ele><time>2026-09-26T22:10:47.000Z</time></trkpt>
    <trkpt lat="14.638531" lon="121.050261"><ele>21.2</ele><time>2026-09-26T22:10:48.000Z</time></trkpt>
    <trkpt lat="14.638511" lon="121.050274"><ele>21.1</ele><time>2026-09-26T22:10:49.000Z</time></trkpt>
    <trkpt lat="14.638491" lon="121.050287"><ele>21.0</ele><time>2026-09-26T22:10:50.000Z</time></trkpt>
    <trkpt lat="14.638472" lon="121.050302"><ele>21.0</ele><time>2026-09-26T22:10:51.000Z</time></trkpt>
    <trkpt lat="14.638450" lon="121.050318"><ele>20.9</ele><time>2026-09-26T22:10:52.000Z</time></trkpt>
    <trkpt lat="14.638430" lon="121.050334"><ele>20.9</ele><time>2026-09-26T22:10:53.000Z</time></trkpt>
    <trkpt lat="14.638408" lon="121.050351"><ele>20.9</ele><time>2026-09-26T22:10:54.000Z</time></trkpt>
    <trkpt lat="14.638387" lon="121.050366"><ele>20.8</ele><time>2026-09-26T22:10:55.000Z</time></trkpt>
    <trkpt lat="14.638368" lon="121.050381"><ele>20.7</ele><time>2026-09-26T22:10:56.000Z</time></trkpt>
    <trkpt lat="14.638347" lon="121.050397"><ele>20.6</ele><time>2026-09-26T22:10:57.000Z</time></trkpt>
    <trkpt lat="14.638326" lon="121.050413"><ele>20.5</ele><time>2026-09-26T22:10:58.000Z</time></trkpt>
    <trkpt lat="14.638307" lon="121.050428"><ele>20.3</ele><time>2026-09-26T22:10:59.000Z</time></trkpt>
    <trkpt lat="14.638288" lon="121.050443"><ele>20.3</ele><time>2026-09-26T22:11:00.000Z</time></trkpt>
    <trkpt lat="14.638270" lon="121.050457"><ele>20.2</ele><time>2026-09-26T22:11:01.000Z</time></trkpt>
    <trkpt lat="14.638251" lon="121.050472"><ele>20.1</ele><time>2026-09-26T22:11:02.000Z</time></trkpt>
    <trkpt lat="14.638229" lon="121.050488"><ele>20.0</ele><time>2026-09-26T22:11:03.000Z</time></trkpt>
    <trkpt lat="14.638208" lon="121.050504"><ele>19.9</ele><time>2026-09-26T22:11:04.000Z</time></trkpt>
    <trkpt lat="14.638189" lon="121.050518"><ele>19.7</ele><time>2026-09-26T22:11:05.000Z</time></trkpt>
    <trkpt lat="14.638169" lon="121.050531"><ele>19.6</ele><time>2026-09-26T22:11:06.000Z</time></trkpt>
    <trkpt lat="14.638147" lon="121.050546"><ele>19.5</ele><time>2026-09-26T22:11:07.000Z</time></trkpt>
    <trkpt lat="14.638127" lon="121.050558"><ele>19.3</ele><time>2026-09-26T22:11:08.000Z</time></trkpt>
    <trkpt lat="14.638106" lon="121.050573"><ele>19.3</ele><time>2026-09-26T22:11:09.000Z</time></trkpt>
    <trkpt lat="14.638086" lon="121.050587"><ele>19.2</ele><time>2026-09-26T22:11:10.000Z</time></trkpt>
    <trkpt lat="14.638066" lon="121.050601"><ele>19.0</ele><time>2026-09-26T22:11:11.000Z</time></trkpt>
    <trkpt lat="14.638045" lon="121.050618"><ele>19.0</ele><time>2026-09-26T22:11:12.000Z</time></trkpt>
    <trkpt lat="14.638026" lon="121.050632"><ele>18.9</ele><time>2026-09-26T22:11:13.000Z</time></trkpt>
    <trkpt lat="14.638006" lon="121.050647"><ele>18.9</ele><time>2026-09-26T22:11:14.000Z</time></trkpt>
    <trkpt lat="14.637985" lon="121.050662"><ele>18.8</ele><time>2026-09-26T22:11:15.000Z</time></trkpt>
    <trkpt lat="14.637963" lon="121.050678"><ele>18.8</ele><time>2026-09-26T22:11:16.000Z</time></trkpt>
    <trkpt lat="14.637943" lon="121.050692"><ele>18.9</ele><time>2026-09-26T22:11:17.000Z</time></trkpt>
    <trkpt lat="14.637921" lon="121.050707"><ele>18.9</ele><time>2026-09-26T22:11:18.000Z</time></trkpt>
    <trkpt lat="14.637900" lon="121.050722"><ele>18.9</ele><time>2026-09-26T22:11:19.000Z</time></trkpt>
    <trkpt lat="14.637878" lon="121.050737"><ele>18.9</ele><time>2026-09-26T22:11:20.000Z</time></trkpt>
    <trkpt lat="14.637858" lon="121.050750"><ele>18.9</ele><time>2026-09-26T22:11:21.000Z</time></trkpt>
    <trkpt lat="14.637836" lon="121.050762"><ele>18.9</ele><time>2026-09-26T22:11:22.000Z</time></trkpt>
    <trkpt lat="14.637815" lon="121.050775"><ele>19.0</ele><time>2026-09-26T22:11:23.000Z</time></trkpt>
    <trkpt lat="14.637794" lon="121.050788"><ele>19.0</ele><time>2026-09-26T22:11:24.000Z</time></trkpt>
    <trkpt lat="14.637772" lon="121.050803"><ele>19.0</ele><time>2026-09-26T22:11:25.000Z</time></trkpt>
    <trkpt lat="14.637750" lon="121.050817"><ele>19.0</ele><time>2026-09-26T22:11:26.000Z</time></trkpt>
    <trkpt lat="14.637731" lon="121.050830"><ele>19.0</ele><time>2026-09-26T22:11:27.000Z</time></trkpt>
    <trkpt lat="14.637708" lon="121.050844"><ele>19.1</ele><time>2026-09-26T22:11:28.000Z</time></trkpt>
    <trkpt lat="14.637685" lon="121.050859"><ele>19.1</ele><time>2026-09-26T22:11:29.000Z</time></trkpt>
    <trkpt lat="14.637665" lon="121.050872"><ele>19.2</ele><time>2026-09-26T22:11:30.000Z</time></trkpt>
    <trkpt lat="14.637646" lon="121.050886"><ele>19.3</ele><time>2026-09-26T22:11:31.000Z</time></trkpt>
    <trkpt lat="14.637623" lon="121.050901"><ele>19.3</ele><time>2026-09-26T22:11:32.000Z</time></trkpt>
    <trkpt lat="14.637601" lon="121.050915"><ele>19.3</ele><time>2026-09-26T22:11:33.000Z</time></trkpt>
    <trkpt lat="14.637578" lon="121.050930"><ele>19.4</ele><time>2026-09-26T22:11:34.000Z</time></trkpt>
    <trkpt lat="14.637559" lon="121.050944"><ele>19.4</ele><time>2026-09-26T22:11:35.000Z</time></trkpt>
    <trkpt lat="14.637538" lon="121.050958"><ele>19.4</ele><time>2026-09-26T22:11:36.000Z</time></trkpt>
    <trkpt lat="14.637516" lon="121.050974"><ele>19.4</ele><time>2026-09-26T22:11:37.000Z</time></trkpt>
    <trkpt lat="14.637496" lon="121.050988"><ele>19.3</ele><time>2026-09-26T22:11:38.000Z</time></trkpt>
    <trkpt lat="14.637476" lon="121.051002"><ele>19.3</ele><time>2026-09-26T22:11:39.000Z</time></trkpt>
    <trkpt lat="14.637455" lon="121.051018"><ele>19.4</ele><time>2026-09-26T22:11:40.000Z</time></trkpt>
    <trkpt lat="14.637435" lon="121.051033"><ele>19.4</ele><time>2026-09-26T22:11:41.000Z</time></trkpt>
    <trkpt lat="14.637414" lon="121.051048"><ele>19.4</ele><time>2026-09-26T22:11:42.000Z</time></trkpt>
    <trkpt lat="14.637394" lon="121.051062"><ele>19.4</ele><time>2026-09-26T22:11:43.000Z</time></trkpt>
    <trkpt lat="14.637372" lon="121.051078"><ele>19.4</ele><time>2026-09-26T22:11:44.000Z</time></trkpt>
    <trkpt lat="14.637353" lon="121.051093"><ele>19.4</ele><time>2026-09-26T22:11:45.000Z</time></trkpt>
    <trkpt lat="14.637334" lon="121.051107"><ele>19.4</ele><time>2026-09-26T22:11:46.000Z</time></trkpt>
    <trkpt lat="14.637314" lon="121.051122"><ele>19.4</ele><time>2026-09-26T22:11:47.000Z</time></trkpt>
    <trkpt lat="14.637292" lon="121.051137"><ele>19.4</ele><time>2026-09-26T22:11:48.000Z</time></trkpt>
    <trkpt lat="14.637272" lon="121.051151"><ele>19.4</ele><time>2026-09-26T22:11:49.000Z</time></trkpt>
    <trkpt lat="14.637251" lon="121.051165"><ele>19.3</ele><time>2026-09-26T22:11:50.000Z</time></trkpt>
    <trkpt lat="14.637229" lon="121.051180"><ele>19.3</ele><time>2026-09-26T22:11:51.000Z</time></trkpt>
    <trkpt lat="14.637208" lon="121.051196"><ele>19.3</ele><time>2026-09-26T22:11:52.000Z</time></trkpt>
    <trkpt lat="14.637189" lon="121.051211"><ele>19.3</ele><time>2026-09-26T22:11:53.000Z</time></trkpt>
    <trkpt lat="14.637169" lon="121.051226"><ele>19.2</ele><time>2026-09-26T22:11:54.000Z</time></trkpt>
    <trkpt lat="14.637149" lon="121.051241"><ele>19.2</ele><time>2026-09-26T22:11:55.000Z</time></trkpt>
    <trkpt lat="14.637130" lon="121.051256"><ele>19.2</ele><time>2026-09-26T22:11:56.000Z</time></trkpt>
    <trkpt lat="14.637110" lon="121.051272"><ele>19.3</ele><time>2026-09-26T22:11:57.000Z</time></trkpt>
    <trkpt lat="14.637089" lon="121.051288"><ele>19.4</ele><time>2026-09-26T22:11:58.000Z</time></trkpt>
    <trkpt lat="14.637070" lon="121.051304"><ele>19.5</ele><time>2026-09-26T22:11:59.000Z</time></trkpt>
    <trkpt lat="14.637050" lon="121.051320"><ele>19.5</ele><time>2026-09-26T22:12:00.000Z</time></trkpt>
    <trkpt lat="14.637031" lon="121.051335"><ele>19.6</ele><time>2026-09-26T22:12:01.000Z</time></trkpt>
    <trkpt lat="14.637011" lon="121.051351"><ele>19.7</ele><time>2026-09-26T22:12:02.000Z</time></trkpt>
    <trkpt lat="14.636991" lon="121.051367"><ele>19.8</ele><time>2026-09-26T22:12:03.000Z</time></trkpt>
    <trkpt lat="14.636971" lon="121.051385"><ele>19.8</ele><time>2026-09-26T22:12:04.000Z</time></trkpt>
    <trkpt lat="14.636950" lon="121.051402"><ele>19.9</ele><time>2026-09-26T22:12:05.000Z</time></trkpt>
    <trkpt lat="14.636930" lon="121.051420"><ele>20.0</ele><time>2026-09-26T22:12:06.000Z</time></trkpt>
    <trkpt lat="14.636912" lon="121.051435"><ele>20.1</ele><time>2026-09-26T22:12:07.000Z</time></trkpt>
    <trkpt lat="14.636891" lon="121.051453"><ele>20.2</ele><time>2026-09-26T22:12:08.000Z</time></trkpt>
    <trkpt lat="14.636871" lon="121.051468"><ele>20.3</ele><time>2026-09-26T22:12:09.000Z</time></trkpt>
    <trkpt lat="14.636852" lon="121.051483"><ele>20.3</ele><time>2026-09-26T22:12:10.000Z</time></trkpt>
    <trkpt lat="14.636830" lon="121.051499"><ele>20.2</ele><time>2026-09-26T22:12:11.000Z</time></trkpt>
    <trkpt lat="14.636808" lon="121.051515"><ele>20.2</ele><time>2026-09-26T22:12:12.000Z</time></trkpt>
    <trkpt lat="14.636787" lon="121.051531"><ele>20.1</ele><time>2026-09-26T22:12:13.000Z</time></trkpt>
    <trkpt lat="14.636767" lon="121.051548"><ele>20.1</ele><time>2026-09-26T22:12:14.000Z</time></trkpt>
    <trkpt lat="14.636746" lon="121.051564"><ele>20.0</ele><time>2026-09-26T22:12:15.000Z</time></trkpt>
    <trkpt lat="14.636728" lon="121.051579"><ele>19.9</ele><time>2026-09-26T22:12:16.000Z</time></trkpt>
    <trkpt lat="14.636707" lon="121.051595"><ele>19.9</ele><time>2026-09-26T22:12:17.000Z</time></trkpt>
    <trkpt lat="14.636687" lon="121.051611"><ele>19.8</ele><time>2026-09-26T22:12:18.000Z</time></trkpt>
    <trkpt lat="14.636666" lon="121.051626"><ele>19.8</ele><time>2026-09-26T22:12:19.000Z</time></trkpt>
    <trkpt lat="14.636645" lon="121.051642"><ele>19.7</ele><time>2026-09-26T22:12:20.000Z</time></trkpt>
    <trkpt lat="14.636625" lon="121.051657"><ele>19.6</ele><time>2026-09-26T22:12:21.000Z</time></trkpt>
    <trkpt lat="14.636604" lon="121.051673"><ele>19.6</ele><time>2026-09-26T22:12:22.000Z</time></trkpt>
    <trkpt lat="14.636584" lon="121.051688"><ele>19.6</ele><time>2026-09-26T22:12:23.000Z</time></trkpt>
    <trkpt lat="14.636563" lon="121.051705"><ele>19.5</ele><time>2026-09-26T22:12:24.000Z</time></trkpt>
    <trkpt lat="14.636544" lon="121.051719"><ele>19.5</ele><time>2026-09-26T22:12:25.000Z</time></trkpt>
    <trkpt lat="14.636522" lon="121.051736"><ele>19.4</ele><time>2026-09-26T22:12:26.000Z</time></trkpt>
    <trkpt lat="14.636500" lon="121.051751"><ele>19.3</ele><time>2026-09-26T22:12:27.000Z</time></trkpt>
    <trkpt lat="14.636479" lon="121.051767"><ele>19.2</ele><time>2026-09-26T22:12:28.000Z</time></trkpt>
    <trkpt lat="14.636457" lon="121.051784"><ele>19.1</ele><time>2026-09-26T22:12:29.000Z</time></trkpt>
    <trkpt lat="14.636436" lon="121.051800"><ele>19.0</ele><time>2026-09-26T22:12:30.000Z</time></trkpt>
    <trkpt lat="14.636417" lon="121.051814"><ele>19.0</ele><time>2026-09-26T22:12:31.000Z</time></trkpt>
    <trkpt lat="14.636398" lon="121.051829"><ele>18.9</ele><time>2026-09-26T22:12:32.000Z</time></trkpt>
    <trkpt lat="14.636376" lon="121.051845"><ele>18.8</ele><time>2026-09-26T22:12:33.000Z</time></trkpt>
    <trkpt lat="14.636354" lon="121.051861"><ele>18.8</ele><time>2026-09-26T22:12:34.000Z</time></trkpt>
    <trkpt lat="14.636334" lon="121.051876"><ele>18.7</ele><time>2026-09-26T22:12:35.000Z</time></trkpt>
    <trkpt lat="14.636313" lon="121.051891"><ele>18.6</ele><time>2026-09-26T22:12:36.000Z</time></trkpt>
    <trkpt lat="14.636294" lon="121.051905"><ele>18.5</ele><time>2026-09-26T22:12:37.000Z</time></trkpt>
    <trkpt lat="14.636276" lon="121.051920"><ele>18.5</ele><time>2026-09-26T22:12:38.000Z</time></trkpt>
    <trkpt lat="14.636256" lon="121.051936"><ele>18.4</ele><time>2026-09-26T22:12:39.000Z</time></trkpt>
    <trkpt lat="14.636235" lon="121.051954"><ele>18.3</ele><time>2026-09-26T22:12:40.000Z</time></trkpt>
    <trkpt lat="14.636216" lon="121.051970"><ele>18.2</ele><time>2026-09-26T22:12:41.000Z</time></trkpt>
    <trkpt lat="14.636198" lon="121.051986"><ele>18.1</ele><time>2026-09-26T22:12:42.000Z</time></trkpt>
    <trkpt lat="14.636178" lon="121.052003"><ele>18.0</ele><time>2026-09-26T22:12:43.000Z</time></trkpt>
    <trkpt lat="14.636160" lon="121.052019"><ele>17.9</ele><time>2026-09-26T22:12:44.000Z</time></trkpt>
    <trkpt lat="14.636140" lon="121.052036"><ele>17.8</ele><time>2026-09-26T22:12:45.000Z</time></trkpt>
    <trkpt lat="14.636121" lon="121.052051"><ele>17.8</ele><time>2026-09-26T22:12:46.000Z</time></trkpt>
    <trkpt lat="14.636101" lon="121.052066"><ele>17.7</ele><time>2026-09-26T22:12:47.000Z</time></trkpt>
    <trkpt lat="14.636081" lon="121.052082"><ele>17.7</ele><time>2026-09-26T22:12:48.000Z</time></trkpt>
    <trkpt lat="14.636060" lon="121.052100"><ele>17.7</ele><time>2026-09-26T22:12:49.000Z</time></trkpt>
    <trkpt lat="14.636040" lon="121.052116"><ele>17.6</ele><time>2026-09-26T22:12:50.000Z</time></trkpt>
    <trkpt lat="14.636020" lon="121.052133"><ele>17.6</ele><time>2026-09-26T22:12:51.000Z</time></trkpt>
    <trkpt lat="14.636000" lon="121.052150"><ele>17.6</ele><time>2026-09-26T22:12:52.000Z</time></trkpt>
    <trkpt lat="14.635981" lon="121.052166"><ele>17.6</ele><time>2026-09-26T22:12:53.000Z</time></trkpt>
    <trkpt lat="14.635960" lon="121.052183"><ele>17.6</ele><time>2026-09-26T22:12:54.000Z</time></trkpt>
    <trkpt lat="14.635940" lon="121.052199"><ele>17.6</ele><time>2026-09-26T22:12:55.000Z</time></trkpt>
    <trkpt lat="14.635920" lon="121.052214"><ele>17.6</ele><time>2026-09-26T22:12:56.000Z</time></trkpt>
    <trkpt lat="14.635900" lon="121.052230"><ele>17.7</ele><time>2026-09-26T22:12:57.000Z</time></trkpt>
    <trkpt lat="14.635881" lon="121.052246"><ele>17.7</ele><time>2026-09-26T22:12:58.000Z</time></trkpt>
    <trkpt lat="14.635860" lon="121.052263"><ele>17.8</ele><time>2026-09-26T22:12:59.000Z</time></trkpt>
    <trkpt lat="14.635841" lon="121.052280"><ele>17.7</ele><time>2026-09-26T22:13:00.000Z</time></trkpt>
    <trkpt lat="14.635821" lon="121.052296"><ele>17.7</ele><time>2026-09-26T22:13:01.000Z</time></trkpt>
    <trkpt lat="14.635802" lon="121.052312"><ele>17.7</ele><time>2026-09-26T22:13:02.000Z</time></trkpt>
    <trkpt lat="14.635782" lon="121.052328"><ele>17.7</ele><time>2026-09-26T22:13:03.000Z</time></trkpt>
    <trkpt lat="14.635760" lon="121.052345"><ele>17.7</ele><time>2026-09-26T22:13:04.000Z</time></trkpt>
    <trkpt lat="14.635742" lon="121.052360"><ele>17.7</ele><time>2026-09-26T22:13:05.000Z</time></trkpt>
    <trkpt lat="14.635722" lon="121.052376"><ele>17.7</ele><time>2026-09-26T22:13:06.000Z</time></trkpt>
    <trkpt lat="14.635703" lon="121.052391"><ele>17.7</ele><time>2026-09-26T22:13:07.000Z</time></trkpt>
    <trkpt lat="14.635683" lon="121.052406"><ele>17.7</ele><time>2026-09-26T22:13:08.000Z</time></trkpt>
    <trkpt lat="14.635663" lon="121.052421"><ele>17.8</ele><time>2026-09-26T22:13:09.000Z</time></trkpt>
    <trkpt lat="14.635642" lon="121.052438"><ele>17.8</ele><time>2026-09-26T22:13:10.000Z</time></trkpt>
    <trkpt lat="14.635623" lon="121.052454"><ele>17.8</ele><time>2026-09-26T22:13:11.000Z</time></trkpt>
    <trkpt lat="14.635605" lon="121.052468"><ele>17.8</ele><time>2026-09-26T22:13:12.000Z</time></trkpt>
    <trkpt lat="14.635585" lon="121.052485"><ele>17.7</ele><time>2026-09-26T22:13:13.000Z</time></trkpt>
    <trkpt lat="14.635566" lon="121.052502"><ele>17.7</ele><time>2026-09-26T22:13:14.000Z</time></trkpt>
    <trkpt lat="14.635547" lon="121.052517"><ele>17.7</ele><time>2026-09-26T22:13:15.000Z</time></trkpt>
    <trkpt lat="14.635526" lon="121.052533"><ele>17.6</ele><time>2026-09-26T22:13:16.000Z</time></trkpt>
    <trkpt lat="14.635506" lon="121.052549"><ele>17.6</ele><time>2026-09-26T22:13:17.000Z</time></trkpt>
    <trkpt lat="14.635486" lon="121.052564"><ele>17.6</ele><time>2026-09-26T22:13:18.000Z</time></trkpt>
    <trkpt lat="14.635467" lon="121.052579"><ele>17.6</ele><time>2026-09-26T22:13:19.000Z</time></trkpt>
    <trkpt lat="14.635447" lon="121.052595"><ele>17.6</ele><time>2026-09-26T22:13:20.000Z</time></trkpt>
    <trkpt lat="14.635425" lon="121.052613"><ele>17.5</ele><time>2026-09-26T22:13:21.000Z</time></trkpt>
    <trkpt lat="14.635405" lon="121.052628"><ele>17.5</ele><time>2026-09-26T22:13:22.000Z</time></trkpt>
    <trkpt lat="14.635385" lon="121.052644"><ele>17.5</ele><time>2026-09-26T22:13:23.000Z</time></trkpt>
    <trkpt lat="14.635366" lon="121.052661"><ele>17.6</ele><time>2026-09-26T22:13:24.000Z</time></trkpt>
    <trkpt lat="14.635347" lon="121.052678"><ele>17.6</ele><time>2026-09-26T22:13:25.000Z</time></trkpt>
    <trkpt lat="14.635327" lon="121.052695"><ele>17.7</ele><time>2026-09-26T22:13:26.000Z</time></trkpt>
    <trkpt lat="14.635308" lon="121.052712"><ele>17.8</ele><time>2026-09-26T22:13:27.000Z</time></trkpt>
    <trkpt lat="14.635288" lon="121.052728"><ele>17.8</ele><time>2026-09-26T22:13:28.000Z</time></trkpt>
    <trkpt lat="14.635268" lon="121.052744"><ele>17.9</ele><time>2026-09-26T22:13:29.000Z</time></trkpt>
    <trkpt lat="14.635246" lon="121.052760"><ele>17.9</ele><time>2026-09-26T22:13:30.000Z</time></trkpt>
    <trkpt lat="14.635225" lon="121.052776"><ele>18.0</ele><time>2026-09-26T22:13:31.000Z</time></trkpt>
    <trkpt lat="14.635206" lon="121.052791"><ele>18.0</ele><time>2026-09-26T22:13:32.000Z</time></trkpt>
    <trkpt lat="14.635188" lon="121.052807"><ele>18.1</ele><time>2026-09-26T22:13:33.000Z</time></trkpt>
    <trkpt lat="14.635171" lon="121.052823"><ele>18.1</ele><time>2026-09-26T22:13:34.000Z</time></trkpt>
    <trkpt lat="14.635152" lon="121.052840"><ele>18.1</ele><time>2026-09-26T22:13:35.000Z</time></trkpt>
    <trkpt lat="14.635133" lon="121.052858"><ele>18.0</ele><time>2026-09-26T22:13:36.000Z</time></trkpt>
    <trkpt lat="14.635115" lon="121.052874"><ele>18.0</ele><time>2026-09-26T22:13:37.000Z</time></trkpt>
    <trkpt lat="14.635095" lon="121.052892"><ele>18.0</ele><time>2026-09-26T22:13:38.000Z</time></trkpt>
    <trkpt lat="14.635076" lon="121.052911"><ele>18.0</ele><time>2026-09-26T22:13:39.000Z</time></trkpt>
    <trkpt lat="14.635058" lon="121.052930"><ele>18.0</ele><time>2026-09-26T22:13:40.000Z</time></trkpt>
    <trkpt lat="14.635041" lon="121.052947"><ele>18.1</ele><time>2026-09-26T22:13:41.000Z</time></trkpt>
    <trkpt lat="14.635022" lon="121.052965"><ele>18.1</ele><time>2026-09-26T22:13:42.000Z</time></trkpt>
    <trkpt lat="14.635004" lon="121.052983"><ele>18.2</ele><time>2026-09-26T22:13:43.000Z</time></trkpt>
    <trkpt lat="14.634984" lon="121.053000"><ele>18.2</ele><time>2026-09-26T22:13:44.000Z</time></trkpt>
    <trkpt lat="14.634965" lon="121.053017"><ele>18.3</ele><time>2026-09-26T22:13:45.000Z</time></trkpt>
    <trkpt lat="14.634947" lon="121.053034"><ele>18.3</ele><time>2026-09-26T22:13:46.000Z</time></trkpt>
    <trkpt lat="14.634930" lon="121.053053"><ele>18.3</ele><time>2026-09-26T22:13:47.000Z</time></trkpt>
    <trkpt lat="14.634912" lon="121.053072"><ele>18.4</ele><time>2026-09-26T22:13:48.000Z</time></trkpt>
    <trkpt lat="14.634892" lon="121.053091"><ele>18.5</ele><time>2026-09-26T22:13:49.000Z</time></trkpt>
    <trkpt lat="14.634872" lon="121.053110"><ele>18.6</ele><time>2026-09-26T22:13:50.000Z</time></trkpt>
    <trkpt lat="14.634854" lon="121.053128"><ele>18.6</ele><time>2026-09-26T22:13:51.000Z</time></trkpt>
    <trkpt lat="14.634837" lon="121.053146"><ele>18.7</ele><time>2026-09-26T22:13:52.000Z</time></trkpt>
    <trkpt lat="14.634819" lon="121.053165"><ele>18.9</ele><time>2026-09-26T22:13:53.000Z</time></trkpt>
    <trkpt lat="14.634802" lon="121.053185"><ele>19.0</ele><time>2026-09-26T22:13:54.000Z</time></trkpt>
    <trkpt lat="14.634785" lon="121.053205"><ele>19.1</ele><time>2026-09-26T22:13:55.000Z</time></trkpt>
    <trkpt lat="14.634769" lon="121.053226"><ele>19.3</ele><time>2026-09-26T22:13:56.000Z</time></trkpt>
    <trkpt lat="14.634752" lon="121.053247"><ele>19.4</ele><time>2026-09-26T22:13:57.000Z</time></trkpt>
    <trkpt lat="14.634736" lon="121.053268"><ele>19.5</ele><time>2026-09-26T22:13:58.000Z</time></trkpt>
    <trkpt lat="14.634719" lon="121.053288"><ele>19.5</ele><time>2026-09-26T22:13:59.000Z</time></trkpt>
    <trkpt lat="14.634702" lon="121.053308"><ele>19.6</ele><time>2026-09-26T22:14:00.000Z</time></trkpt>
    <trkpt lat="14.634684" lon="121.053327"><ele>19.6</ele><time>2026-09-26T22:14:01.000Z</time></trkpt>
    <trkpt lat="14.634666" lon="121.053345"><ele>19.6</ele><time>2026-09-26T22:14:02.000Z</time></trkpt>
    <trkpt lat="14.634649" lon="121.053363"><ele>19.6</ele><time>2026-09-26T22:14:03.000Z</time></trkpt>
    <trkpt lat="14.634629" lon="121.053382"><ele>19.6</ele><time>2026-09-26T22:14:04.000Z</time></trkpt>
    <trkpt lat="14.634612" lon="121.053398"><ele>19.6</ele><time>2026-09-26T22:14:05.000Z</time></trkpt>
    <trkpt lat="14.634594" lon="121.053415"><ele>19.5</ele><time>2026-09-26T22:14:06.000Z</time></trkpt>
    <trkpt lat="14.634576" lon="121.053432"><ele>19.5</ele><time>2026-09-26T22:14:07.000Z</time></trkpt>
    <trkpt lat="14.634557" lon="121.053451"><ele>19.5</ele><time>2026-09-26T22:14:08.000Z</time></trkpt>
    <trkpt lat="14.634538" lon="121.053469"><ele>19.4</ele><time>2026-09-26T22:14:09.000Z</time></trkpt>
    <trkpt lat="14.634520" lon="121.053485"><ele>19.3</ele><time>2026-09-26T22:14:10.000Z</time></trkpt>
    <trkpt lat="14.634501" lon="121.053503"><ele>19.3</ele><time>2026-09-26T22:14:11.000Z</time></trkpt>
    <trkpt lat="14.634481" lon="121.053522"><ele>19.2</ele><time>2026-09-26T22:14:12.000Z</time></trkpt>
    <trkpt lat="14.634464" lon="121.053538"><ele>19.2</ele><time>2026-09-26T22:14:13.000Z</time></trkpt>
    <trkpt lat="14.634443" lon="121.053556"><ele>19.2</ele><time>2026-09-26T22:14:14.000Z</time></trkpt>
    <trkpt lat="14.634424" lon="121.053572"><ele>19.2</ele><time>2026-09-26T22:14:15.000Z</time></trkpt>
    <trkpt lat="14.634403" lon="121.053588"><ele>19.1</ele><time>2026-09-26T22:14:16.000Z</time></trkpt>
    <trkpt lat="14.634384" lon="121.053604"><ele>19.1</ele><time>2026-09-26T22:14:17.000Z</time></trkpt>
    <trkpt lat="14.634366" lon="121.053619"><ele>19.0</ele><time>2026-09-26T22:14:18.000Z</time></trkpt>
    <trkpt lat="14.634348" lon="121.053635"><ele>18.9</ele><time>2026-09-26T22:14:19.000Z</time></trkpt>
    <trkpt lat="14.634329" lon="121.053650"><ele>18.8</ele><time>2026-09-26T22:14:20.000Z</time></trkpt>
    <trkpt lat="14.634308" lon="121.053666"><ele>18.7</ele><time>2026-09-26T22:14:21.000Z</time></trkpt>
    <trkpt lat="14.634286" lon="121.053683"><ele>18.6</ele><time>2026-09-26T22:14:22.000Z</time></trkpt>
    <trkpt lat="14.634265" lon="121.053699"><ele>18.5</ele><time>2026-09-26T22:14:23.000Z</time></trkpt>
    <trkpt lat="14.634245" lon="121.053712"><ele>18.5</ele><time>2026-09-26T22:14:24.000Z</time></trkpt>
    <trkpt lat="14.634223" lon="121.053727"><ele>18.4</ele><time>2026-09-26T22:14:25.000Z</time></trkpt>
    <trkpt lat="14.634203" lon="121.053741"><ele>18.3</ele><time>2026-09-26T22:14:26.000Z</time></trkpt>
    <trkpt lat="14.634181" lon="121.053756"><ele>18.3</ele><time>2026-09-26T22:14:27.000Z</time></trkpt>
    <trkpt lat="14.634159" lon="121.053771"><ele>18.3</ele><time>2026-09-26T22:14:28.000Z</time></trkpt>
    <trkpt lat="14.634138" lon="121.053785"><ele>18.3</ele><time>2026-09-26T22:14:29.000Z</time></trkpt>
    <trkpt lat="14.634117" lon="121.053798"><ele>18.3</ele><time>2026-09-26T22:14:30.000Z</time></trkpt>
    <trkpt lat="14.634095" lon="121.053813"><ele>18.3</ele><time>2026-09-26T22:14:31.000Z</time></trkpt>
    <trkpt lat="14.634076" lon="121.053827"><ele>18.3</ele><time>2026-09-26T22:14:32.000Z</time></trkpt>
    <trkpt lat="14.634054" lon="121.053840"><ele>18.3</ele><time>2026-09-26T22:14:33.000Z</time></trkpt>
    <trkpt lat="14.634035" lon="121.053854"><ele>18.4</ele><time>2026-09-26T22:14:34.000Z</time></trkpt>
    <trkpt lat="14.634014" lon="121.053868"><ele>18.4</ele><time>2026-09-26T22:14:35.000Z</time></trkpt>
    <trkpt lat="14.633992" lon="121.053883"><ele>18.5</ele><time>2026-09-26T22:14:36.000Z</time></trkpt>
    <trkpt lat="14.633971" lon="121.053897"><ele>18.5</ele><time>2026-09-26T22:14:37.000Z</time></trkpt>
    <trkpt lat="14.633950" lon="121.053910"><ele>18.6</ele><time>2026-09-26T22:14:38.000Z</time></trkpt>
    <trkpt lat="14.633926" lon="121.053924"><ele>18.7</ele><time>2026-09-26T22:14:39.000Z</time></trkpt>
    <trkpt lat="14.633904" lon="121.053939"><ele>18.8</ele><time>2026-09-26T22:14:40.000Z</time></trkpt>
    <trkpt lat="14.633883" lon="121.053952"><ele>18.9</ele><time>2026-09-26T22:14:41.000Z</time></trkpt>
    <trkpt lat="14.633863" lon="121.053964"><ele>18.9</ele><time>2026-09-26T22:14:42.000Z</time></trkpt>
    <trkpt lat="14.633840" lon="121.053978"><ele>18.9</ele><time>2026-09-26T22:14:43.000Z</time></trkpt>
    <trkpt lat="14.633818" lon="121.053989"><ele>18.9</ele><time>2026-09-26T22:14:44.000Z</time></trkpt>
    <trkpt lat="14.633796" lon="121.054000"><ele>19.0</ele><time>2026-09-26T22:14:45.000Z</time></trkpt>
    <trkpt lat="14.633775" lon="121.054011"><ele>19.0</ele><time>2026-09-26T22:14:46.000Z</time></trkpt>
    <trkpt lat="14.633753" lon="121.054024"><ele>19.0</ele><time>2026-09-26T22:14:47.000Z</time></trkpt>
    <trkpt lat="14.633731" lon="121.054036"><ele>19.0</ele><time>2026-09-26T22:14:48.000Z</time></trkpt>
    <trkpt lat="14.633709" lon="121.054048"><ele>18.9</ele><time>2026-09-26T22:14:49.000Z</time></trkpt>
    <trkpt lat="14.633689" lon="121.054059"><ele>18.9</ele><time>2026-09-26T22:14:50.000Z</time></trkpt>
    <trkpt lat="14.633667" lon="121.054070"><ele>18.8</ele><time>2026-09-26T22:14:51.000Z</time></trkpt>
    <trkpt lat="14.633644" lon="121.054081"><ele>18.8</ele><time>2026-09-26T22:14:52.000Z</time></trkpt>
    <trkpt lat="14.633621" lon="121.054092"><ele>18.7</ele><time>2026-09-26T22:14:53.000Z</time></trkpt>
    <trkpt lat="14.633598" lon="121.054102"><ele>18.7</ele><time>2026-09-26T22:14:54.000Z</time></trkpt>
    <trkpt lat="14.633575" lon="121.054111"><ele>18.6</ele><time>2026-09-26T22:14:55.000Z</time></trkpt>
    <trkpt lat="14.633550" lon="121.054121"><ele>18.5</ele><time>2026-09-26T22:14:56.000Z</time></trkpt>
    <trkpt lat="14.633526" lon="121.054130"><ele>18.3</ele><time>2026-09-26T22:14:57.000Z</time></trkpt>
    <trkpt lat="14.633504" lon="121.054139"><ele>18.2</ele><time>2026-09-26T22:14:58.000Z</time></trkpt>
    <trkpt lat="14.633478" lon="121.054149"><ele>18.1</ele><time>2026-09-26T22:14:59.000Z</time></trkpt>
    </trkseg>
  </trk>
</gpx>
