<?xml version="1.0" encoding="UTF-8"?>
<gpx xmlns="http://www.topografix.com/GPX/1/1" version="1.1" creator="GPX Repair Studio"><metadata><name>Morning Run</name><desc>Repaired with GPX Repair Studio — 1 gap reconstructed, 1.44 km added. Reconstructed points carry gpxr markers; recorded values are untouched. Original creator: Garmin Connect.</desc><time>2024-05-01T07:00:00Z</time></metadata><trk><name>Morning Run</name><type>running</type><extensions><gpxr:summary xmlns:gpxr="https://gpx-repair.studio/schema/1" reconstructedDistanceM="1438" gapCount="1"/></extensions><trkseg><trkpt lat="52.520006" lon="13.404954"><ele>41.6</ele><time>2024-05-01T07:00:00Z</time></trkpt><trkpt lat="52.520051" lon="13.405024"><ele>41.7</ele><time>2024-05-01T07:00:03Z</time></trkpt><trkpt lat="52.520096" lon="13.405094"><ele>41.9</ele><time>2024-05-01T07:00:06Z</time></trkpt></trkseg><trkseg><trkpt lat="52.520138" lon="13.405214"><time>2024-05-01T07:00:10.081Z</time><extensions><gpxr:reconstructed xmlns:gpxr="https://gpx-repair.studio/schema/1" timeMethod="pace-estimated"/></extensions></trkpt><trkpt lat="52.520154" lon="13.405246"><time>2024-05-01T07:00:11.301Z</time><extensions><gpxr:reconstructed xmlns:gpxr="https://gpx-repair.studio/schema/1" timeMethod="pace-estimated"/></extensions></trkpt><trkpt lat="52.5202621" lon="13.4056118"><time>2024-05-01T07:00:23.292Z</time><extensions><gpxr:reconstructed xmlns:gpxr="https://gpx-repair.studio/schema/1" timeMethod="pace-estimated"/></extensions></trkpt><trkpt lat="52.520343" lon="13.405629"><time>2024-05-01T07:00:27.236Z</time><extensions><gpxr:reconstructed xmlns:gpxr="https://gpx-repair.studio/schema/1" timeMethod="pace-estimated"/></extensions></trkpt><trkpt lat="52.5203796" lon="13.4061482"><time>2024-05-01T07:00:42.656Z</time><extensions><gpxr:reconstructed xmlns:gpxr="https://gpx-repair.studio/schema/1" timeMethod="pace-estimated"/></extensions></trkpt><trkpt lat="52.520548" lon="13.406034"><time>2024-05-01T07:00:51.468Z</time><extensions><gpxr:reconstructed xmlns:gpxr="https://gpx-repair.studio/schema/1" timeMethod="pace-estimated"/></extensions></trkpt><trkpt lat="52.520571" lon="13.406079"><time>2024-05-01T07:00:53.200Z</time><extensions><gpxr:reconstructed xmlns:gpxr="https://gpx-repair.studio/schema/1" timeMethod="pace-estimated"/></extensions></trkpt><trkpt lat="52.520698" lon="13.406302"><time>2024-05-01T07:01:02.200Z</time><extensions><gpxr:reconstructed xmlns:gpxr="https://gpx-repair.studio/schema/1" timeMethod="pace-estimated"/></extensions></trkpt><trkpt lat="52.521236" lon="13.407369"><time>2024-05-01T07:01:43.036Z</time><extensions><gpxr:reconstructed xmlns:gpxr="https://gpx-repair.studio/schema/1" timeMethod="pace-estimated"/></extensions></trkpt><trkpt lat="52.521736" lon="13.408366"><time>2024-05-01T07:02:21.110Z</time><extensions><gpxr:reconstructed xmlns:gpxr="https://gpx-repair.studio/schema/1" timeMethod="pace-estimated"/></extensions></trkpt><trkpt lat="52.521817" lon="13.408531"><time>2024-05-01T07:02:27.358Z</time><extensions><gpxr:reconstructed xmlns:gpxr="https://gpx-repair.studio/schema/1" timeMethod="pace-estimated"/></extensions></trkpt><trkpt lat="52.521911" lon="13.408721"><time>2024-05-01T07:02:34.575Z</time><extensions><gpxr:reconstructed xmlns:gpxr="https://gpx-repair.studio/schema/1" timeMethod="pace-estimated"/></extensions></trkpt><trkpt lat="52.52202" lon="13.408935"><time>2024-05-01T07:02:42.799Z</time><extensions><gpxr:reconstructed xmlns:gpxr="https://gpx-repair.studio/schema/1" timeMethod="pace-estimated"/></extensions></trkpt><trkpt lat="52.522085" lon="13.409062"><time>2024-05-01T07:02:47.689Z</time><extensions><gpxr:reconstructed xmlns:gpxr="https://gpx-repair.studio/schema/1" timeMethod="pace-estimated"/></extensions></trkpt><trkpt lat="52.522178" lon="13.409245"><time>2024-05-01T07:02:54.715Z</time><extensions><gpxr:reconstructed xmlns:gpxr="https://gpx-repair.studio/schema/1" timeMethod="pace-estimated"/></extensions></trkpt><trkpt lat="52.522198" lon="13.409286"><time>2024-05-01T07:02:56.264Z</time><extensions><gpxr:reconstructed xmlns:gpxr="https://gpx-repair.studio/schema/1" timeMethod="pace-estimated"/></extensions></trkpt><trkpt lat="52.522214" lon="13.409315"><time>2024-05-01T07:02:57.417Z</time><extensions><gpxr:reconstructed xmlns:gpxr="https://gpx-repair.studio/schema/1" timeMethod="pace-estimated"/></extensions></trkpt><trkpt lat="52.522263" lon="13.409417"><time>2024-05-01T07:03:01.247Z</time><extensions><gpxr:reconstructed xmlns:gpxr="https://gpx-repair.studio/schema/1" timeMethod="pace-estimated"/></extensions></trkpt><trkpt lat="52.522309" lon="13.409504"><time>2024-05-01T07:03:04.644Z</time><extensions><gpxr:reconstructed xmlns:gpxr="https://gpx-repair.studio/schema/1" timeMethod="pace-estimated"/></extensions></trkpt><trkpt lat="52.522341" lon="13.409575"><time>2024-05-01T07:03:07.248Z</time><extensions><gpxr:reconstructed xmlns:gpxr="https://gpx-repair.studio/schema/1" timeMethod="pace-estimated"/></extensions></trkpt><trkpt lat="52.522449" lon="13.409814"><time>2024-05-01T07:03:16.022Z</time><extensions><gpxr:reconstructed xmlns:gpxr="https://gpx-repair.studio/schema/1" timeMethod="pace-estimated"/></extensions></trkpt><trkpt lat="52.522514" lon="13.409941"><time>2024-05-01T07:03:20.912Z</time><extensions><gpxr:reconstructed xmlns:gpxr="https://gpx-repair.studio/schema/1" timeMethod="pace-estimated"/></extensions></trkpt><trkpt lat="52.522533" lon="13.409981"><time>2024-05-01T07:03:22.407Z</time><extensions><gpxr:reconstructed xmlns:gpxr="https://gpx-repair.studio/schema/1" timeMethod="pace-estimated"/></extensions></trkpt><trkpt lat="52.522634" lon="13.410171"><time>2024-05-01T07:03:29.842Z</time><extensions><gpxr:reconstructed xmlns:gpxr="https://gpx-repair.studio/schema/1" timeMethod="pace-estimated"/></extensions></trkpt><trkpt lat="52.52265" lon="13.410198"><time>2024-05-01T07:03:30.952Z</time><extensions><gpxr:reconstructed xmlns:gpxr="https://gpx-repair.studio/schema/1" timeMethod="pace-estimated"/></extensions></trkpt><trkpt lat="52.522663" lon="13.410222"><time>2024-05-01T07:03:31.899Z</time><extensions><gpxr:reconstructed xmlns:gpxr="https://gpx-repair.studio/schema/1" timeMethod="pace-estimated"/></extensions></trkpt><trkpt lat="52.522758" lon="13.410338"><time>2024-05-01T07:03:37.627Z</time><extensions><gpxr:reconstructed xmlns:gpxr="https://gpx-repair.studio/schema/1" timeMethod="pace-estimated"/></extensions></trkpt><trkpt lat="52.523164" lon="13.41098"><time>2024-05-01T07:04:04.906Z</time><extensions><gpxr:reconstructed xmlns:gpxr="https://gpx-repair.studio/schema/1" timeMethod="pace-estimated"/></extensions></trkpt><trkpt lat="52.523201" lon="13.411036"><time>2024-05-01T07:04:07.341Z</time><extensions><gpxr:reconstructed xmlns:gpxr="https://gpx-repair.studio/schema/1" timeMethod="pace-estimated"/></extensions></trkpt><trkpt lat="52.523283" lon="13.41118"><time>2024-05-01T07:04:13.152Z</time><extensions><gpxr:reconstructed xmlns:gpxr="https://gpx-repair.studio/schema/1" timeMethod="pace-estimated"/></extensions></trkpt><trkpt lat="52.52337" lon="13.411357"><time>2024-05-01T07:04:19.858Z</time><extensions><gpxr:reconstructed xmlns:gpxr="https://gpx-repair.studio/schema/1" timeMethod="pace-estimated"/></extensions></trkpt><trkpt lat="52.52348" lon="13.411535"><time>2024-05-01T07:04:27.332Z</time><extensions><gpxr:reconstructed xmlns:gpxr="https://gpx-repair.studio/schema/1" timeMethod="pace-estimated"/></extensions></trkpt><trkpt lat="52.523714" lon="13.4119"><time>2024-05-01T07:04:42.952Z</time><extensions><gpxr:reconstructed xmlns:gpxr="https://gpx-repair.studio/schema/1" timeMethod="pace-estimated"/></extensions></trkpt><trkpt lat="52.523747" lon="13.411954"><time>2024-05-01T07:04:45.207Z</time><extensions><gpxr:reconstructed xmlns:gpxr="https://gpx-repair.studio/schema/1" timeMethod="pace-estimated"/></extensions></trkpt><trkpt lat="52.52378" lon="13.411998"><time>2024-05-01T07:04:47.264Z</time><extensions><gpxr:reconstructed xmlns:gpxr="https://gpx-repair.studio/schema/1" timeMethod="pace-estimated"/></extensions></trkpt><trkpt lat="52.52386" lon="13.412106"><time>2024-05-01T07:04:52.275Z</time><extensions><gpxr:reconstructed xmlns:gpxr="https://gpx-repair.studio/schema/1" timeMethod="pace-estimated"/></extensions></trkpt><trkpt lat="52.52386" lon="13.412107"><time>2024-05-01T07:04:52.305Z</time><extensions><gpxr:reconstructed xmlns:gpxr="https://gpx-repair.studio/schema/1" timeMethod="pace-estimated"/></extensions></trkpt><trkpt lat="52.523893" lon="13.412151"><time>2024-05-01T07:04:54.362Z</time><extensions><gpxr:reconstructed xmlns:gpxr="https://gpx-repair.studio/schema/1" timeMethod="pace-estimated"/></extensions></trkpt><trkpt lat="52.524069" lon="13.412359"><time>2024-05-01T07:05:04.854Z</time><extensions><gpxr:reconstructed xmlns:gpxr="https://gpx-repair.studio/schema/1" timeMethod="pace-estimated"/></extensions></trkpt><trkpt lat="52.524051" lon="13.412158"><time>2024-05-01T07:05:10.847Z</time><extensions><gpxr:reconstructed xmlns:gpxr="https://gpx-repair.studio/schema/1" timeMethod="pace-estimated"/></extensions></trkpt><trkpt lat="52.524045" lon="13.412096"><time>2024-05-01T07:05:12.698Z</time><extensions><gpxr:reconstructed xmlns:gpxr="https://gpx-repair.studio/schema/1" timeMethod="pace-estimated"/></extensions></trkpt><trkpt lat="52.524027" lon="13.4119"><time>2024-05-01T07:05:18.545Z</time><extensions><gpxr:reconstructed xmlns:gpxr="https://gpx-repair.studio/schema/1" timeMethod="pace-estimated"/></extensions></trkpt><trkpt lat="52.524011" lon="13.41188"><time>2024-05-01T07:05:19.518Z</time><extensions><gpxr:reconstructed xmlns:gpxr="https://gpx-repair.studio/schema/1" timeMethod="pace-estimated"/></extensions></trkpt><trkpt lat="52.523895" lon="13.411736"><time>2024-05-01T07:05:26.554Z</time><extensions><gpxr:reconstructed xmlns:gpxr="https://gpx-repair.studio/schema/1" timeMethod="pace-estimated"/></extensions></trkpt><trkpt lat="52.523786" lon="13.411597"><time>2024-05-01T07:05:33.232Z</time><extensions><gpxr:reconstructed xmlns:gpxr="https://gpx-repair.studio/schema/1" timeMethod="pace-estimated"/></extensions></trkpt><trkpt lat="52.523766" lon="13.411568"><time>2024-05-01T07:05:34.524Z</time><extensions><gpxr:reconstructed xmlns:gpxr="https://gpx-repair.studio/schema/1" timeMethod="pace-estimated"/></extensions></trkpt><trkpt lat="52.523712" lon="13.411496"><time>2024-05-01T07:05:37.890Z</time><extensions><gpxr:reconstructed xmlns:gpxr="https://gpx-repair.studio/schema/1" timeMethod="pace-estimated"/></extensions></trkpt><trkpt lat="52.523596" lon="13.411314"><time>2024-05-01T07:05:45.654Z</time><extensions><gpxr:reconstructed xmlns:gpxr="https://gpx-repair.studio/schema/1" timeMethod="pace-estimated"/></extensions></trkpt><trkpt lat="52.523304" lon="13.41086"><time>2024-05-01T07:06:05.116Z</time><extensions><gpxr:reconstructed xmlns:gpxr="https://gpx-repair.studio/schema/1" timeMethod="pace-estimated"/></extensions></trkpt><trkpt lat="52.523283" lon="13.41083"><time>2024-05-01T07:06:06.463Z</time><extensions><gpxr:reconstructed xmlns:gpxr="https://gpx-repair.studio/schema/1" timeMethod="pace-estimated"/></extensions></trkpt><trkpt lat="52.523043" lon="13.410452"><time>2024-05-01T07:06:22.557Z</time><extensions><gpxr:reconstructed xmlns:gpxr="https://gpx-repair.studio/schema/1" timeMethod="pace-estimated"/></extensions></trkpt><trkpt lat="52.522913" lon="13.410248"><time>2024-05-01T07:06:31.260Z</time><extensions><gpxr:reconstructed xmlns:gpxr="https://gpx-repair.studio/schema/1" timeMethod="pace-estimated"/></extensions></trkpt><trkpt lat="52.522749" lon="13.409986"><time>2024-05-01T07:06:42.334Z</time><extensions><gpxr:reconstructed xmlns:gpxr="https://gpx-repair.studio/schema/1" timeMethod="pace-estimated"/></extensions></trkpt><trkpt lat="52.52269" lon="13.409879"><time>2024-05-01T07:06:46.588Z</time><extensions><gpxr:reconstructed xmlns:gpxr="https://gpx-repair.studio/schema/1" timeMethod="pace-estimated"/></extensions></trkpt><trkpt lat="52.522663" lon="13.409831"><time>2024-05-01T07:06:48.515Z</time><extensions><gpxr:reconstructed xmlns:gpxr="https://gpx-repair.studio/schema/1" timeMethod="pace-estimated"/></extensions></trkpt><trkpt lat="52.522573" lon="13.409664"><time>2024-05-01T07:06:55.088Z</time><extensions><gpxr:reconstructed xmlns:gpxr="https://gpx-repair.studio/schema/1" timeMethod="pace-estimated"/></extensions></trkpt><trkpt lat="52.522539" lon="13.409602"><time>2024-05-01T07:06:57.547Z</time><extensions><gpxr:reconstructed xmlns:gpxr="https://gpx-repair.studio/schema/1" timeMethod="pace-estimated"/></extensions></trkpt><trkpt lat="52.522397" lon="13.409322"><time>2024-05-01T07:07:08.289Z</time><extensions><gpxr:reconstructed xmlns:gpxr="https://gpx-repair.studio/schema/1" timeMethod="pace-estimated"/></extensions></trkpt><trkpt lat="52.52237" lon="13.409271"><time>2024-05-01T07:07:10.281Z</time><extensions><gpxr:reconstructed xmlns:gpxr="https://gpx-repair.studio/schema/1" timeMethod="pace-estimated"/></extensions></trkpt><trkpt lat="52.522338" lon="13.409201"><time>2024-05-01T07:07:12.861Z</time><extensions><gpxr:reconstructed xmlns:gpxr="https://gpx-repair.studio/schema/1" timeMethod="pace-estimated"/></extensions></trkpt><trkpt lat="52.522318" lon="13.40916"><time>2024-05-01T07:07:14.410Z</time><extensions><gpxr:reconstructed xmlns:gpxr="https://gpx-repair.studio/schema/1" timeMethod="pace-estimated"/></extensions></trkpt><trkpt lat="52.522138" lon="13.408829"><time>2024-05-01T07:07:27.491Z</time><extensions><gpxr:reconstructed xmlns:gpxr="https://gpx-repair.studio/schema/1" timeMethod="pace-estimated"/></extensions></trkpt><trkpt lat="52.522095" lon="13.408739"><time>2024-05-01T07:07:30.863Z</time><extensions><gpxr:reconstructed xmlns:gpxr="https://gpx-repair.studio/schema/1" timeMethod="pace-estimated"/></extensions></trkpt><trkpt lat="52.521702" lon="13.407955"><time>2024-05-01T07:08:00.797Z</time><extensions><gpxr:reconstructed xmlns:gpxr="https://gpx-repair.studio/schema/1" timeMethod="pace-estimated"/></extensions></trkpt><trkpt lat="52.521024" lon="13.406571"><time>2024-05-01T07:08:53.160Z</time><extensions><gpxr:reconstructed xmlns:gpxr="https://gpx-repair.studio/schema/1" timeMethod="pace-estimated"/></extensions></trkpt><trkpt lat="52.520874" lon="13.406264"><time>2024-05-01T07:09:04.763Z</time><extensions><gpxr:reconstructed xmlns:gpxr="https://gpx-repair.studio/schema/1" timeMethod="pace-estimated"/></extensions></trkpt><trkpt lat="52.520778" lon="13.406071"><time>2024-05-01T07:09:12.109Z</time><extensions><gpxr:reconstructed xmlns:gpxr="https://gpx-repair.studio/schema/1" timeMethod="pace-estimated"/></extensions></trkpt><trkpt lat="52.520739" lon="13.405992"><time>2024-05-01T07:09:15.107Z</time><extensions><gpxr:reconstructed xmlns:gpxr="https://gpx-repair.studio/schema/1" timeMethod="pace-estimated"/></extensions></trkpt><trkpt lat="52.520724" lon="13.405963"><time>2024-05-01T07:09:16.229Z</time><extensions><gpxr:reconstructed xmlns:gpxr="https://gpx-repair.studio/schema/1" timeMethod="pace-estimated"/></extensions></trkpt><trkpt lat="52.520698" lon="13.405909"><time>2024-05-01T07:09:18.258Z</time><extensions><gpxr:reconstructed xmlns:gpxr="https://gpx-repair.studio/schema/1" timeMethod="pace-estimated"/></extensions></trkpt><trkpt lat="52.520292" lon="13.405093"><time>2024-05-01T07:09:49.322Z</time><extensions><gpxr:reconstructed xmlns:gpxr="https://gpx-repair.studio/schema/1" timeMethod="pace-estimated"/></extensions></trkpt><trkpt lat="52.520269" lon="13.405047"><time>2024-05-01T07:09:51.077Z</time><extensions><gpxr:reconstructed xmlns:gpxr="https://gpx-repair.studio/schema/1" timeMethod="pace-estimated"/></extensions></trkpt><trkpt lat="52.520161" lon="13.404829"><time>2024-05-01T07:09:59.361Z</time><extensions><gpxr:reconstructed xmlns:gpxr="https://gpx-repair.studio/schema/1" timeMethod="pace-estimated"/></extensions></trkpt><trkpt lat="52.520155" lon="13.404817"><time>2024-05-01T07:09:59.819Z</time><extensions><gpxr:reconstructed xmlns:gpxr="https://gpx-repair.studio/schema/1" timeMethod="pace-estimated"/></extensions></trkpt><trkpt lat="52.520134" lon="13.40478"><time>2024-05-01T07:10:01.310Z</time><extensions><gpxr:reconstructed xmlns:gpxr="https://gpx-repair.studio/schema/1" timeMethod="pace-estimated"/></extensions></trkpt><trkpt lat="52.520044" lon="13.404628"><time>2024-05-01T07:10:07.559Z</time><extensions><gpxr:reconstructed xmlns:gpxr="https://gpx-repair.studio/schema/1" timeMethod="pace-estimated"/></extensions></trkpt><trkpt lat="52.519918" lon="13.404811"><time>2024-05-01T07:10:15.700Z</time><extensions><gpxr:reconstructed xmlns:gpxr="https://gpx-repair.studio/schema/1" timeMethod="pace-estimated"/></extensions></trkpt><trkpt lat="52.520013" lon="13.404987"><time>2024-05-01T07:10:22.632Z</time><extensions><gpxr:reconstructed xmlns:gpxr="https://gpx-repair.studio/schema/1" timeMethod="pace-estimated"/></extensions></trkpt></trkseg><trkseg><trkpt lat="52.520141" lon="13.405164"><ele>42.0</ele><time>2024-05-01T07:00:09Z</time></trkpt><trkpt lat="52.520186" lon="13.405234"><ele>42.1</ele><time>2024-05-01T07:00:12Z</time></trkpt><trkpt lat="52.520231" lon="13.405304"><ele>42.3</ele><time>2024-05-01T07:00:15Z</time></trkpt></trkseg></trk></gpx>
