<?xml version="1.0" encoding="UTF-8"?>
<gpx version="1.1" creator="Clock Reset" xmlns="http://www.topografix.com/GPX/1/1">
  <trk>
    <name>Backwards Time</name>
    <trkseg>
      <trkpt lat="52.520006" lon="13.404954"><ele>41.6</ele><time>2024-05-01T07:00:10Z</time></trkpt>
      <trkpt lat="52.520051" lon="13.405024"><ele>41.7</ele><time>2024-05-01T07:00:05Z</time></trkpt>
      <trkpt lat="52.520096" lon="13.405094"><ele>41.9</ele><time>2024-05-01T07:00:00Z</time></trkpt>
    </trkseg>
  </trk>
</gpx>
