<?xml version="1.0" encoding="UTF-8"?>
<gpx version="1.1" creator="Deep Defects Generator 1" xmlns="http://www.topografix.com/GPX/1/1">
  <trk>
    <name>Deep defects synthetic ride</name>
    <trkseg>
      <trkpt lat="52.520000" lon="13.405000"><ele>40.0</ele><time>2024-05-01T10:00:00Z</time></trkpt>
      <trkpt lat="52.520300" lon="13.405000"><ele>40.5</ele><time>2024-05-01T10:00:03Z</time></trkpt>
      <trkpt lat="52.520600" lon="13.405000"><ele>41.0</ele><time>2024-05-01T10:00:06Z</time></trkpt>
      <trkpt lat="52.520900" lon="13.405000"><ele>41.5</ele><time>2024-05-01T10:00:09Z</time></trkpt>
      <trkpt lat="52.521200" lon="13.405000"><ele>42.0</ele><time>2024-05-01T10:00:12Z</time></trkpt>
      <trkpt lat="52.521500" lon="13.405000"><ele>42.5</ele><time>2024-05-01T10:00:15Z</time></trkpt>
      <trkpt lat="52.521800" lon="13.405000"><ele>43.0</ele><time>2024-05-01T10:00:18Z</time></trkpt>
      <trkpt lat="52.522100" lon="13.405000"><ele>43.5</ele><time>2024-05-01T10:00:21Z</time></trkpt>
      <trkpt lat="52.522400" lon="13.405000"><ele>44.0</ele><time>2024-05-01T10:00:24Z</time></trkpt>
      <trkpt lat="52.522700" lon="13.405000"><ele>44.5</ele><time>2024-05-01T10:00:27Z</time></trkpt>
      <trkpt lat="52.530000" lon="13.410000"><ele>45.0</ele><time>2024-05-01T10:00:30Z</time></trkpt>
      <trkpt lat="52.523000" lon="13.405000"><ele>45.5</ele><time>2024-05-01T10:00:33Z</time></trkpt>
      <trkpt lat="52.523002" lon="13.405006"><ele>46.0</ele><time>2024-05-01T10:00:36Z</time></trkpt>
      <trkpt lat="52.523003" lon="13.405009"><ele>46.5</ele><time>2024-05-01T10:00:39Z</time></trkpt>
      <trkpt lat="52.523004" lon="13.405010"><ele>47.0</ele><time>2024-05-01T10:00:42Z</time></trkpt>
      <trkpt lat="52.523400" lon="13.405300"><ele>47.5</ele><time>2024-05-01T10:00:04Z</time></trkpt>
      <trkpt lat="52.523700" lon="13.405300"><ele>48.0</ele><time>2024-05-01T10:00:07Z</time></trkpt>
      <trkpt lat="52.524000" lon="13.405300"><ele>48.5</ele><time>2024-05-01T10:00:13Z</time></trkpt>
      <trkpt lat="52.524300" lon="13.405300"><ele>49.0</ele><time>2024-05-01T10:00:10Z</time></trkpt>
      <trkpt lat="52.524600" lon="13.405300"><ele>49.5</ele><time>2024-05-01T10:00:16Z</time></trkpt>
      <trkpt lat="52.523550" lon="13.405300"><ele>118.0</ele><time>2024-05-01T10:01:03Z</time></trkpt>
      <trkpt lat="52.523600" lon="13.405444"><ele>50.5</ele><time>2024-05-01T10:01:06Z</time></trkpt>
      <trkpt lat="52.523602" lon="13.405462"><ele>51.0</ele><time>2024-05-01T10:01:09Z</time></trkpt>
      <trkpt lat="52.523608" lon="13.405476"><ele>51.5</ele><time>2024-05-01T10:01:12Z</time></trkpt>
      <trkpt lat="52.523617" lon="13.405486"><ele>52.0</ele><time>2024-05-01T10:01:15Z</time></trkpt>
      <trkpt lat="52.523628" lon="13.405489"><ele>52.5</ele><time>2024-05-01T10:01:18Z</time></trkpt>
      <trkpt lat="52.523638" lon="13.405485"><ele>53.0</ele><time>2024-05-01T10:01:21Z</time></trkpt>
      <trkpt lat="52.523647" lon="13.405474"><ele>53.5</ele><time>2024-05-01T10:01:24Z</time></trkpt>
      <trkpt lat="52.523652" lon="13.405459"><ele>54.0</ele><time>2024-05-01T10:01:27Z</time></trkpt>
      <trkpt lat="52.523654" lon="13.405442"><ele>54.5</ele><time>2024-05-01T10:01:30Z</time></trkpt>
      <trkpt lat="52.523651" lon="13.405425"><ele>55.0</ele><time>2024-05-01T10:01:33Z</time></trkpt>
      <trkpt lat="52.523645" lon="13.405411"><ele>55.5</ele><time>2024-05-01T10:01:36Z</time></trkpt>
      <trkpt lat="52.523635" lon="13.405402"><ele>56.0</ele><time>2024-05-01T10:01:39Z</time></trkpt>
      <trkpt lat="52.523625" lon="13.405400"><ele>56.5</ele><time>2024-05-01T10:01:42Z</time></trkpt>
      <trkpt lat="52.523614" lon="13.405405"><ele>57.0</ele><time>2024-05-01T10:01:45Z</time></trkpt>
      <trkpt lat="52.523606" lon="13.405416"><ele>57.5</ele><time>2024-05-01T10:01:48Z</time></trkpt>
      <trkpt lat="52.523700" lon="13.405500"><time>2024-05-01T10:01:48Z</time></trkpt>
      <trkpt lat="52.524000" lon="13.405500"><time>2024-05-01T10:01:51Z</time></trkpt>
      <trkpt lat="52.524300" lon="13.405500"><time>2024-05-01T10:01:54Z</time></trkpt>
      <trkpt lat="52.524600" lon="13.405500"><time>2024-05-01T10:01:57Z</time></trkpt>
      <trkpt lat="52.524900" lon="13.405500"><time>2024-05-01T10:02:00Z</time></trkpt>
      <trkpt lat="52.525200" lon="13.405500"><time>2024-05-01T10:02:03Z</time></trkpt>
      <trkpt lat="52.525500" lon="13.405500"><ele>61.0</ele><time>2024-05-01T10:02:06Z</time></trkpt>
      <trkpt lat="52.525800" lon="13.405500"><ele>61.5</ele><time>2024-05-01T10:02:09Z</time></trkpt>
      <trkpt lat="52.526100" lon="13.405500"><ele>62.0</ele><time>2024-05-01T10:02:12Z</time></trkpt>
    </trkseg>
  </trk>
</gpx>
