<?xml version="1.0" encoding="UTF-8"?>
<gpx version="1.1" creator="Standing Still" xmlns="http://www.topografix.com/GPX/1/1">
  <trk>
    <name>Waiting At The Lights</name>
    <trkseg>
      <trkpt lat="52.520006" lon="13.404954"><ele>41.6</ele><time>2024-05-01T07:00:00Z</time></trkpt>
      <trkpt lat="52.520006" lon="13.404954"><ele>41.6</ele><time>2024-05-01T07:00:03Z</time></trkpt>
      <trkpt lat="52.520006" lon="13.404954"><ele>41.6</ele><time>2024-05-01T07:00:06Z</time></trkpt>
      <trkpt lat="52.520051" lon="13.405024"><ele>41.7</ele><time>2024-05-01T07:00:09Z</time></trkpt>
    </trkseg>
  </trk>
</gpx>
