<?xml version="1.0" encoding="UTF-8"?>
<gpx version="1.1" creator="Auto-Pause Watch" xmlns="http://www.topografix.com/GPX/1/1">
  <metadata>
    <name>Empty Segment Session</name>
    <time>2024-05-01T07:00:00Z</time>
  </metadata>
  <trk>
    <name>With Empty</name>
    <trkseg/>
    <trkseg>
      <trkpt lat="52.520006" lon="13.404954"><ele>41.6</ele><time>2024-05-01T07:00:00Z</time></trkpt>
      <trkpt lat="52.520051" lon="13.405024"><ele>41.7</ele><time>2024-05-01T07:00:10Z</time></trkpt>
    </trkseg>
  </trk>
</gpx>
