<?xml version="1.0" encoding="UTF-8"?>
<gpx version="1.1" creator="Vendor Zoo" xmlns="http://www.topografix.com/GPX/1/1" xmlns:foo="http://example.com/foo">
  <foo:rootext vendor="root-level">kept verbatim</foo:rootext>
  <trk>
    <name>Extras</name>
    <trkseg>
      <trkpt lat="52.520006" lon="13.404954"><ele>41.6</ele><time>2024-05-01T07:00:00Z</time></trkpt>
      <extensions><foo:segext position="after-first-point">1</foo:segext></extensions>
      <trkpt lat="52.520051" lon="13.405024"><ele>41.7</ele><ele>41.8</ele><time>2024-05-01T07:00:03Z</time></trkpt>
      <trkpt lat="52.520096" lon="13.405094"><ele>41.9</ele><time>2024-05-01T07:00:06Z</time></trkpt>
    </trkseg>
    <extensions><foo:trkext position="after-segment">after-seg</foo:trkext></extensions>
  </trk>
</gpx>
