<?xml version="1.0" encoding="UTF-8"?>
<gpx version="1.1" creator="Naive Watch" xmlns="http://www.topografix.com/GPX/1/1">
  <trk>
    <name>Naive Timestamps</name>
    <trkseg>
      <trkpt lat="52.520006" lon="13.404954"><ele>41.6</ele><time>2024-05-01T08:00:00</time></trkpt>
      <trkpt lat="52.520051" lon="13.405024"><ele>41.7</ele><time>2024-05-01T08:00:03</time></trkpt>
      <trkpt lat="52.520096" lon="13.405094"><ele>41.9</ele><time>2024-05-01T08:00:06</time></trkpt>
      <trkpt lat="52.520141" lon="13.405164"><ele>42.0</ele><time>2024-05-01T08:00:09</time></trkpt>
    </trkseg>
  </trk>
</gpx>
