<?xml version="1.0" encoding="UTF-8"?>
<gpx version="1.1" creator="PrettyPrinter" xmlns="http://www.topografix.com/GPX/1/1">
  <metadata>
    <name>
      Padded Name
    </name>
    <time>2024-05-01T07:00:00Z</time>
  </metadata>
  <trk>
    <name>Pretty Run</name>
    <trkseg>
      <trkpt lat="52.520006" lon="13.404954">
        <ele>
          41.60
        </ele>
        <time>2024-05-01T07:00:00Z</time>
      </trkpt>
      <trkpt lat="52.520051" lon="13.405024">
        <ele>
          41.70
        </ele>
        <time>2024-05-01T07:00:03Z</time>
      </trkpt>
      <trkpt lat="52.520096" lon="13.405094">
        <ele>
          41.90
        </ele>
        <time>2024-05-01T07:00:06Z</time>
      </trkpt>
    </trkseg>
  </trk>
</gpx>
