<?xml version="1.0" encoding="UTF-8"?>
<gpx version="1.1" creator="Auto-Restart" xmlns="http://www.topografix.com/GPX/1/1">
  <trk>
    <name>Restarted Recording</name>
    <trkseg>
      <trkpt lat="52.520006" lon="13.404954"><ele>41.6</ele><time>2024-05-01T07:00:00Z</time></trkpt>
      <trkpt lat="52.520051" lon="13.405024"><ele>41.7</ele><time>2024-05-01T07:00:03Z</time></trkpt>
      <trkpt lat="52.520096" lon="13.405094"><ele>41.9</ele><time>2024-05-01T07:00:06Z</time></trkpt>
    </trkseg>
    <trkseg>
      <trkpt lat="52.523700" lon="13.409100"><ele>43.0</ele><time>2024-05-01T07:10:06Z</time></trkpt>
      <trkpt lat="52.523746" lon="13.409170"><ele>43.1</ele><time>2024-05-01T07:10:09Z</time></trkpt>
    </trkseg>
  </trk>
</gpx>
