<?xml version="1.0" encoding="UTF-8"?>
<gpx version="1.1" creator="Paused Watch" xmlns="http://www.topografix.com/GPX/1/1">
  <trk>
    <name>Pause At The Fountain</name>
    <trkseg>
      <trkpt lat="52.520006" lon="13.404954"><ele>41.6</ele><time>2024-05-01T07:00:00Z</time></trkpt>
      <trkpt lat="52.520051" lon="13.405024"><ele>41.7</ele><time>2024-05-01T07:00:03Z</time></trkpt>
      <trkpt lat="52.520096" lon="13.405094"><ele>41.9</ele><time>2024-05-01T07:00:06Z</time></trkpt>
      <trkpt lat="52.520141" lon="13.405164"><ele>42.0</ele><time>2024-05-01T07:00:09Z</time></trkpt>
      <trkpt lat="52.520186" lon="13.405234"><ele>42.1</ele><time>2024-05-01T07:05:09Z</time></trkpt>
      <trkpt lat="52.520231" lon="13.405304"><ele>42.3</ele><time>2024-05-01T07:05:12Z</time></trkpt>
      <trkpt lat="52.520276" lon="13.405374"><ele>42.4</ele><time>2024-05-01T07:05:15Z</time></trkpt>
      <trkpt lat="52.520321" lon="13.405444"><ele>42.5</ele><time>2024-05-01T07:05:18Z</time></trkpt>
    </trkseg>
  </trk>
</gpx>
