<?xml version="1.0" encoding="UTF-8"?>
<gpx version="1.1" creator="Globetrotter 🌍" xmlns="http://www.topografix.com/GPX/1/1">
  <metadata>
    <name>Morgensport – 晨间跑步 – Désirée's loop</name>
    <time>2024-05-01T07:00:00Z</time>
  </metadata>
  <wpt lat="52.512633" lon="13.381089">
    <name>水塔 / Wasserturm</name>
  </wpt>
  <trk>
    <name>Stadtrandlauf 🏃‍♂️</name>
    <type>бег</type>
    <trkseg>
      <trkpt lat="52.520006" lon="13.404954"><ele>41.6</ele><time>2024-05-01T07:00:00Z</time></trkpt>
      <trkpt lat="52.520051" lon="13.405024"><ele>41.7</ele><time>2024-05-01T07:00:03Z</time></trkpt>
      <trkpt lat="52.520096" lon="13.405094"><ele>41.9</ele><time>2024-05-01T07:00:06Z</time></trkpt>
    </trkseg>
  </trk>
</gpx>
