<?xml version="1.0" encoding="UTF-8"?>
<gpx version="1.1" creator="Waypointer" xmlns="http://www.topografix.com/GPX/1/1">
  <metadata>
    <name>City Tour</name>
    <time>2024-05-01T07:00:00Z</time>
  </metadata>
  <wpt lat="52.516275" lon="13.377704">
    <ele>36.0</ele>
    <name>Brandenburger Tor</name>
    <sym>Flag, Blue</sym>
  </wpt>
  <wpt lat="52.518611" lon="13.408056">
    <ele>35.0</ele>
    <name>Checkpoint 2</name>
    <extensions>
      <gpxx:WaypointExtension xmlns:gpxx="http://www.garmin.com/xmlschemas/GpxExtensions/v3">
        <gpxx:DisplayColor>Magenta</gpxx:DisplayColor>
      </gpxx:WaypointExtension>
    </extensions>
  </wpt>
  <rte>
    <name>Sightseeing Route</name>
    <rtept lat="52.516275" lon="13.377704"><name>Start</name></rtept>
    <rtept lat="52.518611" lon="13.408056"><name>Gate</name></rtept>
    <rtept lat="52.512633" lon="13.381089"><name>End</name></rtept>
  </rte>
  <trk>
    <name>Walking Bits</name>
    <trkseg>
      <trkpt lat="52.516275" lon="13.377704"><ele>36.0</ele><time>2024-05-01T07:00:00Z</time></trkpt>
      <trkpt lat="52.516320" lon="13.377774"><ele>36.1</ele><time>2024-05-01T07:00:04Z</time></trkpt>
    </trkseg>
  </trk>
</gpx>
