<?xml version="1.0" encoding="UTF-8"?>
<gpx version="1.1" creator="Signal Loser" xmlns="http://www.topografix.com/GPX/1/1">
  <trk>
    <name>Zero Coordinates</name>
    <trkseg>
      <trkpt lat="35.681236" lon="139.767125"><ele>25.0</ele><time>2024-05-01T07:00:00Z</time></trkpt>
      <trkpt lat="0.0" lon="0.0"><ele>0.0</ele><time>2024-05-01T07:00:03Z</time></trkpt>
      <trkpt lat="0.0" lon="0.0"><ele>0.0</ele><time>2024-05-01T07:00:06Z</time></trkpt>
      <trkpt lat="0.0" lon="0.0"><ele>0.0</ele><time>2024-05-01T07:00:09Z</time></trkpt>
      <trkpt lat="35.681281" lon="139.767195"><ele>25.2</ele><time>2024-05-01T07:00:12Z</time></trkpt>
    </trkseg>
  </trk>
</gpx>
